{"type":"FeatureCollection","name":"aop_9_patch_data_bounds","features":[{"type":"Feature","properties":{"id":"aop_9_patch-0","name":"Cell NW","description":"Use for imagery/topo/DEM/lidar acquisition context only. Trails stay inside the park working envelope.","kind":"acquisition_aoi_cell","source":"brain/research/aop_data_bounds.md","confidence":"planning","permission":"n/a — planning overlay","status":"planning","last_checked":"2026-05-20","cell_code":"NW","role":"raster_terrain_context","generated_on":"2026-05-20","notes":"Use for imagery/topo/DEM/lidar acquisition context only. Trails stay inside the park working envelope."},"geometry":{"type":"Polygon","coordinates":[[[-85.782935283,35.10100706],[-85.761008221,35.10100706],[-85.761008221,35.117928496],[-85.782935283,35.117928496],[-85.782935283,35.10100706]]]}},{"type":"Feature","properties":{"id":"aop_9_patch-1","name":"Cell N","description":"Use for imagery/topo/DEM/lidar acquisition context only. Trails stay inside the park working envelope.","kind":"acquisition_aoi_cell","source":"brain/research/aop_data_bounds.md","confidence":"planning","permission":"n/a — planning overlay","status":"planning","last_checked":"2026-05-20","cell_code":"N","role":"raster_terrain_context","generated_on":"2026-05-20","notes":"Use for imagery/topo/DEM/lidar acquisition context only. Trails stay inside the park working envelope."},"geometry":{"type":"Polygon","coordinates":[[[-85.761008221,35.10100706],[-85.739081159,35.10100706],[-85.739081159,35.117928496],[-85.761008221,35.117928496],[-85.761008221,35.10100706]]]}},{"type":"Feature","properties":{"id":"aop_9_patch-2","name":"Cell NE","description":"Use for imagery/topo/DEM/lidar acquisition context only. Trails stay inside the park working envelope.","kind":"acquisition_aoi_cell","source":"brain/research/aop_data_bounds.md","confidence":"planning","permission":"n/a — planning overlay","status":"planning","last_checked":"2026-05-20","cell_code":"NE","role":"raster_terrain_context","generated_on":"2026-05-20","notes":"Use for imagery/topo/DEM/lidar acquisition context only. Trails stay inside the park working envelope."},"geometry":{"type":"Polygon","coordinates":[[[-85.739081159,35.10100706],[-85.717154097,35.10100706],[-85.717154097,35.117928496],[-85.739081159,35.117928496],[-85.739081159,35.10100706]]]}},{"type":"Feature","properties":{"id":"aop_9_patch-3","name":"Cell W","description":"Use for imagery/topo/DEM/lidar acquisition context only. Trails stay inside the park working envelope.","kind":"acquisition_aoi_cell","source":"brain/research/aop_data_bounds.md","confidence":"planning","permission":"n/a — planning overlay","status":"planning","last_checked":"2026-05-20","cell_code":"W","role":"raster_terrain_context","generated_on":"2026-05-20","notes":"Use for imagery/topo/DEM/lidar acquisition context only. Trails stay inside the park working envelope."},"geometry":{"type":"Polygon","coordinates":[[[-85.782935283,35.084085624],[-85.761008221,35.084085624],[-85.761008221,35.10100706],[-85.782935283,35.10100706],[-85.782935283,35.084085624]]]}},{"type":"Feature","properties":{"id":"aop_9_patch-4","name":"Cell C","description":"Current exported bbox of the two-parcel candidate AOP working envelope.","kind":"acquisition_aoi_cell","source":"brain/research/aop_data_bounds.md","confidence":"planning","permission":"n/a — planning overlay","status":"planning","last_checked":"2026-05-20","cell_code":"C","role":"current_parcel_envelope_bounds","generated_on":"2026-05-20","notes":"Current exported bbox of the two-parcel candidate AOP working envelope."},"geometry":{"type":"Polygon","coordinates":[[[-85.761008221,35.084085624],[-85.739081159,35.084085624],[-85.739081159,35.10100706],[-85.761008221,35.10100706],[-85.761008221,35.084085624]]]}},{"type":"Feature","properties":{"id":"aop_9_patch-5","name":"Cell E","description":"Use for imagery/topo/DEM/lidar acquisition context only. Trails stay inside the park working envelope.","kind":"acquisition_aoi_cell","source":"brain/research/aop_data_bounds.md","confidence":"planning","permission":"n/a — planning overlay","status":"planning","last_checked":"2026-05-20","cell_code":"E","role":"raster_terrain_context","generated_on":"2026-05-20","notes":"Use for imagery/topo/DEM/lidar acquisition context only. Trails stay inside the park working envelope."},"geometry":{"type":"Polygon","coordinates":[[[-85.739081159,35.084085624],[-85.717154097,35.084085624],[-85.717154097,35.10100706],[-85.739081159,35.10100706],[-85.739081159,35.084085624]]]}},{"type":"Feature","properties":{"id":"aop_9_patch-6","name":"Cell SW","description":"Use for imagery/topo/DEM/lidar acquisition context only. Trails stay inside the park working envelope.","kind":"acquisition_aoi_cell","source":"brain/research/aop_data_bounds.md","confidence":"planning","permission":"n/a — planning overlay","status":"planning","last_checked":"2026-05-20","cell_code":"SW","role":"raster_terrain_context","generated_on":"2026-05-20","notes":"Use for imagery/topo/DEM/lidar acquisition context only. Trails stay inside the park working envelope."},"geometry":{"type":"Polygon","coordinates":[[[-85.782935283,35.067164188],[-85.761008221,35.067164188],[-85.761008221,35.084085624],[-85.782935283,35.084085624],[-85.782935283,35.067164188]]]}},{"type":"Feature","properties":{"id":"aop_9_patch-7","name":"Cell S","description":"Use for imagery/topo/DEM/lidar acquisition context only. Trails stay inside the park working envelope.","kind":"acquisition_aoi_cell","source":"brain/research/aop_data_bounds.md","confidence":"planning","permission":"n/a — planning overlay","status":"planning","last_checked":"2026-05-20","cell_code":"S","role":"raster_terrain_context","generated_on":"2026-05-20","notes":"Use for imagery/topo/DEM/lidar acquisition context only. Trails stay inside the park working envelope."},"geometry":{"type":"Polygon","coordinates":[[[-85.761008221,35.067164188],[-85.739081159,35.067164188],[-85.739081159,35.084085624],[-85.761008221,35.084085624],[-85.761008221,35.067164188]]]}},{"type":"Feature","properties":{"id":"aop_9_patch-8","name":"Cell SE","description":"Use for imagery/topo/DEM/lidar acquisition context only. Trails stay inside the park working envelope.","kind":"acquisition_aoi_cell","source":"brain/research/aop_data_bounds.md","confidence":"planning","permission":"n/a — planning overlay","status":"planning","last_checked":"2026-05-20","cell_code":"SE","role":"raster_terrain_context","generated_on":"2026-05-20","notes":"Use for imagery/topo/DEM/lidar acquisition context only. Trails stay inside the park working envelope."},"geometry":{"type":"Polygon","coordinates":[[[-85.739081159,35.067164188],[-85.717154097,35.067164188],[-85.717154097,35.084085624],[-85.739081159,35.084085624],[-85.739081159,35.067164188]]]}}],"_meta":{"maturity":"reference","group":"9-patch acquisition AOI","locked":false,"maturity_note":"reference — external raw context"}}