{"type":"FeatureCollection","schema":"aop_editor_seed_v1","note":"Default editorPois loaded into aop_editor_pois_v1 on a fresh install or Reset viewer. Update workflow: draw → Export GeoJSON in the Map editor section → replace this file with the downloaded aop_editor_features.geojson → commit. Every feature gains properties.source = aop_editor_seed_v1 at load time. The optional seed_tag property writes a #tag binding into aop_feature_tags_v1 for the matching feature id; existing bindings on other layers carrying the same tag are stripped (the seed wins).","features":[{"type":"Feature","geometry":{"type":"Point","coordinates":[-85.7482512,35.0907264]},"properties":{"id":"aop_seed_pavilion","name":"AOP Pavilion","description":"Main pavilion at 1010 Ellis Cove Road. G-Central / event registration anchor. The #pavilion tag bound to this POI resolves the event schedule's pavilion entries to this point — previously bound to the underlying FEMA building footprint (build_id 3397585); migrated here so the binding lives on a first-class editor POI rather than a 9-patch reference layer.","kind":"Pavilion","source":"editor (first-party)","confidence":"draft","permission":"first-party","status":"draft","last_checked":null,"layer":"editor_poi","category":"Pavilion","notes":"Main pavilion at 1010 Ellis Cove Road. G-Central / event registration anchor. The #pavilion tag bound to this POI resolves the event schedule's pavilion entries to this point — previously bound to the underlying FEMA building footprint (build_id 3397585); migrated here so the binding lives on a first-class editor POI rather than a 9-patch reference layer.","highlight":true,"seed_tag":"#pavilion","created":"2026-05-26T00:00:00Z"}}]}