{"type":"FeatureCollection","name":"aop_brand_logos","metadata":{"description":"On-map brand logo overlays for AOP and the Rock Warblers. Seed coordinates are nudged off the 1010 pavilion so both logos read at first load; positions are draggable via the feature list panel and persist in the aop_brand_logos_overrides_v1 store. To bake drag/resize positions back here so they survive a data reset: viewer right panel 'Export all' -> save JSON -> python3 mvp/scripts/export_positioned_features.py <that file>.","permission_note":"AOP badge is reference-only until AOP confirms reuse. Rock Warblers logo cleared for this project per user grant (the user is Rock Warblers). See brain/tasks/02_edit/assets/branding/README.md.","generated":"2026-05-30"},"features":[{"type":"Feature","properties":{"id":"aop_badge","name":"AOP badge","description":null,"kind":"brand_logo","source":"Adventure Off Road Park","confidence":"n/a","permission":"brand owner","status":"decorative","last_checked":null,"logo_id":"aop_badge","icon_image":"brand-aop-badge","icon_size":0.2,"attribution":"Adventure Off Road Park","source_url":"https://adventureoffroadpark.com/"},"geometry":{"type":"Point","coordinates":[-85.74157,35.08698]}},{"type":"Feature","properties":{"id":"rock_warblers","name":"Rock Warblers","description":null,"kind":"brand_logo","source":"Team Rock Warblers RC Rock Crawling","confidence":"n/a","permission":"brand owner","status":"decorative","last_checked":null,"logo_id":"rock_warblers","icon_image":"brand-rock-warblers","icon_size":0.19,"attribution":"Team Rock Warblers RC Rock Crawling","source_url":"https://www.facebook.com/events/adventure-offroad-park-nature-center/rock-warblers-trail-blazing-invitational/4541595172728436/"},"geometry":{"type":"Point","coordinates":[-85.74188,35.09385]}}]}