{
  "type": "FeatureCollection",
  "name": "aop_visitor_context_callouts",
  "_description": "Two planning callout areas for visitor support orientation around Adventure Off Road Park. These are cartographic annotations, not surveyed service-area boundaries. To bake drag-to-move positions back here so they survive a data reset: viewer right panel 'Export all' -> save JSON -> python3 mvp/scripts/export_positioned_features.py <that file>.",
  "_sources_checked": [
    {
      "name": "Adventure Off Road Park official site / rentals pages",
      "url": "https://adventureoffroadpark.com/",
      "used_for": "AOP address, on-site camping/RV/bunkhouse context, office contact",
      "accessed": "2026-05-21"
    },
    {
      "name": "RiderPlanet Adventure Off Road Park page",
      "url": "https://www.riderplanet-usa.com/atv/trails/info/tennessee_15194/ride_d19a.htm",
      "used_for": "AOP approach directions, nearby key services, camping/RV/restroom/shower notes",
      "accessed": "2026-05-21"
    },
    {
      "name": "Marion County Tennessee Tourism restaurants",
      "url": "https://visitmarioncountytn.com/food-and-drink/all-restaurants/",
      "used_for": "Restaurant clusters in South Pittsburg, Kimball, and Monteagle",
      "accessed": "2026-05-21"
    },
    {
      "name": "Marion County Tennessee Tourism hotels",
      "url": "https://visitmarioncountytn.com/places-to-stay/hotels/",
      "used_for": "Hotel/lodging clusters in South Pittsburg, Kimball, and Monteagle",
      "accessed": "2026-05-21"
    },
    {
      "name": "Distance-Cities South Pittsburg to Monteagle",
      "url": "https://www.distance-cities.com/distance-south-pittsburg-tn-to-monteagle-tn",
      "used_for": "South Pittsburg to Monteagle drive-time planning estimate; AOP to Monteagle label is rounded upward from park approach distance plus this city-to-city route",
      "accessed": "2026-05-21"
    },
    {
      "name": "Distance-Cities South Pittsburg to Chattanooga",
      "url": "https://www.distance-cities.com/distance-south-pittsburg-tn-to-chattanooga-tn",
      "used_for": "South Pittsburg to Chattanooga drive distance/time (30 mi, ~35 min via I-24); the AOP-to-Chattanooga circle label rounds the park approach plus this route to orient riders to the regional metro",
      "accessed": "2026-05-21"
    }
  ],
  "features": [
    {
      "type": "Feature",
      "properties": {
        "name": "South Pittsburg / Kimball supply run",
        "label": "SE TO SOUTH PITTSBURG / KIMBALL\n5-8 mi | 10-15 min\nfood \u2022 fuel \u2022 hotels\nChattanooga metro ~35 mi | ~45 min",
        "direction": "southeast",
        "kind": "visitor_support",
        "services": "food, fuel, convenience, hotels, I-24 access; Chattanooga metro further SE",
        "examples": "South Pittsburg restaurants; Kimball I-24 interchange fuel, fast food, and Hampton Inn hotel cluster; Chattanooga metro for airport, big-box, and full city services",
        "distance_note": "Approximate from the AOP office / Ellis Cove Road approach. Chattanooga sits about 30 driving miles past South Pittsburg via I-24, so the ~35 mi / ~45 min AOP-to-Chattanooga figure rounds the park approach plus that route \u2014 a regional-orientation estimate, not turn-by-turn routing.",
        "drive_time_note": "Planning estimate; check live routing and hours before relying on it.",
        "source_summary": "AOP office address; RiderPlanet approach and key-services notes; Marion County Tourism food/lodging listings; South Pittsburg-to-Chattanooga drive reference.",
        "directions_url": "https://www.google.com/maps/dir/?api=1&origin=1040%20Ellis%20Cove%20Road%2C%20South%20Pittsburg%2C%20TN%2037380&destination=South%20Pittsburg%2C%20TN",
        "food_url": "https://visitmarioncountytn.com/food-and-drink/all-restaurants/#:~:text=South%20Pittsburg&text=Kimball",
        "lodging_url": "https://visitmarioncountytn.com/places-to-stay/hotels/#:~:text=Kimball&text=South%20Pittsburg",
        "source_url": "https://www.riderplanet-usa.com/atv/trails/info/tennessee_15194/ride_d19a.htm"
      },
      "geometry": {
        "type": "Polygon",
        "coordinates": [
          [
            [
              -85.733711177,
              35.0837
            ],
            [
              -85.733758135,
              35.084286268
            ],
            [
              -85.733898204,
              35.084862506
            ],
            [
              -85.734128989,
              35.085418852
            ],
            [
              -85.73444654,
              35.085945788
            ],
            [
              -85.734845424,
              35.086434298
            ],
            [
              -85.735318816,
              35.086876024
            ],
            [
              -85.735858616,
              35.087263407
            ],
            [
              -85.736455589,
              35.087589819
            ],
            [
              -85.737099518,
              35.087849676
            ],
            [
              -85.737779388,
              35.08803853
            ],
            [
              -85.738483565,
              35.08815315
            ],
            [
              -85.7392,
              35.088191576
            ],
            [
              -85.739916435,
              35.08815315
            ],
            [
              -85.740620612,
              35.08803853
            ],
            [
              -85.741300482,
              35.087849676
            ],
            [
              -85.741944411,
              35.087589819
            ],
            [
              -85.742541384,
              35.087263407
            ],
            [
              -85.743081184,
              35.086876024
            ],
            [
              -85.743554576,
              35.086434298
            ],
            [
              -85.74395346,
              35.085945788
            ],
            [
              -85.744271011,
              35.085418852
            ],
            [
              -85.744501796,
              35.084862506
            ],
            [
              -85.744641865,
              35.084286268
            ],
            [
              -85.744688823,
              35.0837
            ],
            [
              -85.744641865,
              35.083113732
            ],
            [
              -85.744501796,
              35.082537494
            ],
            [
              -85.744271011,
              35.081981148
            ],
            [
              -85.74395346,
              35.081454212
            ],
            [
              -85.743554576,
              35.080965702
            ],
            [
              -85.743081184,
              35.080523976
            ],
            [
              -85.742541384,
              35.080136593
            ],
            [
              -85.741944411,
              35.079810181
            ],
            [
              -85.741300482,
              35.079550324
            ],
            [
              -85.740620612,
              35.07936147
            ],
            [
              -85.739916435,
              35.07924685
            ],
            [
              -85.7392,
              35.079208424
            ],
            [
              -85.738483565,
              35.07924685
            ],
            [
              -85.737779388,
              35.07936147
            ],
            [
              -85.737099518,
              35.079550324
            ],
            [
              -85.736455589,
              35.079810181
            ],
            [
              -85.735858616,
              35.080136593
            ],
            [
              -85.735318816,
              35.080523976
            ],
            [
              -85.734845424,
              35.080965702
            ],
            [
              -85.73444654,
              35.081454212
            ],
            [
              -85.734128989,
              35.081981148
            ],
            [
              -85.733898204,
              35.082537494
            ],
            [
              -85.733758135,
              35.083113732
            ],
            [
              -85.733711177,
              35.0837
            ]
          ]
        ]
      }
    },
    {
      "type": "Feature",
      "properties": {
        "name": "Monteagle plateau services",
        "label": "N/NW TO MONTEAGLE\n~30 min\nfood \u2022 lodging \u2022 I-24",
        "direction": "northwest",
        "kind": "visitor_support",
        "services": "lodging, restaurants, I-24 plateau access",
        "examples": "Smokehouse Lodge & Cabins, Monteagle hotels, Mountain Goat Market, High Point, Smokehouse Restaurant",
        "distance_note": "South Pittsburg to Monteagle is listed at about 21 driving miles; AOP adds the Ellis Cove Road approach.",
        "drive_time_note": "Approximate planning callout, rounded upward from the city-to-city drive and park approach.",
        "source_summary": "Marion County Tourism Monteagle food/lodging listings; South Pittsburg to Monteagle drive-distance reference.",
        "directions_url": "https://www.google.com/maps/dir/?api=1&origin=1040%20Ellis%20Cove%20Road%2C%20South%20Pittsburg%2C%20TN%2037380&destination=Monteagle%2C%20TN",
        "food_url": "https://visitmarioncountytn.com/food-and-drink/all-restaurants/#:~:text=Monteagle",
        "lodging_url": "https://visitmarioncountytn.com/places-to-stay/hotels/#:~:text=Monteagle",
        "source_url": "https://www.distance-cities.com/distance-south-pittsburg-tn-to-monteagle-tn"
      },
      "geometry": {
        "type": "Polygon",
        "coordinates": [
          [
            [
              -85.742290399,
              35.0942
            ],
            [
              -85.742339246,
              35.094809719
            ],
            [
              -85.742484949,
              35.095409006
            ],
            [
              -85.742725017,
              35.095987606
            ],
            [
              -85.743055341,
              35.09653562
            ],
            [
              -85.743470269,
              35.09704367
            ],
            [
              -85.743962703,
              35.097503065
            ],
            [
              -85.744524215,
              35.097905943
            ],
            [
              -85.7451452,
              35.098245412
            ],
            [
              -85.74581503,
              35.098515663
            ],
            [
              -85.746522247,
              35.098712071
            ],
            [
              -85.747254748,
              35.098831276
            ],
            [
              -85.748,
              35.098871239
            ],
            [
              -85.748745252,
              35.098831276
            ],
            [
              -85.749477753,
              35.098712071
            ],
            [
              -85.75018497,
              35.098515663
            ],
            [
              -85.7508548,
              35.098245412
            ],
            [
              -85.751475785,
              35.097905943
            ],
            [
              -85.752037297,
              35.097503065
            ],
            [
              -85.752529731,
              35.09704367
            ],
            [
              -85.752944659,
              35.09653562
            ],
            [
              -85.753274983,
              35.095987606
            ],
            [
              -85.753515051,
              35.095409006
            ],
            [
              -85.753660754,
              35.094809719
            ],
            [
              -85.753709601,
              35.0942
            ],
            [
              -85.753660754,
              35.093590281
            ],
            [
              -85.753515051,
              35.092990994
            ],
            [
              -85.753274983,
              35.092412394
            ],
            [
              -85.752944659,
              35.09186438
            ],
            [
              -85.752529731,
              35.09135633
            ],
            [
              -85.752037297,
              35.090896935
            ],
            [
              -85.751475785,
              35.090494057
            ],
            [
              -85.7508548,
              35.090154588
            ],
            [
              -85.75018497,
              35.089884337
            ],
            [
              -85.749477753,
              35.089687929
            ],
            [
              -85.748745252,
              35.089568724
            ],
            [
              -85.748,
              35.089528761
            ],
            [
              -85.747254748,
              35.089568724
            ],
            [
              -85.746522247,
              35.089687929
            ],
            [
              -85.74581503,
              35.089884337
            ],
            [
              -85.7451452,
              35.090154588
            ],
            [
              -85.744524215,
              35.090494057
            ],
            [
              -85.743962703,
              35.090896935
            ],
            [
              -85.743470269,
              35.09135633
            ],
            [
              -85.743055341,
              35.09186438
            ],
            [
              -85.742725017,
              35.092412394
            ],
            [
              -85.742484949,
              35.092990994
            ],
            [
              -85.742339246,
              35.093590281
            ],
            [
              -85.742290399,
              35.0942
            ]
          ]
        ]
      }
    }
  ]
}
