{"type":"FeatureCollection","_source":"Tennessee Comptroller of the Treasury — Marion County parcels (TN_County_Parcel_Map FeatureServer layer 35)","_generated_by":"mvp/scripts/import_marion_cemeteries.py","features":[{"type":"Feature","properties":{"id":"093 001.02","name":"Tate Cemetery","description":null,"kind":"cemetery","source":"Tennessee Comptroller of the Treasury — Marion County parcels (TN_County_Parcel_Map FeatureServer layer 35)","confidence":"observed (county parcel)","permission":"parcel: public; burial roster: USGenWeb non-commercial","status":"raw context","last_checked":null,"source_file":"aop_cemeteries.geojson","facets":{"address":"TATE COVE RD"},"cemetery_type":"cemetery","parcel_id":"093 001.02","parcel_gislink":"058093    00102","parcel_class":"05 RELIGIOUS","parcel_owner":"CEMETERY TATE","address":"TATE COVE RD","acres":0.698,"aop_inholding":false,"note":"","parcel_source":"Tennessee Comptroller of the Treasury — Marion County parcels (TN_County_Parcel_Map FeatureServer layer 35)","burial_count":0,"named_burial_count":0,"burials":[],"burial_source":"","burial_terms":"","geom_role":"parcel"},"geometry":{"type":"MultiPolygon","coordinates":[[[[-85.7617468112749,35.1113837134139],[-85.7617709254921,35.1107845262676],[-85.7622452886359,35.1107856618332],[-85.762245258893,35.1107866127766],[-85.7622127684286,35.1113807112265],[-85.7617468112749,35.1113837134139]]],[[[-85.7624150164524,35.1109785640366],[-85.7624266317478,35.1108277959033],[-85.7626356374071,35.1108387019246],[-85.7626097110992,35.1109723971966],[-85.7624150164524,35.1109785640366]]]]}},{"type":"Feature","properties":{"id":"093 001.02","name":"Tate Cemetery","description":null,"kind":"cemetery","source":"Tennessee Comptroller of the Treasury — Marion County parcels (TN_County_Parcel_Map FeatureServer layer 35)","confidence":"observed (county parcel)","permission":"parcel: public; burial roster: USGenWeb non-commercial","status":"raw context","last_checked":null,"source_file":"aop_cemeteries.geojson","facets":{"address":"TATE COVE RD","revisit_note":"Tate Cemetery sits in the 9-patch outside the AOP working envelope. Same gap as Gilliam / Bible."},"cemetery_type":"cemetery","parcel_id":"093 001.02","parcel_gislink":"058093    00102","parcel_class":"05 RELIGIOUS","parcel_owner":"CEMETERY TATE","address":"TATE COVE RD","acres":0.698,"aop_inholding":false,"note":"","parcel_source":"Tennessee Comptroller of the Treasury — Marion County parcels (TN_County_Parcel_Map FeatureServer layer 35)","burial_count":0,"named_burial_count":0,"burials":[],"burial_source":"","burial_terms":"","geom_role":"marker"},"geometry":{"type":"Point","coordinates":[-85.7620442105449,35.111024245103565]}},{"type":"Feature","properties":{"id":"093 029.00","name":"Gilliam Cemetery","description":null,"kind":"cemetery","source":"Tennessee Comptroller of the Treasury — Marion County parcels (TN_County_Parcel_Map FeatureServer layer 35)","confidence":"observed (county parcel)","permission":"parcel: public; burial roster: USGenWeb non-commercial","status":"raw context","last_checked":null,"source_file":"aop_cemeteries.geojson","facets":{"address":"GOFF-PAYNE RD"},"cemetery_type":"cemetery","parcel_id":"093 029.00","parcel_gislink":"058093    02900","parcel_class":"05 RELIGIOUS","parcel_owner":"CEMETERY GILLIAM","address":"GOFF-PAYNE RD","acres":2.908,"aop_inholding":false,"note":"","parcel_source":"Tennessee Comptroller of the Treasury — Marion County parcels (TN_County_Parcel_Map FeatureServer layer 35)","burial_count":0,"named_burial_count":0,"burials":[],"burial_source":"","burial_terms":"","geom_role":"parcel"},"geometry":{"type":"Polygon","coordinates":[[[-85.7361908355468,35.1003845528689],[-85.7365830695172,35.1003812857189],[-85.7365852626702,35.1005122513503],[-85.7365877598029,35.1006613425003],[-85.7362147272517,35.1006678222585],[-85.7362398423144,35.1009482533549],[-85.7362478027198,35.101037126757],[-85.7343297894245,35.1011364800121],[-85.7343319601253,35.1010083379499],[-85.7343241418465,35.1005395746743],[-85.7362012089034,35.1005168958527],[-85.7361908355468,35.1003845528689]]]}},{"type":"Feature","properties":{"id":"093 029.00","name":"Gilliam Cemetery","description":null,"kind":"cemetery","source":"Tennessee Comptroller of the Treasury — Marion County parcels (TN_County_Parcel_Map FeatureServer layer 35)","confidence":"observed (county parcel)","permission":"parcel: public; burial roster: USGenWeb non-commercial","status":"raw context","last_checked":null,"source_file":"aop_cemeteries.geojson","facets":{"address":"GOFF-PAYNE RD","revisit_note":"Gilliam Cemetery sits in the 9-patch outside the AOP working envelope. Add visitor context once we know whether it is accessible from any AOP route and what the rider should know about it."},"cemetery_type":"cemetery","parcel_id":"093 029.00","parcel_gislink":"058093    02900","parcel_class":"05 RELIGIOUS","parcel_owner":"CEMETERY GILLIAM","address":"GOFF-PAYNE RD","acres":2.908,"aop_inholding":false,"note":"","parcel_source":"Tennessee Comptroller of the Treasury — Marion County parcels (TN_County_Parcel_Map FeatureServer layer 35)","burial_count":0,"named_burial_count":0,"burials":[],"burial_source":"","burial_terms":"","geom_role":"marker"},"geometry":{"type":"Point","coordinates":[-85.73580330910207,35.10070853848162]}},{"type":"Feature","properties":{"id":"093 003.00","name":"Bible Cemetery","description":null,"kind":"cemetery","source":"Tennessee Comptroller of the Treasury — Marion County parcels (TN_County_Parcel_Map FeatureServer layer 35)","confidence":"observed (county parcel)","permission":"parcel: public; burial roster: USGenWeb non-commercial","status":"raw context","last_checked":null,"source_file":"aop_cemeteries.geojson","facets":{"address":"BATTLE CREEK RD"},"cemetery_type":"cemetery","parcel_id":"093 003.00","parcel_gislink":"058093    00300","parcel_class":"05 RELIGIOUS","parcel_owner":"CEMETERY BIBLE","address":"BATTLE CREEK RD","acres":0.737,"aop_inholding":false,"note":"","parcel_source":"Tennessee Comptroller of the Treasury — Marion County parcels (TN_County_Parcel_Map FeatureServer layer 35)","burial_count":0,"named_burial_count":0,"burials":[],"burial_source":"","burial_terms":"","geom_role":"parcel"},"geometry":{"type":"Polygon","coordinates":[[[-85.7443874217778,35.1127662925904],[-85.74488298627,35.1128295819555],[-85.7447606768631,35.1134116392859],[-85.7442651144556,35.1133483494112],[-85.7443874217778,35.1127662925904]]]}},{"type":"Feature","properties":{"id":"093 003.00","name":"Bible Cemetery","description":null,"kind":"cemetery","source":"Tennessee Comptroller of the Treasury — Marion County parcels (TN_County_Parcel_Map FeatureServer layer 35)","confidence":"observed (county parcel)","permission":"parcel: public; burial roster: USGenWeb non-commercial","status":"raw context","last_checked":null,"source_file":"aop_cemeteries.geojson","facets":{"address":"BATTLE CREEK RD","revisit_note":"Bible Cemetery sits in the 9-patch outside the AOP working envelope. Same gap as Gilliam — accessibility and visitor relevance still owed."},"cemetery_type":"cemetery","parcel_id":"093 003.00","parcel_gislink":"058093    00300","parcel_class":"05 RELIGIOUS","parcel_owner":"CEMETERY BIBLE","address":"BATTLE CREEK RD","acres":0.737,"aop_inholding":false,"note":"","parcel_source":"Tennessee Comptroller of the Treasury — Marion County parcels (TN_County_Parcel_Map FeatureServer layer 35)","burial_count":0,"named_burial_count":0,"burials":[],"burial_source":"","burial_terms":"","geom_role":"marker"},"geometry":{"type":"Point","coordinates":[-85.74457404984162,35.113088965810746]}},{"type":"Feature","properties":{"id":"110 008.04","name":"Ellis Cemetery","description":"Interior parcel excluded from the AOP boundary — the hole in AOP working-envelope parcel 110 008.00. Reached from Ellis Cove Road, just past the Battle Creek bridge.","kind":"cemetery","source":"Tennessee Comptroller of the Treasury — Marion County parcels (TN_County_Parcel_Map FeatureServer layer 35)","confidence":"observed (county parcel)","permission":"USGenWeb Archives: free for non-commercial use; not to be reproduced for profit. See brain/research/aop_ellis_cemetery.md for the full notice.","status":"raw context","last_checked":null,"source_file":"aop_cemeteries.geojson","facets":{"address":"ELLIS COVE RD"},"cemetery_type":"family cemetery","parcel_id":"110 008.04","parcel_gislink":"058110    00804","parcel_class":"05 RELIGIOUS","parcel_owner":"BRYSON & ELLIS CEMETERY","address":"ELLIS COVE RD","acres":0.116,"aop_inholding":true,"note":"Interior parcel excluded from the AOP boundary — the hole in AOP working-envelope parcel 110 008.00. Reached from Ellis Cove Road, just past the Battle Creek bridge.","parcel_source":"Tennessee Comptroller of the Treasury — Marion County parcels (TN_County_Parcel_Map FeatureServer layer 35)","burial_count":12,"named_burial_count":9,"burials":[{"name":"Ross H. Ellis","dates":"1890-1981"},{"name":"Nathaniel Ellis","dates":"1850-1920"},{"name":"Martha Ellis","dates":"1853-1935"},{"name":"John Paul Ellis","dates":"Feb 27, 1933 - July 17, 1941"},{"name":"David C. Ellis","dates":"1886-1950"},{"name":"Mary Ellen Ellis","dates":"1881-1951"},{"name":"Charles H. Ellis","dates":"Mar 11, 1884 - Sept 14, 1965"},{"name":"Charles Ellis","dates":"1933-1935"},{"name":"Esther Ellis","dates":"1893-1935"},{"name":"Baby (unnamed infant)","dates":""},{"name":"Baby (unnamed infant)","dates":""},{"name":"Baby (unnamed infant)","dates":""}],"burial_source":"USGenWeb Archives, Marion County TN cemeteries — transcription contributed by Leslie Paul Ellis","burial_terms":"USGenWeb Archives: free for non-commercial use; not to be reproduced for profit. See brain/research/aop_ellis_cemetery.md for the full notice.","aka":"Bryson & Ellis Cemetery","geom_role":"parcel"},"geometry":{"type":"Polygon","coordinates":[[[-85.7436206431795,35.089559579303],[-85.7436660622773,35.0894623211707],[-85.744114042731,35.0894792321848],[-85.7441055298638,35.0895802044173],[-85.7436206431795,35.089559579303]]]}},{"type":"Feature","properties":{"id":"110 008.04","name":"Ellis Cemetery","description":"Ellis Cemetery — the AOP inholding. A 0.12-acre family cemetery carved out of the working envelope (the interior ring in the park boundary). Treat as private; stay clear of the parcel.","kind":"cemetery","source":"Tennessee Comptroller of the Treasury — Marion County parcels (TN_County_Parcel_Map FeatureServer layer 35)","confidence":"observed (county parcel)","permission":"USGenWeb Archives: free for non-commercial use; not to be reproduced for profit. See brain/research/aop_ellis_cemetery.md for the full notice.","status":"raw context","last_checked":null,"source_file":"aop_cemeteries.geojson","facets":{"address":"ELLIS COVE RD"},"cemetery_type":"family cemetery","parcel_id":"110 008.04","parcel_gislink":"058110    00804","parcel_class":"05 RELIGIOUS","parcel_owner":"BRYSON & ELLIS CEMETERY","address":"ELLIS COVE RD","acres":0.116,"aop_inholding":true,"note":"Interior parcel excluded from the AOP boundary — the hole in AOP working-envelope parcel 110 008.00. Reached from Ellis Cove Road, just past the Battle Creek bridge.","parcel_source":"Tennessee Comptroller of the Treasury — Marion County parcels (TN_County_Parcel_Map FeatureServer layer 35)","burial_count":12,"named_burial_count":9,"burials":[{"name":"Ross H. Ellis","dates":"1890-1981"},{"name":"Nathaniel Ellis","dates":"1850-1920"},{"name":"Martha Ellis","dates":"1853-1935"},{"name":"John Paul Ellis","dates":"Feb 27, 1933 - July 17, 1941"},{"name":"David C. Ellis","dates":"1886-1950"},{"name":"Mary Ellen Ellis","dates":"1881-1951"},{"name":"Charles H. Ellis","dates":"Mar 11, 1884 - Sept 14, 1965"},{"name":"Charles Ellis","dates":"1933-1935"},{"name":"Esther Ellis","dates":"1893-1935"},{"name":"Baby (unnamed infant)","dates":""},{"name":"Baby (unnamed infant)","dates":""},{"name":"Baby (unnamed infant)","dates":""}],"burial_source":"USGenWeb Archives, Marion County TN cemeteries — transcription contributed by Leslie Paul Ellis","burial_terms":"USGenWeb Archives: free for non-commercial use; not to be reproduced for profit. See brain/research/aop_ellis_cemetery.md for the full notice.","aka":"Bryson & Ellis Cemetery","geom_role":"marker"},"geometry":{"type":"Point","coordinates":[-85.7438765695129,35.089520334268954]}}],"_meta":{"maturity":"reference","group":"Cemeteries (TN Comptroller)","locked":false,"maturity_note":"reference — external raw context"}}