{"type":"FeatureCollection","name":"aop_lidar_tiles","description":"USGS 3DEP LAZ tile footprints intersecting the AOP 9-patch acquisition AOI. Footprints reflect each tile boundingBox returned by the TNM products API and are not legal coverage boundaries.","generated_on":"2026-05-20","aoi_bbox":[-85.782935283,35.067164188,-85.717154097,35.117928496],"project":"USGS_LPC_TN_27County_blk4_2015_LAS_2018","tile_count":24,"total_size_bytes":2788061014,"features":[{"type":"Feature","properties":{"id":"5bade92de4b08583a5d151af","name":"USGS Lidar Point Cloud TN 27County blk4 2015 2024261NE LAS 2018","description":null,"kind":"lidar_tile","source":"ScienceBase","confidence":"inventory metadata","permission":"public domain (USGS)","status":"raw context","last_checked":"2018-09-25","tile_code":"2024261NE","title":"USGS Lidar Point Cloud TN 27County blk4 2015 2024261NE LAS 2018","project":"USGS_LPC_TN_27County_blk4_2015_LAS_2018","publication_date":"2018-09-25","size_bytes":85771165,"size_mb":81.8,"download_url":"https://rockyweb.usgs.gov/vdelivery/Datasets/Staged/Elevation/LPC/Projects/USGS_LPC_TN_27County_blk4_2015_LAS_2018/laz/USGS_LPC_TN_27County_blk4_2015_2024261NE_LAS_2018.laz","meta_url":"https://www.sciencebase.gov/catalog/item/5bade92de4b08583a5d151af","source_name":"ScienceBase","source_id":"5bade92de4b08583a5d151af"},"geometry":{"type":"Polygon","coordinates":[[[-85.7894600955,35.0621359532],[-85.7660999178,35.0621359532],[-85.7660999178,35.0731687489],[-85.7894600955,35.0731687489],[-85.7894600955,35.0621359532]]]}},{"type":"Feature","properties":{"id":"5bade92ee4b08583a5d151b7","name":"USGS Lidar Point Cloud TN 27County blk4 2015 2024269NE LAS 2018","description":null,"kind":"lidar_tile","source":"ScienceBase","confidence":"inventory metadata","permission":"public domain (USGS)","status":"raw context","last_checked":"2018-09-25","tile_code":"2024269NE","title":"USGS Lidar Point Cloud TN 27County blk4 2015 2024269NE LAS 2018","project":"USGS_LPC_TN_27County_blk4_2015_LAS_2018","publication_date":"2018-09-25","size_bytes":102525809,"size_mb":97.78,"download_url":"https://rockyweb.usgs.gov/vdelivery/Datasets/Staged/Elevation/LPC/Projects/USGS_LPC_TN_27County_blk4_2015_LAS_2018/laz/USGS_LPC_TN_27County_blk4_2015_2024269NE_LAS_2018.laz","meta_url":"https://www.sciencebase.gov/catalog/item/5bade92ee4b08583a5d151b7","source_name":"ScienceBase","source_id":"5bade92ee4b08583a5d151b7"},"geometry":{"type":"Polygon","coordinates":[[[-85.7894025681,35.0841142139],[-85.7660360162,35.0841142139],[-85.7660360162,35.0951470367],[-85.7894025681,35.0951470367],[-85.7894025681,35.0841142139]]]}},{"type":"Feature","properties":{"id":"5bade935e4b08583a5d151bb","name":"USGS Lidar Point Cloud TN 27County blk4 2015 2024269SE LAS 2018","description":null,"kind":"lidar_tile","source":"ScienceBase","confidence":"inventory metadata","permission":"public domain (USGS)","status":"raw context","last_checked":"2018-09-25","tile_code":"2024269SE","title":"USGS Lidar Point Cloud TN 27County blk4 2015 2024269SE LAS 2018","project":"USGS_LPC_TN_27County_blk4_2015_LAS_2018","publication_date":"2018-09-25","size_bytes":109955777,"size_mb":104.86,"download_url":"https://rockyweb.usgs.gov/vdelivery/Datasets/Staged/Elevation/LPC/Projects/USGS_LPC_TN_27County_blk4_2015_LAS_2018/laz/USGS_LPC_TN_27County_blk4_2015_2024269SE_LAS_2018.laz","meta_url":"https://www.sciencebase.gov/catalog/item/5bade935e4b08583a5d151bb","source_name":"ScienceBase","source_id":"5bade935e4b08583a5d151bb"},"geometry":{"type":"Polygon","coordinates":[[[-85.7894313358,35.0731250796],[-85.7660679714,35.0731250796],[-85.7660679714,35.0841578617],[-85.7894313358,35.0841578617],[-85.7894313358,35.0731250796]]]}},{"type":"Feature","properties":{"id":"5bade935e4b08583a5d151bf","name":"USGS Lidar Point Cloud TN 27County blk4 2015 2024277NE LAS 2018","description":null,"kind":"lidar_tile","source":"ScienceBase","confidence":"inventory metadata","permission":"public domain (USGS)","status":"raw context","last_checked":"2018-09-25","tile_code":"2024277NE","title":"USGS Lidar Point Cloud TN 27County blk4 2015 2024277NE LAS 2018","project":"USGS_LPC_TN_27County_blk4_2015_LAS_2018","publication_date":"2018-09-25","size_bytes":126704123,"size_mb":120.83,"download_url":"https://rockyweb.usgs.gov/vdelivery/Datasets/Staged/Elevation/LPC/Projects/USGS_LPC_TN_27County_blk4_2015_LAS_2018/laz/USGS_LPC_TN_27County_blk4_2015_2024277NE_LAS_2018.laz","meta_url":"https://www.sciencebase.gov/catalog/item/5bade935e4b08583a5d151bf","source_name":"ScienceBase","source_id":"5bade935e4b08583a5d151bf"},"geometry":{"type":"Polygon","coordinates":[[[-85.7893450092,35.106092504],[-85.7659720798,35.106092504],[-85.7659720798,35.1171253525],[-85.7893450092,35.1171253525],[-85.7893450092,35.106092504]]]}},{"type":"Feature","properties":{"id":"5bade935e4b08583a5d151c3","name":"USGS Lidar Point Cloud TN 27County blk4 2015 2024277SE LAS 2018","description":null,"kind":"lidar_tile","source":"ScienceBase","confidence":"inventory metadata","permission":"public domain (USGS)","status":"raw context","last_checked":"2018-09-25","tile_code":"2024277SE","title":"USGS Lidar Point Cloud TN 27County blk4 2015 2024277SE LAS 2018","project":"USGS_LPC_TN_27County_blk4_2015_LAS_2018","publication_date":"2018-09-25","size_bytes":110155558,"size_mb":105.05,"download_url":"https://rockyweb.usgs.gov/vdelivery/Datasets/Staged/Elevation/LPC/Projects/USGS_LPC_TN_27County_blk4_2015_LAS_2018/laz/USGS_LPC_TN_27County_blk4_2015_2024277SE_LAS_2018.laz","meta_url":"https://www.sciencebase.gov/catalog/item/5bade935e4b08583a5d151c3","source_name":"ScienceBase","source_id":"5bade935e4b08583a5d151c3"},"geometry":{"type":"Polygon","coordinates":[[[-85.7893737926,35.0951033555],[-85.7660040524,35.0951033555],[-85.7660040524,35.1061361913],[-85.7893737926,35.1061361913],[-85.7893737926,35.0951033555]]]}},{"type":"Feature","properties":{"id":"5bade936e4b08583a5d151cb","name":"USGS Lidar Point Cloud TN 27County blk4 2015 2024285SE LAS 2018","description":null,"kind":"lidar_tile","source":"ScienceBase","confidence":"inventory metadata","permission":"public domain (USGS)","status":"raw context","last_checked":"2018-09-25","tile_code":"2024285SE","title":"USGS Lidar Point Cloud TN 27County blk4 2015 2024285SE LAS 2018","project":"USGS_LPC_TN_27County_blk4_2015_LAS_2018","publication_date":"2018-09-25","size_bytes":104264076,"size_mb":99.43,"download_url":"https://rockyweb.usgs.gov/vdelivery/Datasets/Staged/Elevation/LPC/Projects/USGS_LPC_TN_27County_blk4_2015_LAS_2018/laz/USGS_LPC_TN_27County_blk4_2015_2024285SE_LAS_2018.laz","meta_url":"https://www.sciencebase.gov/catalog/item/5bade936e4b08583a5d151cb","source_name":"ScienceBase","source_id":"5bade936e4b08583a5d151cb"},"geometry":{"type":"Polygon","coordinates":[[[-85.7893162179,35.1170816592],[-85.7659400984,35.1170816592],[-85.7659400984,35.1281145198],[-85.7893162179,35.1281145198],[-85.7893162179,35.1170816592]]]}},{"type":"Feature","properties":{"id":"5bade956e4b08583a5d1528b","name":"USGS Lidar Point Cloud TN 27County blk4 2015 2038261NE LAS 2018","description":null,"kind":"lidar_tile","source":"ScienceBase","confidence":"inventory metadata","permission":"public domain (USGS)","status":"raw context","last_checked":"2018-09-25","tile_code":"2038261NE","title":"USGS Lidar Point Cloud TN 27County blk4 2015 2038261NE LAS 2018","project":"USGS_LPC_TN_27County_blk4_2015_LAS_2018","publication_date":"2018-09-25","size_bytes":103054258,"size_mb":98.28,"download_url":"https://rockyweb.usgs.gov/vdelivery/Datasets/Staged/Elevation/LPC/Projects/USGS_LPC_TN_27County_blk4_2015_LAS_2018/laz/USGS_LPC_TN_27County_blk4_2015_2038261NE_LAS_2018.laz","meta_url":"https://www.sciencebase.gov/catalog/item/5bade956e4b08583a5d1528b","source_name":"ScienceBase","source_id":"5bade956e4b08583a5d1528b"},"geometry":{"type":"Polygon","coordinates":[[[-85.742675874,35.0620348389],[-85.7193221413,35.0620348389],[-85.7193221413,35.0730768138],[-85.742675874,35.0730768138],[-85.742675874,35.0620348389]]]}},{"type":"Feature","properties":{"id":"5bade957e4b08583a5d1528d","name":"USGS Lidar Point Cloud TN 27County blk4 2015 2038261NW LAS 2018","description":null,"kind":"lidar_tile","source":"ScienceBase","confidence":"inventory metadata","permission":"public domain (USGS)","status":"raw context","last_checked":"2018-09-25","tile_code":"2038261NW","title":"USGS Lidar Point Cloud TN 27County blk4 2015 2038261NW LAS 2018","project":"USGS_LPC_TN_27County_blk4_2015_LAS_2018","publication_date":"2018-09-25","size_bytes":102346132,"size_mb":97.6,"download_url":"https://rockyweb.usgs.gov/vdelivery/Datasets/Staged/Elevation/LPC/Projects/USGS_LPC_TN_27County_blk4_2015_LAS_2018/laz/USGS_LPC_TN_27County_blk4_2015_2038261NW_LAS_2018.laz","meta_url":"https://www.sciencebase.gov/catalog/item/5bade957e4b08583a5d1528d","source_name":"ScienceBase","source_id":"5bade957e4b08583a5d1528d"},"geometry":{"type":"Polygon","coordinates":[[[-85.7660679714,35.062087694],[-85.7427110148,35.062087694],[-85.7427110148,35.0731250796],[-85.7660679714,35.0731250796],[-85.7660679714,35.062087694]]]}},{"type":"Feature","properties":{"id":"5bade957e4b08583a5d15293","name":"USGS Lidar Point Cloud TN 27County blk4 2015 2038269NE LAS 2018","description":null,"kind":"lidar_tile","source":"ScienceBase","confidence":"inventory metadata","permission":"public domain (USGS)","status":"raw context","last_checked":"2018-09-25","tile_code":"2038269NE","title":"USGS Lidar Point Cloud TN 27County blk4 2015 2038269NE LAS 2018","project":"USGS_LPC_TN_27County_blk4_2015_LAS_2018","publication_date":"2018-09-25","size_bytes":121917464,"size_mb":116.27,"download_url":"https://rockyweb.usgs.gov/vdelivery/Datasets/Staged/Elevation/LPC/Projects/USGS_LPC_TN_27County_blk4_2015_LAS_2018/laz/USGS_LPC_TN_27County_blk4_2015_2038269NE_LAS_2018.laz","meta_url":"https://www.sciencebase.gov/catalog/item/5bade957e4b08583a5d15293","source_name":"ScienceBase","source_id":"5bade957e4b08583a5d15293"},"geometry":{"type":"Polygon","coordinates":[[[-85.7426055634,35.0840130718],[-85.7192454601,35.0840130718],[-85.7192454601,35.0950550764],[-85.7426055634,35.0950550764],[-85.7426055634,35.0840130718]]]}},{"type":"Feature","properties":{"id":"5bade957e4b08583a5d15295","name":"USGS Lidar Point Cloud TN 27County blk4 2015 2038269NW LAS 2018","description":null,"kind":"lidar_tile","source":"ScienceBase","confidence":"inventory metadata","permission":"public domain (USGS)","status":"raw context","last_checked":"2018-09-25","tile_code":"2038269NW","title":"USGS Lidar Point Cloud TN 27County blk4 2015 2038269NW LAS 2018","project":"USGS_LPC_TN_27County_blk4_2015_LAS_2018","publication_date":"2018-09-25","size_bytes":113214067,"size_mb":107.97,"download_url":"https://rockyweb.usgs.gov/vdelivery/Datasets/Staged/Elevation/LPC/Projects/USGS_LPC_TN_27County_blk4_2015_LAS_2018/laz/USGS_LPC_TN_27County_blk4_2015_2038269NW_LAS_2018.laz","meta_url":"https://www.sciencebase.gov/catalog/item/5bade957e4b08583a5d15295","source_name":"ScienceBase","source_id":"5bade957e4b08583a5d15295"},"geometry":{"type":"Polygon","coordinates":[[[-85.7660040524,35.0840659414],[-85.7426407235,35.0840659414],[-85.7426407235,35.0951033555],[-85.7660040524,35.0951033555],[-85.7660040524,35.0840659414]]]}},{"type":"Feature","properties":{"id":"5bade957e4b08583a5d15297","name":"USGS Lidar Point Cloud TN 27County blk4 2015 2038269SE LAS 2018","description":null,"kind":"lidar_tile","source":"ScienceBase","confidence":"inventory metadata","permission":"public domain (USGS)","status":"raw context","last_checked":"2018-09-25","tile_code":"2038269SE","title":"USGS Lidar Point Cloud TN 27County blk4 2015 2038269SE LAS 2018","project":"USGS_LPC_TN_27County_blk4_2015_LAS_2018","publication_date":"2018-09-25","size_bytes":110996544,"size_mb":105.85,"download_url":"https://rockyweb.usgs.gov/vdelivery/Datasets/Staged/Elevation/LPC/Projects/USGS_LPC_TN_27County_blk4_2015_LAS_2018/laz/USGS_LPC_TN_27County_blk4_2015_2038269SE_LAS_2018.laz","meta_url":"https://www.sciencebase.gov/catalog/item/5bade957e4b08583a5d15297","source_name":"ScienceBase","source_id":"5bade957e4b08583a5d15297"},"geometry":{"type":"Polygon","coordinates":[[[-85.7426407236,35.0730239515],[-85.7192838059,35.0730239515],[-85.7192838059,35.0840659139],[-85.7426407236,35.0840659139],[-85.7426407236,35.0730239515]]]}},{"type":"Feature","properties":{"id":"5bade957e4b08583a5d15299","name":"USGS Lidar Point Cloud TN 27County blk4 2015 2038269SW LAS 2018","description":null,"kind":"lidar_tile","source":"ScienceBase","confidence":"inventory metadata","permission":"public domain (USGS)","status":"raw context","last_checked":"2018-09-25","tile_code":"2038269SW","title":"USGS Lidar Point Cloud TN 27County blk4 2015 2038269SW LAS 2018","project":"USGS_LPC_TN_27County_blk4_2015_LAS_2018","publication_date":"2018-09-25","size_bytes":117415047,"size_mb":111.98,"download_url":"https://rockyweb.usgs.gov/vdelivery/Datasets/Staged/Elevation/LPC/Projects/USGS_LPC_TN_27County_blk4_2015_LAS_2018/laz/USGS_LPC_TN_27County_blk4_2015_2038269SW_LAS_2018.laz","meta_url":"https://www.sciencebase.gov/catalog/item/5bade957e4b08583a5d15299","source_name":"ScienceBase","source_id":"5bade957e4b08583a5d15299"},"geometry":{"type":"Polygon","coordinates":[[[-85.7660360163,35.0730768138],[-85.742675874,35.0730768138],[-85.742675874,35.0841141864],[-85.7660360163,35.0841141864],[-85.7660360163,35.0730768138]]]}},{"type":"Feature","properties":{"id":"5bade958e4b08583a5d1529b","name":"USGS Lidar Point Cloud TN 27County blk4 2015 2038277NE LAS 2018","description":null,"kind":"lidar_tile","source":"ScienceBase","confidence":"inventory metadata","permission":"public domain (USGS)","status":"raw context","last_checked":"2018-09-25","tile_code":"2038277NE","title":"USGS Lidar Point Cloud TN 27County blk4 2015 2038277NE LAS 2018","project":"USGS_LPC_TN_27County_blk4_2015_LAS_2018","publication_date":"2018-09-25","size_bytes":126500126,"size_mb":120.64,"download_url":"https://rockyweb.usgs.gov/vdelivery/Datasets/Staged/Elevation/LPC/Projects/USGS_LPC_TN_27County_blk4_2015_LAS_2018/laz/USGS_LPC_TN_27County_blk4_2015_2038277NE_LAS_2018.laz","meta_url":"https://www.sciencebase.gov/catalog/item/5bade958e4b08583a5d1529b","source_name":"ScienceBase","source_id":"5bade958e4b08583a5d1529b"},"geometry":{"type":"Polygon","coordinates":[[[-85.7425352144,35.1059913342],[-85.7191687371,35.1059913342],[-85.7191687371,35.1170333669],[-85.7425352144,35.1170333669],[-85.7425352144,35.1059913342]]]}},{"type":"Feature","properties":{"id":"5bade958e4b08583a5d1529d","name":"USGS Lidar Point Cloud TN 27County blk4 2015 2038277NW LAS 2018","description":null,"kind":"lidar_tile","source":"ScienceBase","confidence":"inventory metadata","permission":"public domain (USGS)","status":"raw context","last_checked":"2018-09-25","tile_code":"2038277NW","title":"USGS Lidar Point Cloud TN 27County blk4 2015 2038277NW LAS 2018","project":"USGS_LPC_TN_27County_blk4_2015_LAS_2018","publication_date":"2018-09-25","size_bytes":101844601,"size_mb":97.13,"download_url":"https://rockyweb.usgs.gov/vdelivery/Datasets/Staged/Elevation/LPC/Projects/USGS_LPC_TN_27County_blk4_2015_LAS_2018/laz/USGS_LPC_TN_27County_blk4_2015_2038277NW_LAS_2018.laz","meta_url":"https://www.sciencebase.gov/catalog/item/5bade958e4b08583a5d1529d","source_name":"ScienceBase","source_id":"5bade958e4b08583a5d1529d"},"geometry":{"type":"Polygon","coordinates":[[[-85.7659400984,35.1060442183],[-85.7425703937,35.1060442183],[-85.7425703937,35.1170816592],[-85.7659400984,35.1170816592],[-85.7659400984,35.1060442183]]]}},{"type":"Feature","properties":{"id":"5bade958e4b08583a5d1529f","name":"USGS Lidar Point Cloud TN 27County blk4 2015 2038277SE LAS 2018","description":null,"kind":"lidar_tile","source":"ScienceBase","confidence":"inventory metadata","permission":"public domain (USGS)","status":"raw context","last_checked":"2018-09-25","tile_code":"2038277SE","title":"USGS Lidar Point Cloud TN 27County blk4 2015 2038277SE LAS 2018","project":"USGS_LPC_TN_27County_blk4_2015_LAS_2018","publication_date":"2018-09-25","size_bytes":114888371,"size_mb":109.57,"download_url":"https://rockyweb.usgs.gov/vdelivery/Datasets/Staged/Elevation/LPC/Projects/USGS_LPC_TN_27County_blk4_2015_LAS_2018/laz/USGS_LPC_TN_27County_blk4_2015_2038277SE_LAS_2018.laz","meta_url":"https://www.sciencebase.gov/catalog/item/5bade958e4b08583a5d1529f","source_name":"ScienceBase","source_id":"5bade958e4b08583a5d1529f"},"geometry":{"type":"Polygon","coordinates":[[[-85.7425703937,35.0950021995],[-85.7192071039,35.0950021995],[-85.7192071039,35.1060442183],[-85.7425703937,35.1060442183],[-85.7425703937,35.0950021995]]]}},{"type":"Feature","properties":{"id":"5bade958e4b08583a5d152a1","name":"USGS Lidar Point Cloud TN 27County blk4 2015 2038277SW LAS 2018","description":null,"kind":"lidar_tile","source":"ScienceBase","confidence":"inventory metadata","permission":"public domain (USGS)","status":"raw context","last_checked":"2018-09-25","tile_code":"2038277SW","title":"USGS Lidar Point Cloud TN 27County blk4 2015 2038277SW LAS 2018","project":"USGS_LPC_TN_27County_blk4_2015_LAS_2018","publication_date":"2018-09-25","size_bytes":138799823,"size_mb":132.37,"download_url":"https://rockyweb.usgs.gov/vdelivery/Datasets/Staged/Elevation/LPC/Projects/USGS_LPC_TN_27County_blk4_2015_LAS_2018/laz/USGS_LPC_TN_27County_blk4_2015_2038277SW_LAS_2018.laz","meta_url":"https://www.sciencebase.gov/catalog/item/5bade958e4b08583a5d152a1","source_name":"ScienceBase","source_id":"5bade958e4b08583a5d152a1"},"geometry":{"type":"Polygon","coordinates":[[[-85.7659720798,35.0950550764],[-85.7426055634,35.0950550764],[-85.7426055634,35.106092504],[-85.7659720798,35.106092504],[-85.7659720798,35.0950550764]]]}},{"type":"Feature","properties":{"id":"5bade959e4b08583a5d152a7","name":"USGS Lidar Point Cloud TN 27County blk4 2015 2038285SE LAS 2018","description":null,"kind":"lidar_tile","source":"ScienceBase","confidence":"inventory metadata","permission":"public domain (USGS)","status":"raw context","last_checked":"2018-09-25","tile_code":"2038285SE","title":"USGS Lidar Point Cloud TN 27County blk4 2015 2038285SE LAS 2018","project":"USGS_LPC_TN_27County_blk4_2015_LAS_2018","publication_date":"2018-09-25","size_bytes":129603391,"size_mb":123.6,"download_url":"https://rockyweb.usgs.gov/vdelivery/Datasets/Staged/Elevation/LPC/Projects/USGS_LPC_TN_27County_blk4_2015_LAS_2018/laz/USGS_LPC_TN_27County_blk4_2015_2038285SE_LAS_2018.laz","meta_url":"https://www.sciencebase.gov/catalog/item/5bade959e4b08583a5d152a7","source_name":"ScienceBase","source_id":"5bade959e4b08583a5d152a7"},"geometry":{"type":"Polygon","coordinates":[[[-85.7425000255,35.1169804755],[-85.7191303598,35.1169804755],[-85.7191303598,35.1280225216],[-85.7425000255,35.1280225216],[-85.7425000255,35.1169804755]]]}},{"type":"Feature","properties":{"id":"5bade959e4b08583a5d152a9","name":"USGS Lidar Point Cloud TN 27County blk4 2015 2038285SW LAS 2018","description":null,"kind":"lidar_tile","source":"ScienceBase","confidence":"inventory metadata","permission":"public domain (USGS)","status":"raw context","last_checked":"2018-09-25","tile_code":"2038285SW","title":"USGS Lidar Point Cloud TN 27County blk4 2015 2038285SW LAS 2018","project":"USGS_LPC_TN_27County_blk4_2015_LAS_2018","publication_date":"2018-09-25","size_bytes":99647438,"size_mb":95.03,"download_url":"https://rockyweb.usgs.gov/vdelivery/Datasets/Staged/Elevation/LPC/Projects/USGS_LPC_TN_27County_blk4_2015_LAS_2018/laz/USGS_LPC_TN_27County_blk4_2015_2038285SW_LAS_2018.laz","meta_url":"https://www.sciencebase.gov/catalog/item/5bade959e4b08583a5d152a9","source_name":"ScienceBase","source_id":"5bade959e4b08583a5d152a9"},"geometry":{"type":"Polygon","coordinates":[[[-85.7659081083,35.1170333669],[-85.7425352144,35.1170333669],[-85.7425352144,35.1280708205],[-85.7659081083,35.1280708205],[-85.7659081083,35.1170333669]]]}},{"type":"Feature","properties":{"id":"5bade978e4b08583a5d15369","name":"USGS Lidar Point Cloud TN 27County blk4 2015 2052261NW LAS 2018","description":null,"kind":"lidar_tile","source":"ScienceBase","confidence":"inventory metadata","permission":"public domain (USGS)","status":"raw context","last_checked":"2018-09-25","tile_code":"2052261NW","title":"USGS Lidar Point Cloud TN 27County blk4 2015 2052261NW LAS 2018","project":"USGS_LPC_TN_27County_blk4_2015_LAS_2018","publication_date":"2018-09-25","size_bytes":128928754,"size_mb":122.96,"download_url":"https://rockyweb.usgs.gov/vdelivery/Datasets/Staged/Elevation/LPC/Projects/USGS_LPC_TN_27County_blk4_2015_LAS_2018/laz/USGS_LPC_TN_27County_blk4_2015_2052261NW_LAS_2018.laz","meta_url":"https://www.sciencebase.gov/catalog/item/5bade978e4b08583a5d15369","source_name":"ScienceBase","source_id":"5bade978e4b08583a5d15369"},"geometry":{"type":"Polygon","coordinates":[[[-85.7192838059,35.0619773879],[-85.6959332997,35.0619773879],[-85.6959332997,35.0730239515],[-85.7192838059,35.0730239515],[-85.7192838059,35.0619773879]]]}},{"type":"Feature","properties":{"id":"5bade979e4b08583a5d15371","name":"USGS Lidar Point Cloud TN 27County blk4 2015 2052269NW LAS 2018","description":null,"kind":"lidar_tile","source":"ScienceBase","confidence":"inventory metadata","permission":"public domain (USGS)","status":"raw context","last_checked":"2018-09-25","tile_code":"2052269NW","title":"USGS Lidar Point Cloud TN 27County blk4 2015 2052269NW LAS 2018","project":"USGS_LPC_TN_27County_blk4_2015_LAS_2018","publication_date":"2018-09-25","size_bytes":127707237,"size_mb":121.79,"download_url":"https://rockyweb.usgs.gov/vdelivery/Datasets/Staged/Elevation/LPC/Projects/USGS_LPC_TN_27County_blk4_2015_LAS_2018/laz/USGS_LPC_TN_27County_blk4_2015_2052269NW_LAS_2018.laz","meta_url":"https://www.sciencebase.gov/catalog/item/5bade979e4b08583a5d15371","source_name":"ScienceBase","source_id":"5bade979e4b08583a5d15371"},"geometry":{"type":"Polygon","coordinates":[[[-85.7192071039,35.0839556051],[-85.6958502289,35.0839556051],[-85.6958502289,35.0950021995],[-85.7192071039,35.0950021995],[-85.7192071039,35.0839556051]]]}},{"type":"Feature","properties":{"id":"5bade979e4b08583a5d15375","name":"USGS Lidar Point Cloud TN 27County blk4 2015 2052269SW LAS 2018","description":null,"kind":"lidar_tile","source":"ScienceBase","confidence":"inventory metadata","permission":"public domain (USGS)","status":"raw context","last_checked":"2018-09-25","tile_code":"2052269SW","title":"USGS Lidar Point Cloud TN 27County blk4 2015 2052269SW LAS 2018","project":"USGS_LPC_TN_27County_blk4_2015_LAS_2018","publication_date":"2018-09-25","size_bytes":131669220,"size_mb":125.57,"download_url":"https://rockyweb.usgs.gov/vdelivery/Datasets/Staged/Elevation/LPC/Projects/USGS_LPC_TN_27County_blk4_2015_LAS_2018/laz/USGS_LPC_TN_27County_blk4_2015_2052269SW_LAS_2018.laz","meta_url":"https://www.sciencebase.gov/catalog/item/5bade979e4b08583a5d15375","source_name":"ScienceBase","source_id":"5bade979e4b08583a5d15375"},"geometry":{"type":"Polygon","coordinates":[[[-85.7192454602,35.0729664926],[-85.69589177,35.0729664926],[-85.69589177,35.0840130443],[-85.7192454602,35.0840130443],[-85.7192454602,35.0729664926]]]}},{"type":"Feature","properties":{"id":"5bade97ae4b08583a5d15379","name":"USGS Lidar Point Cloud TN 27County blk4 2015 2052277NW LAS 2018","description":null,"kind":"lidar_tile","source":"ScienceBase","confidence":"inventory metadata","permission":"public domain (USGS)","status":"raw context","last_checked":"2018-09-25","tile_code":"2052277NW","title":"USGS Lidar Point Cloud TN 27County blk4 2015 2052277NW LAS 2018","project":"USGS_LPC_TN_27County_blk4_2015_LAS_2018","publication_date":"2018-09-25","size_bytes":128828546,"size_mb":122.86,"download_url":"https://rockyweb.usgs.gov/vdelivery/Datasets/Staged/Elevation/LPC/Projects/USGS_LPC_TN_27County_blk4_2015_LAS_2018/laz/USGS_LPC_TN_27County_blk4_2015_2052277NW_LAS_2018.laz","meta_url":"https://www.sciencebase.gov/catalog/item/5bade97ae4b08583a5d15379","source_name":"ScienceBase","source_id":"5bade97ae4b08583a5d15379"},"geometry":{"type":"Polygon","coordinates":[[[-85.7191303598,35.1059338517],[-85.6957671126,35.1059338517],[-85.6957671126,35.1169804755],[-85.7191303598,35.1169804755],[-85.7191303598,35.1059338517]]]}},{"type":"Feature","properties":{"id":"5bade97ae4b08583a5d1537d","name":"USGS Lidar Point Cloud TN 27County blk4 2015 2052277SW LAS 2018","description":null,"kind":"lidar_tile","source":"ScienceBase","confidence":"inventory metadata","permission":"public domain (USGS)","status":"raw context","last_checked":"2018-09-25","tile_code":"2052277SW","title":"USGS Lidar Point Cloud TN 27County blk4 2015 2052277SW LAS 2018","project":"USGS_LPC_TN_27County_blk4_2015_LAS_2018","publication_date":"2018-09-25","size_bytes":129553972,"size_mb":123.55,"download_url":"https://rockyweb.usgs.gov/vdelivery/Datasets/Staged/Elevation/LPC/Projects/USGS_LPC_TN_27County_blk4_2015_LAS_2018/laz/USGS_LPC_TN_27County_blk4_2015_2052277SW_LAS_2018.laz","meta_url":"https://www.sciencebase.gov/catalog/item/5bade97ae4b08583a5d1537d","source_name":"ScienceBase","source_id":"5bade97ae4b08583a5d1537d"},"geometry":{"type":"Polygon","coordinates":[[[-85.7191687371,35.0949447249],[-85.6958086764,35.0949447249],[-85.6958086764,35.1059913342],[-85.7191687371,35.1059913342],[-85.7191687371,35.0949447249]]]}},{"type":"Feature","properties":{"id":"5bade97be4b08583a5d15385","name":"USGS Lidar Point Cloud TN 27County blk4 2015 2052285SW LAS 2018","description":null,"kind":"lidar_tile","source":"ScienceBase","confidence":"inventory metadata","permission":"public domain (USGS)","status":"raw context","last_checked":"2018-09-25","tile_code":"2052285SW","title":"USGS Lidar Point Cloud TN 27County blk4 2015 2052285SW LAS 2018","project":"USGS_LPC_TN_27County_blk4_2015_LAS_2018","publication_date":"2018-09-25","size_bytes":121769515,"size_mb":116.13,"download_url":"https://rockyweb.usgs.gov/vdelivery/Datasets/Staged/Elevation/LPC/Projects/USGS_LPC_TN_27County_blk4_2015_LAS_2018/laz/USGS_LPC_TN_27County_blk4_2015_2052285SW_LAS_2018.laz","meta_url":"https://www.sciencebase.gov/catalog/item/5bade97be4b08583a5d15385","source_name":"ScienceBase","source_id":"5bade97be4b08583a5d15385"},"geometry":{"type":"Polygon","coordinates":[[[-85.7190919721,35.1169229851],[-85.6957255374,35.1169229851],[-85.6957255374,35.1279696229],[-85.7190919721,35.1279696229],[-85.7190919721,35.1169229851]]]}}]}