{"type":"FeatureCollection","schema":"aop_editor_seed_v1","note":"Default editorPois loaded into aop_editor_pois_v1 on a fresh install or Reset viewer. Update workflow: draw → Export GeoJSON in the Map editor section → replace this file with the downloaded aop_editor_features.geojson → commit. Every feature gains properties.source = aop_editor_seed_v1 at load time. The optional seed_tag property writes a #tag binding into aop_feature_tags_v1 for the matching feature id; existing bindings on other layers carrying the same tag are stripped (the seed wins).","features":[{"type":"Feature","geometry":{"type":"Point","coordinates":[-85.7482512,35.0907264]},"properties":{"id":"aop_seed_pavilion","name":"AOP Pavilion","description":"AOP Pavilion / G-Central. Registration, driver meeting, awards, and the campfire all happen here. Resolved to the 1010 Ellis Cove Road building footprint via the #pavilion tag.","kind":"poi","source":"editor (first-party)","confidence":"draft","permission":"first-party","status":"draft","last_checked":null,"source_file":"aop_editor_seed_pois.geojson","facets":{"category":"Pavilion"},"layer":"editor_poi","category":"Pavilion","notes":"Confirmed pavilion; derived from aop_editor_seed_pois.geojson.","highlight":true,"seed_tag":"#pavilion","created":"2026-05-26T00:00:00Z","revisit_note":"Per-row blurbs are not authored here — drawn POIs render their own category as the subtitle."}}],"_meta":{"maturity":"bronze","group":"Drawn POIs (seed) — retired panel group","locked":false,"maturity_note":"bronze — raw / inspection / not yet promoted to production; unlocked"}}