{"type":"FeatureCollection","metadata":{"source":"Derived from osm_aop_9patch.geojson","filter":"features with a 'name' tag","license":"ODbL — © OpenStreetMap contributors","retrieved_on":"2026-05-20"},"features":[{"type":"Feature","properties":{"id":153366614,"name":"Smithtown","description":null,"kind":"osm_hamlet","source":"OpenStreetMap","confidence":"community","permission":"ODbL","status":"raw context","last_checked":null,"source_file":"osm_aop_named.geojson","ele":"204","gnis:feature_id":"1314305","place":"hamlet","osm_id":153366614,"osm_type":"node"},"geometry":{"type":"Point","coordinates":[-85.7349718,35.0811915]}},{"type":"Feature","properties":{"id":153662392,"name":"Pinhook","description":null,"kind":"osm_hamlet","source":"OpenStreetMap","confidence":"community","permission":"ODbL","status":"raw context","last_checked":null,"source_file":"osm_aop_named.geojson","ele":"192","gnis:feature_id":"1314241","place":"hamlet","osm_id":153662392,"osm_type":"node"},"geometry":{"type":"Point","coordinates":[-85.7402498,35.1106359]}},{"type":"Feature","properties":{"id":11371549562,"name":"Jackson Point","description":null,"kind":"osm_peak","source":"OpenStreetMap","confidence":"community","permission":"ODbL","status":"raw context","last_checked":null,"source_file":"osm_aop_named.geojson","gnis:feature_id":"1289241","natural":"peak","osm_id":11371549562,"osm_type":"node"},"geometry":{"type":"Point","coordinates":[-85.756452,35.0997725]}},{"type":"Feature","properties":{"id":392166283,"name":"Stagecoach Road","description":null,"kind":"osm_unclassified","source":"Bing","confidence":"community","permission":"ODbL","status":"raw context","last_checked":null,"source_file":"osm_aop_named.geojson","highway":"unclassified","source:name":"some truly terrible TIGER","osm_id":392166283,"osm_type":"way"},"geometry":{"type":"LineString","coordinates":[[-85.8458073,35.1269817],[-85.8438813,35.1268167],[-85.8385845,35.1265605],[-85.8382165,35.1263604],[-85.8378507,35.1256102],[-85.8375835,35.1252802],[-85.8372971,35.1249283],[-85.8367821,35.1246651],[-85.8357306,35.1244896],[-85.8344217,35.1243843],[-85.8338209,35.1242439],[-85.8334347,35.1239104],[-85.8318039,35.1229451],[-85.8309027,35.1227521],[-85.830569,35.1227447],[-85.8301087,35.1227345],[-85.8290111,35.1231245],[-85.828199,35.1234717],[-85.826182,35.1240859],[-85.8248913,35.1244124],[-85.8239504,35.1248055],[-85.8231779,35.1248055],[-85.82262,35.12463],[-85.8216265,35.1249029],[-85.8198949,35.124981],[-85.8186933,35.1247704],[-85.8180495,35.124472],[-85.8175812,35.1240398],[-85.8172127,35.1236998],[-85.8167192,35.1232435],[-85.8157965,35.1226468],[-85.8155876,35.1225811],[-85.8138438,35.1220325],[-85.8134049,35.1219343],[-85.8126771,35.1217714],[-85.81209,35.1217295],[-85.8117387,35.1216143],[-85.811462,35.1215235],[-85.8102818,35.1209882],[-85.8100901,35.120862],[-85.8094021,35.120409],[-85.8084783,35.1198692],[-85.8079752,35.1195753],[-85.8070385,35.1193051],[-85.8067059,35.1192348],[-85.806398,35.119277],[-85.8060976,35.1194262],[-85.8057757,35.119707],[-85.8054753,35.1201282],[-85.805279,35.1205863],[-85.8050033,35.120918],[-85.8047565,35.121155],[-85.8046814,35.1215323],[-85.8050254,35.1227303],[-85.8050322,35.1227538],[-85.8051089,35.1229218],[-85.8053326,35.123412],[-85.8052929,35.1235594],[-85.8051502,35.1236314],[-85.8046707,35.1236121],[-85.8038875,35.1234804],[-85.8029755,35.1232874],[-85.8016881,35.1232786],[-85.8003791,35.1234102],[-85.799435,35.1233927],[-85.7982087,35.1234032],[-85.7971787,35.1231399],[-85.7969641,35.123061],[-85.7968354,35.1231048],[-85.7969105,35.1232014],[-85.7970714,35.1234208],[-85.7972753,35.1237893],[-85.797418,35.1242702],[-85.7974791,35.1245791],[-85.7978225,35.1251231],[-85.7980907,35.1254478],[-85.7981368,35.1256216],[-85.7979866,35.1257532],[-85.7976111,35.1257883],[-85.7972002,35.12579],[-85.7966637,35.1256058],[-85.7958194,35.1251653],[-85.7954224,35.1248406],[-85.7952615,35.1243404],[-85.7950147,35.1239455],[-85.7946145,35.1235612],[-85.7944461,35.1231908],[-85.7945534,35.12248],[-85.7945641,35.1220764],[-85.7944461,35.1217517],[-85.794135,35.1214884],[-85.7933807,35.1213849],[-85.7925331,35.1215165],[-85.7919892,35.1216552],[-85.7916534,35.1218938],[-85.7914527,35.1221378],[-85.7912811,35.1223221],[-85.7910526,35.1224116],[-85.7906985,35.122473],[-85.7904947,35.1225608],[-85.7902404,35.122638],[-85.7899582,35.1226398],[-85.7891782,35.122559],[-85.7878371,35.1221992],[-85.7871794,35.1219465],[-85.7865143,35.1215955],[-85.7856881,35.1213673],[-85.7851764,35.1212427],[-85.7849082,35.1210233],[-85.7842397,35.120051],[-85.7836856,35.1197509],[-85.78336,35.1197263],[-85.7829453,35.1198386],[-85.7820655,35.1199264],[-85.7812609,35.119707],[-85.7809497,35.1195841],[-85.780821,35.1194525],[-85.7806815,35.1191541],[-85.7804954,35.1189452],[-85.7798409,35.1187259],[-85.7794155,35.1186188],[-85.7791366,35.118689],[-85.7788002,35.1188399],[-85.7782745,35.1188575],[-85.7778346,35.1188048],[-85.7774913,35.1186205],[-85.7772016,35.1184538],[-85.7768835,35.1184784],[-85.7766223,35.1186118],[-85.7759464,35.1187083],[-85.7754566,35.1186714],[-85.7726848,35.117936],[-85.7721628,35.1178465],[-85.7711329,35.1178202],[-85.7707144,35.1178465],[-85.7703711,35.1177324],[-85.7699597,35.1175674],[-85.7691373,35.1174692],[-85.7683005,35.1174165],[-85.7677388,35.1175587],[-85.7673847,35.1174972],[-85.7670736,35.117348],[-85.7667088,35.1171286],[-85.7663907,35.1171181],[-85.7653463,35.1172866],[-85.7649852,35.1173024],[-85.7647921,35.1172322],[-85.7645454,35.1167846],[-85.7643415,35.1165652],[-85.7639553,35.1165126],[-85.7634939,35.1165389],[-85.7623851,35.1159878],[-85.7618487,35.115742],[-85.7615091,35.1157052],[-85.7612409,35.1159158],[-85.7610156,35.1161703],[-85.7603895,35.1166196],[-85.7601573,35.116723],[-85.7600553,35.1169117],[-85.7598569,35.1171881],[-85.7597442,35.1174163],[-85.759653,35.1178682],[-85.7597388,35.1181183],[-85.7599159,35.1183509],[-85.7599802,35.1185308],[-85.7599027,35.1186936]]}},{"type":"Feature","properties":{"id":1215497712,"name":"Adventure Off Road Park","description":null,"kind":"osm_park","source":"OpenStreetMap","confidence":"community","permission":"ODbL","status":"raw context","last_checked":null,"source_file":"osm_aop_named.geojson","leisure":"park","osm_id":1215497712,"osm_type":"way"},"geometry":{"type":"Polygon","coordinates":[[[-85.7601056,35.0995096],[-85.7454715,35.0989829],[-85.745686,35.0835148],[-85.7599768,35.0834094],[-85.7601056,35.0995096]]]}}],"_meta":{"maturity":"bronze","group":"OSM named landmarks","locked":false,"maturity_note":"bronze — raw / inspection / not yet promoted to production; unlocked"}}