{"type":"FeatureCollection","name":"aop_buildings_traced","features":[{"type":"Feature","properties":{"name":"665 Ellis Cove Road","kind":"building"},"geometry":{"type":"Polygon","coordinates":[[[-85.745511,35.0872255],[-85.7455693,35.0871787],[-85.745683,35.0872746],[-85.7456247,35.0873213],[-85.745511,35.0872255],[-85.745511,35.0872255]]]}},{"type":"Feature","properties":{"name":"889 Ellis Cove Road","kind":"building"},"geometry":{"type":"Polygon","coordinates":[[[-85.7465434,35.0890852],[-85.7467485,35.088939],[-85.7468463,35.0890317],[-85.7466413,35.0891779],[-85.7465434,35.0890852],[-85.7465434,35.0890852]]]}},{"type":"Feature","properties":{"name":"Front Office","kind":"building"},"geometry":{"type":"Polygon","coordinates":[[[-85.7461087,35.0894609],[-85.7460273,35.0894604],[-85.7460278,35.0893824],[-85.7461093,35.0893828],[-85.7461087,35.0894609],[-85.7461087,35.0894609]]]}},{"type":"Feature","properties":{"name":"Farmhouse","kind":"building"},"geometry":{"type":"Polygon","coordinates":[[[-85.7489252,35.0898776],[-85.7491043,35.0899299],[-85.749059,35.090035],[-85.7488799,35.0899828],[-85.7489252,35.0898776],[-85.7489252,35.0898776]]]}},{"type":"Feature","properties":{"name":"Pavilion","kind":"building"},"geometry":{"type":"Polygon","coordinates":[[[-85.7483042,35.0906455],[-85.7482818,35.0908809],[-85.7481498,35.0908714],[-85.7481723,35.0906361],[-85.7483042,35.0906455],[-85.7483042,35.0906455]]]}},{"type":"Feature","properties":{"name":"Shower House","kind":"building"},"geometry":{"type":"Polygon","coordinates":[[[-85.748362,35.0909826],[-85.7483596,35.0910488],[-85.7482244,35.0910447],[-85.7482268,35.0909785],[-85.748362,35.0909826],[-85.748362,35.0909826]]]}}],"_meta":{"maturity":"bronze","group":"Park buildings (raw hand-trace source)","locked":false,"maturity_note":"bronze — raw / inspection / not yet promoted to production; unlocked"}}