{"type":"FeatureCollection","name":"aop_waypoints_traced","features":[{"type":"Feature","properties":{"name":"Playground","kind":"playground","description":"Kids' playground in the campground area."},"geometry":{"type":"Point","coordinates":[-85.7485112,35.0907614]}},{"type":"Feature","properties":{"name":"Firepit","kind":"firepit","location_tag":"#firepit","description":"Central campfire — the evening gathering spot by the campground."},"geometry":{"type":"Point","coordinates":[-85.7482023,35.090492]}},{"type":"Feature","properties":{"name":"RV Site 1","kind":"rv site"},"geometry":{"type":"Point","coordinates":[-85.7466754,35.0898575]}},{"type":"Feature","properties":{"name":"RV Site 2","kind":"rv site"},"geometry":{"type":"Point","coordinates":[-85.7468614,35.0898895]}},{"type":"Feature","properties":{"name":"Cabin 1","kind":"cabin"},"geometry":{"type":"Point","coordinates":[-85.7466384,35.0895008]}},{"type":"Feature","properties":{"name":"Campground Host Site","kind":"campground host","description":"Campground host site — first stop for check-in and questions."},"geometry":{"type":"Point","coordinates":[-85.7464331,35.0893973]}},{"type":"Feature","properties":{"name":"Cabin 2","kind":"cabin"},"geometry":{"type":"Point","coordinates":[-85.7468212,35.0895332]}},{"type":"Feature","properties":{"name":"Cabin 3","kind":"cabin"},"geometry":{"type":"Point","coordinates":[-85.747004,35.0895655]}},{"type":"Feature","properties":{"name":"Cabin 4","kind":"cabin"},"geometry":{"type":"Point","coordinates":[-85.7471868,35.0895978]}},{"type":"Feature","properties":{"name":"Cabin 5","kind":"cabin"},"geometry":{"type":"Point","coordinates":[-85.7473696,35.0896301]}},{"type":"Feature","properties":{"name":"RV Site 3","kind":"rv site"},"geometry":{"type":"Point","coordinates":[-85.7476272,35.0909941]}},{"type":"Feature","properties":{"name":"RV Site 4","kind":"rv site"},"geometry":{"type":"Point","coordinates":[-85.7476438,35.0908356]}},{"type":"Feature","properties":{"name":"RV Site 5","kind":"rv site"},"geometry":{"type":"Point","coordinates":[-85.7476603,35.0906771]}},{"type":"Feature","properties":{"name":"RV Site 6","kind":"rv site"},"geometry":{"type":"Point","coordinates":[-85.7476768,35.0905185]}},{"type":"Feature","properties":{"name":"RV Site 7","kind":"rv site"},"geometry":{"type":"Point","coordinates":[-85.7476934,35.09036]}},{"type":"Feature","properties":{"name":"RV Site 8","kind":"rv site"},"geometry":{"type":"Point","coordinates":[-85.7477099,35.0902015]}},{"type":"Feature","properties":{"name":"RV Dump Station","kind":"rv dump station","description":"RV dump station for the campground."},"geometry":{"type":"Point","coordinates":[-85.7482921,35.0910791]}},{"type":"Feature","properties":{"name":"Hot Rocks Comp Pad","kind":"comp pad","description":"Purpose-built scale RC rock-crawling competition pad — set up specifically for the RC crawler comps held at the park."},"geometry":{"type":"Point","coordinates":[-85.7457056,35.0910524]}},{"type":"Feature","properties":{"name":"Ellis Cemetery","kind":"cemetery","description":"Ellis Cemetery — a private family inholding inside the park boundary. Treat as private; stay clear of the parcel."},"geometry":{"type":"Point","coordinates":[-85.7438769,35.0895203]}},{"type":"Feature","properties":{"name":"Tate Cemetery","kind":"cemetery"},"geometry":{"type":"Point","coordinates":[-85.7620446,35.111024]}},{"type":"Feature","properties":{"name":"Bible Cemetery","kind":"cemetery"},"geometry":{"type":"Point","coordinates":[-85.7445742,35.1130885]}},{"type":"Feature","properties":{"name":"Gilliam Cemetery","kind":"cemetery"},"geometry":{"type":"Point","coordinates":[-85.7358039,35.1007088]}},{"type":"Feature","properties":{"name":"Racetrack","kind":"racetrack","description":"On-site racetrack."},"geometry":{"type":"Point","coordinates":[-85.7416061,35.0899974]}},{"type":"Feature","properties":{"name":"Beach ???","kind":"poi"},"geometry":{"type":"Point","coordinates":[-85.7413123,35.0889483]}},{"type":"Feature","properties":{"name":"Jeep Entrance","kind":"entrance","description":"Full-size vehicle trail entrance (Jeep access)."},"geometry":{"type":"Point","coordinates":[-85.7493221,35.0895345]}},{"type":"Feature","properties":{"name":"Buggy Entrance","kind":"entrance","description":"Full-size vehicle trail entrance (buggy access)."},"geometry":{"type":"Point","coordinates":[-85.7489865,35.091327]}}],"_meta":{"maturity":"gold","group":"Camp waypoints / POIs","locked":true,"maturity_note":"gold — verified first-party, accepted in production; locked, unlock to edit"}}