{"type":"FeatureCollection","name":"vegetation","xy_coordinate_resolution":1e-06,"features":[{"type":"Feature","properties":{"id":1,"kind":"landcover","class":"vegetation","role":"fill"},"geometry":{"type":"Polygon","coordinates":[[[-85.758314,35.084086],[-85.759514,35.089219],[-85.760777,35.09364],[-85.760901,35.094779],[-85.760336,35.094707],[-85.7607,35.096348],[-85.760811,35.097299],[-85.761008,35.097901],[-85.752001,35.097497],[-85.74961,35.096256],[-85.749491,35.101007],[-85.742953,35.100425],[-85.742972,35.098789],[-85.742819,35.097536],[-85.743062,35.096695],[-85.743955,35.095108],[-85.744816,35.093766],[-85.744605,35.093632],[-85.744343,35.093574],[-85.745147,35.092841],[-85.74702,35.092007],[-85.747803,35.091728],[-85.748321,35.09162],[-85.743739,35.091059],[-85.742156,35.090947],[-85.74201,35.091634],[-85.741523,35.091279],[-85.74111,35.091071],[-85.740747,35.091021],[-85.73977,35.091076],[-85.739492,35.090994],[-85.739275,35.090838],[-85.739147,35.090643],[-85.739092,35.090421],[-85.739132,35.089928],[-85.739371,35.089498],[-85.739783,35.089152],[-85.740241,35.088917],[-85.740731,35.088766],[-85.741501,35.088819],[-85.741733,35.088792],[-85.74279,35.0883],[-85.742967,35.088298],[-85.743073,35.088348],[-85.743131,35.088442],[-85.743126,35.088594],[-85.743993,35.087798],[-85.743251,35.086543],[-85.742908,35.086059],[-85.742437,35.085609],[-85.741615,35.084955],[-85.741555,35.08471],[-85.741677,35.084467],[-85.741868,35.084313],[-85.742066,35.08424],[-85.742139,35.085009],[-85.742209,35.08519],[-85.743172,35.08613],[-85.744077,35.087445],[-85.744442,35.087774],[-85.744473,35.087901],[-85.744615,35.087961],[-85.744945,35.088301],[-85.746212,35.089147],[-85.745995,35.089144],[-85.745928,35.089005],[-85.745661,35.088887],[-85.745546,35.088725],[-85.745118,35.088538],[-85.744857,35.088541],[-85.74477,35.088678],[-85.74441,35.088691],[-85.744319,35.088757],[-85.744346,35.088941],[-85.744047,35.089058],[-85.743913,35.089205],[-85.743913,35.089437],[-85.744066,35.089477],[-85.743666,35.089462],[-85.743621,35.08956],[-85.743979,35.089575],[-85.743539,35.089573],[-85.74318,35.089732],[-85.743045,35.09001],[-85.743034,35.090229],[-85.742986,35.090242],[-85.742942,35.090214],[-85.742892,35.089983],[-85.742904,35.089672],[-85.742819,35.089322],[-85.742841,35.088601],[-85.742637,35.088595],[-85.742563,35.088634],[-85.74251,35.088819],[-85.742431,35.088875],[-85.741929,35.088894],[-85.741808,35.089013],[-85.741606,35.089102],[-85.741234,35.089081],[-85.741082,35.089155],[-85.740551,35.08922],[-85.740261,35.089333],[-85.739971,35.089372],[-85.73996,35.089505],[-85.740027,35.08964],[-85.73989,35.089929],[-85.739875,35.090088],[-85.740022,35.090253],[-85.740047,35.090372],[-85.740334,35.090461],[-85.740422,35.090678],[-85.740521,35.090786],[-85.74188,35.090892],[-85.742085,35.090805],[-85.742875,35.09082],[-85.742909,35.090729],[-85.742842,35.09063],[-85.742937,35.090533],[-85.743043,35.090272],[-85.743109,35.09046],[-85.743055,35.090538],[-85.74302,35.090799],[-85.743195,35.090892],[-85.748404,35.091408],[-85.748608,35.091377],[-85.748726,35.091277],[-85.748735,35.091151],[-85.748678,35.091034],[-85.748876,35.090946],[-85.748818,35.090629],[-85.748679,35.090565],[-85.74883,35.090346],[-85.748825,35.090257],[-85.748758,35.090222],[-85.748725,35.090118],[-85.748748,35.089791],[-85.748885,35.089777],[-85.74889,35.089695],[-85.749107,35.089634],[-85.749386,35.089629],[-85.749477,35.089457],[-85.749468,35.089318],[-85.748938,35.089326],[-85.748742,35.089418],[-85.748719,35.089096],[-85.748649,35.089009],[-85.747886,35.088543],[-85.747769,35.088537],[-85.747929,35.088382],[-85.747669,35.08831],[-85.747148,35.087854],[-85.746935,35.08802],[-85.746908,35.087923],[-85.746762,35.08787],[-85.746742,35.087731],[-85.746662,35.087653],[-85.746446,35.087521],[-85.746319,35.087498],[-85.746088,35.087305],[-85.746067,35.087233],[-85.745932,35.087214],[-85.745873,35.087025],[-85.745691,35.086958],[-85.745708,35.086715],[-85.745562,35.08657],[-85.745143,35.085818],[-85.744675,35.085758],[-85.744586,35.08562],[-85.744187,35.085519],[-85.744005,35.08536],[-85.74375,35.085337],[-85.743705,35.08525],[-85.743589,35.085209],[-85.74356,35.08508],[-85.743384,35.085056],[-85.743185,35.084924],[-85.742799,35.08486],[-85.742663,35.08498],[-85.742249,35.085045],[-85.742166,35.084234],[-85.742385,35.084281],[-85.744548,35.085283],[-85.744768,35.085334],[-85.744978,35.085323],[-85.745075,35.085458],[-85.750423,35.084818],[-85.758314,35.084086]]]}},{"type":"Feature","properties":{"id":2,"kind":"landcover","class":"vegetation","role":"fill"},"geometry":{"type":"Polygon","coordinates":[[[-85.747715,35.088606],[-85.747686,35.088641],[-85.747655,35.088648],[-85.747715,35.08859],[-85.747715,35.088606]]]}},{"type":"Feature","properties":{"id":3,"kind":"landcover","class":"vegetation","role":"fill"},"geometry":{"type":"Polygon","coordinates":[[[-85.748426,35.089597],[-85.748468,35.089639],[-85.748348,35.089617],[-85.748366,35.089599],[-85.748426,35.089597]]]}},{"type":"Feature","properties":{"id":4,"kind":"landcover","class":"vegetation","role":"fill"},"geometry":{"type":"Polygon","coordinates":[[[-85.74866,35.089673],[-85.74859,35.089662],[-85.748492,35.089644],[-85.74867,35.089631],[-85.748714,35.08968],[-85.74866,35.089673]]]}},{"type":"Feature","properties":{"id":5,"kind":"landcover","class":"vegetation","role":"fill"},"geometry":{"type":"Polygon","coordinates":[[[-85.748153,35.090826],[-85.748169,35.090678],[-85.748274,35.090651],[-85.748275,35.090849],[-85.748216,35.090883],[-85.748153,35.090826]]]}},{"type":"Feature","properties":{"id":6,"kind":"landcover","class":"vegetation","role":"fill"},"geometry":{"type":"Polygon","coordinates":[[[-85.743359,35.086217],[-85.743331,35.08618],[-85.743399,35.0862],[-85.743434,35.08632],[-85.743359,35.086217]]]}},{"type":"Feature","properties":{"id":7,"kind":"landcover","class":"vegetation","role":"fill"},"geometry":{"type":"Polygon","coordinates":[[[-85.743997,35.08716],[-85.743952,35.087089],[-85.743987,35.087112],[-85.743997,35.08716]]]}},{"type":"Feature","properties":{"id":8,"kind":"landcover","class":"vegetation","role":"fill"},"geometry":{"type":"Polygon","coordinates":[[[-85.745598,35.087302],[-85.745562,35.087261],[-85.745564,35.087199],[-85.745672,35.087265],[-85.745661,35.087305],[-85.745598,35.087302]]]}},{"type":"Feature","properties":{"id":9,"kind":"landcover","class":"vegetation","role":"fill"},"geometry":{"type":"Polygon","coordinates":[[[-85.744272,35.087515],[-85.744247,35.087491],[-85.744305,35.087544],[-85.744301,35.087541],[-85.744272,35.087515]]]}},{"type":"Feature","properties":{"id":10,"kind":"landcover","class":"vegetation","role":"fill"},"geometry":{"type":"Polygon","coordinates":[[[-85.745541,35.08859],[-85.745039,35.088261],[-85.744737,35.087962],[-85.744865,35.087941],[-85.744899,35.088071],[-85.74506,35.088237],[-85.745699,35.088695],[-85.745541,35.08859]]]}},{"type":"Feature","properties":{"id":11,"kind":"landcover","class":"vegetation","role":"fill"},"geometry":{"type":"Polygon","coordinates":[[[-85.745931,35.088853],[-85.745854,35.088801],[-85.745916,35.088813],[-85.745931,35.088853]]]}},{"type":"Feature","properties":{"id":12,"kind":"landcover","class":"vegetation","role":"fill"},"geometry":{"type":"Polygon","coordinates":[[[-85.746013,35.08891],[-85.746015,35.08891],[-85.746014,35.088911],[-85.746013,35.08891]]]}},{"type":"Feature","properties":{"id":13,"kind":"landcover","class":"vegetation","role":"fill"},"geometry":{"type":"Polygon","coordinates":[[[-85.746376,35.089236],[-85.746731,35.089379],[-85.747097,35.08947],[-85.746704,35.089416],[-85.746321,35.089219],[-85.746376,35.089236]]]}},{"type":"Feature","properties":{"id":14,"kind":"landcover","class":"vegetation","role":"fill"},"geometry":{"type":"Polygon","coordinates":[[[-85.747043,35.089375],[-85.746933,35.08935],[-85.74697,35.089315],[-85.74708,35.089333],[-85.7476,35.089479],[-85.747043,35.089375]]]}},{"type":"Feature","properties":{"id":15,"kind":"landcover","class":"vegetation","role":"fill"},"geometry":{"type":"Polygon","coordinates":[[[-85.74601,35.089451],[-85.746048,35.089405],[-85.74611,35.089431],[-85.746072,35.089479],[-85.74601,35.089451]]]}},{"type":"Feature","properties":{"id":16,"kind":"landcover","class":"vegetation","role":"fill"},"geometry":{"type":"Polygon","coordinates":[[[-85.747342,35.089535],[-85.747315,35.08951],[-85.747454,35.089536],[-85.747397,35.089542],[-85.747342,35.089535]]]}},{"type":"Feature","properties":{"id":17,"kind":"landcover","class":"vegetation","role":"fill"},"geometry":{"type":"Polygon","coordinates":[[[-85.745863,35.090309],[-85.745881,35.090198],[-85.745956,35.090195],[-85.745945,35.090371],[-85.745887,35.090384],[-85.745863,35.090309]]]}},{"type":"Feature","properties":{"id":18,"kind":"landcover","class":"vegetation","role":"fill"},"geometry":{"type":"Polygon","coordinates":[[[-85.741771,35.090659],[-85.741785,35.090626],[-85.741845,35.090648],[-85.741817,35.090682],[-85.741771,35.090659]]]}},{"type":"Feature","properties":{"id":19,"kind":"landcover","class":"vegetation","role":"outline"},"geometry":{"type":"MultiLineString","coordinates":[[[-85.758314,35.084086],[-85.759514,35.089219],[-85.760777,35.09364],[-85.760901,35.094779],[-85.760336,35.094707],[-85.7607,35.096348],[-85.760811,35.097299],[-85.761008,35.097901],[-85.752001,35.097497],[-85.74961,35.096256],[-85.749491,35.101007],[-85.742953,35.100425],[-85.742972,35.098789],[-85.742819,35.097536],[-85.743062,35.096695],[-85.743955,35.095108],[-85.744816,35.093766],[-85.744605,35.093632],[-85.744343,35.093574],[-85.745147,35.092841],[-85.74702,35.092007],[-85.747803,35.091728],[-85.748321,35.09162],[-85.743739,35.091059],[-85.742156,35.090947],[-85.74201,35.091634],[-85.741523,35.091279],[-85.74111,35.091071],[-85.740747,35.091021],[-85.73977,35.091076],[-85.739492,35.090994],[-85.739275,35.090838],[-85.739147,35.090643],[-85.739092,35.090421],[-85.739132,35.089928],[-85.739371,35.089498],[-85.739783,35.089152],[-85.740241,35.088917],[-85.740731,35.088766],[-85.741501,35.088819],[-85.741733,35.088792],[-85.74279,35.0883],[-85.742967,35.088298],[-85.743073,35.088348],[-85.743131,35.088442],[-85.743126,35.088594],[-85.743993,35.087798],[-85.743251,35.086543],[-85.742908,35.086059],[-85.742437,35.085609],[-85.741615,35.084955],[-85.741555,35.08471],[-85.741677,35.084467],[-85.741868,35.084313],[-85.742066,35.08424],[-85.742139,35.085009],[-85.742209,35.08519],[-85.743172,35.08613],[-85.744077,35.087445],[-85.744442,35.087774],[-85.744473,35.087901],[-85.744615,35.087961],[-85.744945,35.088301],[-85.746212,35.089147],[-85.745995,35.089144],[-85.745928,35.089005],[-85.745661,35.088887],[-85.745546,35.088725],[-85.745118,35.088538],[-85.744857,35.088541],[-85.74477,35.088678],[-85.74441,35.088691],[-85.744319,35.088757],[-85.744346,35.088941],[-85.744047,35.089058],[-85.743913,35.089205],[-85.743913,35.089437],[-85.744066,35.089477],[-85.743666,35.089462],[-85.743621,35.08956],[-85.743979,35.089575],[-85.743539,35.089573],[-85.74318,35.089732],[-85.743045,35.09001],[-85.743034,35.090229],[-85.742986,35.090242],[-85.742942,35.090214],[-85.742892,35.089983],[-85.742904,35.089672],[-85.742819,35.089322],[-85.742841,35.088601],[-85.742637,35.088595],[-85.742563,35.088634],[-85.74251,35.088819],[-85.742431,35.088875],[-85.741929,35.088894],[-85.741808,35.089013],[-85.741606,35.089102],[-85.741234,35.089081],[-85.741082,35.089155],[-85.740551,35.08922],[-85.740261,35.089333],[-85.739971,35.089372],[-85.73996,35.089505],[-85.740027,35.08964],[-85.73989,35.089929],[-85.739875,35.090088],[-85.740022,35.090253],[-85.740047,35.090372],[-85.740334,35.090461],[-85.740422,35.090678],[-85.740521,35.090786],[-85.74188,35.090892],[-85.742085,35.090805],[-85.742875,35.09082],[-85.742909,35.090729],[-85.742842,35.09063],[-85.742937,35.090533],[-85.743043,35.090272],[-85.743109,35.09046],[-85.743055,35.090538],[-85.74302,35.090799],[-85.743195,35.090892],[-85.748404,35.091408],[-85.748608,35.091377],[-85.748726,35.091277],[-85.748735,35.091151],[-85.748678,35.091034],[-85.748876,35.090946],[-85.748818,35.090629],[-85.748679,35.090565],[-85.74883,35.090346],[-85.748825,35.090257],[-85.748758,35.090222],[-85.748725,35.090118],[-85.748748,35.089791],[-85.748885,35.089777],[-85.74889,35.089695],[-85.749107,35.089634],[-85.749386,35.089629],[-85.749477,35.089457],[-85.749468,35.089318],[-85.748938,35.089326],[-85.748742,35.089418],[-85.748719,35.089096],[-85.748649,35.089009],[-85.747886,35.088543],[-85.747769,35.088537],[-85.747929,35.088382],[-85.747669,35.08831],[-85.747148,35.087854],[-85.746935,35.08802],[-85.746908,35.087923],[-85.746762,35.08787],[-85.746742,35.087731],[-85.746662,35.087653],[-85.746446,35.087521],[-85.746319,35.087498],[-85.746088,35.087305],[-85.746067,35.087233],[-85.745932,35.087214],[-85.745873,35.087025],[-85.745691,35.086958],[-85.745708,35.086715],[-85.745562,35.08657],[-85.745143,35.085818],[-85.744675,35.085758],[-85.744586,35.08562],[-85.744187,35.085519],[-85.744005,35.08536],[-85.74375,35.085337],[-85.743705,35.08525],[-85.743589,35.085209],[-85.74356,35.08508],[-85.743384,35.085056],[-85.743185,35.084924],[-85.742799,35.08486],[-85.742663,35.08498],[-85.742249,35.085045],[-85.742166,35.084234],[-85.742385,35.084281],[-85.744548,35.085283],[-85.744768,35.085334],[-85.744978,35.085323],[-85.745075,35.085458],[-85.750423,35.084818],[-85.758314,35.084086]],[[-85.747715,35.088606],[-85.747686,35.088641],[-85.747655,35.088648],[-85.747715,35.08859],[-85.747715,35.088606]],[[-85.748426,35.089597],[-85.748468,35.089639],[-85.748348,35.089617],[-85.748366,35.089599],[-85.748426,35.089597]],[[-85.74866,35.089673],[-85.74859,35.089662],[-85.748492,35.089644],[-85.74867,35.089631],[-85.748714,35.08968],[-85.74866,35.089673]],[[-85.748153,35.090826],[-85.748169,35.090678],[-85.748274,35.090651],[-85.748275,35.090849],[-85.748216,35.090883],[-85.748153,35.090826]],[[-85.743359,35.086217],[-85.743331,35.08618],[-85.743399,35.0862],[-85.743434,35.08632],[-85.743359,35.086217]],[[-85.743997,35.08716],[-85.743952,35.087089],[-85.743987,35.087112],[-85.743997,35.08716]],[[-85.745598,35.087302],[-85.745562,35.087261],[-85.745564,35.087199],[-85.745672,35.087265],[-85.745661,35.087305],[-85.745598,35.087302]],[[-85.744272,35.087515],[-85.744247,35.087491],[-85.744305,35.087544],[-85.744301,35.087541],[-85.744272,35.087515]],[[-85.745541,35.08859],[-85.745039,35.088261],[-85.744737,35.087962],[-85.744865,35.087941],[-85.744899,35.088071],[-85.74506,35.088237],[-85.745699,35.088695],[-85.745541,35.08859]],[[-85.745931,35.088853],[-85.745854,35.088801],[-85.745916,35.088813],[-85.745931,35.088853]],[[-85.746013,35.08891],[-85.746015,35.08891],[-85.746014,35.088911],[-85.746013,35.08891]],[[-85.746376,35.089236],[-85.746731,35.089379],[-85.747097,35.08947],[-85.746704,35.089416],[-85.746321,35.089219],[-85.746376,35.089236]],[[-85.747043,35.089375],[-85.746933,35.08935],[-85.74697,35.089315],[-85.74708,35.089333],[-85.7476,35.089479],[-85.747043,35.089375]],[[-85.74601,35.089451],[-85.746048,35.089405],[-85.74611,35.089431],[-85.746072,35.089479],[-85.74601,35.089451]],[[-85.747342,35.089535],[-85.747315,35.08951],[-85.747454,35.089536],[-85.747397,35.089542],[-85.747342,35.089535]],[[-85.745863,35.090309],[-85.745881,35.090198],[-85.745956,35.090195],[-85.745945,35.090371],[-85.745887,35.090384],[-85.745863,35.090309]],[[-85.741771,35.090659],[-85.741785,35.090626],[-85.741845,35.090648],[-85.741817,35.090682],[-85.741771,35.090659]]]}}],"_meta":{"maturity":"gold","group":"Land cover (NAIP)","locked":true,"maturity_note":"gold — verified first-party, accepted in production; locked, unlock to edit"}}