{"type":"FeatureCollection","metadata":{"source":"OpenStreetMap via Overpass API","license":"ODbL — © OpenStreetMap contributors","query_bbox":[-85.782935,35.067164,-85.717154,35.117928],"retrieved_on":"2026-05-20","filters":"highway in {track,path,footway,cycleway,bridleway,unclassified,service}; route=*; leisure park/nature_reserve; landuse=recreation_ground; tourism=information; amenity in {parking,camp_site}; natural in {peak,saddle}; place=*","notes":"9-patch AOI around AOP Ellis Cove parcel envelope. Inspection use; raw zone only."},"features":[{"type":"Feature","properties":{"id":153366614,"name":"Smithtown","description":null,"kind":"osm_hamlet","source":"OpenStreetMap","confidence":"community","permission":"ODbL","status":"raw context","last_checked":null,"source_file":"osm_aop_9patch.geojson","ele":"204","gnis:feature_id":"1314305","place":"hamlet","osm_id":153366614,"osm_type":"node"},"geometry":{"type":"Point","coordinates":[-85.7349718,35.0811915]}},{"type":"Feature","properties":{"id":153662392,"name":"Pinhook","description":null,"kind":"osm_hamlet","source":"OpenStreetMap","confidence":"community","permission":"ODbL","status":"raw context","last_checked":null,"source_file":"osm_aop_9patch.geojson","ele":"192","gnis:feature_id":"1314241","place":"hamlet","osm_id":153662392,"osm_type":"node"},"geometry":{"type":"Point","coordinates":[-85.7402498,35.1106359]}},{"type":"Feature","properties":{"id":11371549562,"name":"Jackson Point","description":null,"kind":"osm_peak","source":"OpenStreetMap","confidence":"community","permission":"ODbL","status":"raw context","last_checked":null,"source_file":"osm_aop_9patch.geojson","gnis:feature_id":"1289241","natural":"peak","osm_id":11371549562,"osm_type":"node"},"geometry":{"type":"Point","coordinates":[-85.756452,35.0997725]}},{"type":"Feature","properties":{"id":19548779,"name":null,"description":null,"kind":"osm_service","source":"OpenStreetMap","confidence":"community","permission":"ODbL","status":"raw context","last_checked":null,"source_file":"osm_aop_9patch.geojson","highway":"service","service":"driveway","surface":"unpaved","tiger:cfcc":"A41","tiger:county":"Marion, TN","tiger:reviewed":"no","osm_id":19548779,"osm_type":"way"},"geometry":{"type":"LineString","coordinates":[[-85.779644,35.0710831],[-85.7796337,35.0711725],[-85.7796404,35.07123],[-85.7796578,35.0712933],[-85.7797152,35.0713876],[-85.7800314,35.0716969],[-85.7803255,35.0721016],[-85.7803458,35.0721676],[-85.7803496,35.0724166],[-85.7803357,35.0727384]]}},{"type":"Feature","properties":{"id":19548844,"name":null,"description":null,"kind":"osm_service","source":"OpenStreetMap","confidence":"community","permission":"ODbL","status":"raw context","last_checked":null,"source_file":"osm_aop_9patch.geojson","highway":"service","osm_id":19548844,"osm_type":"way"},"geometry":{"type":"LineString","coordinates":[[-85.7364698,35.0897698],[-85.735195,35.089654],[-85.73447,35.089567]]}},{"type":"Feature","properties":{"id":19549330,"name":null,"description":null,"kind":"osm_service","source":"OpenStreetMap","confidence":"community","permission":"ODbL","status":"raw context","last_checked":null,"source_file":"osm_aop_9patch.geojson","access":"private","highway":"service","osm_id":19549330,"osm_type":"way"},"geometry":{"type":"LineString","coordinates":[[-85.7356892,35.0793674],[-85.7351783,35.0792981],[-85.7347688,35.0792963],[-85.7340516,35.0791833],[-85.7332527,35.079054],[-85.7328665,35.0791943]]}},{"type":"Feature","properties":{"id":19549357,"name":null,"description":null,"kind":"osm_service","source":"OpenStreetMap","confidence":"community","permission":"ODbL","status":"raw context","last_checked":null,"source_file":"osm_aop_9patch.geojson","access":"private","highway":"service","tiger:cfcc":"A74","tiger:county":"Marion, TN","tiger:reviewed":"no","tiger:source":"tiger_import_dch_v0.6_20070829","tiger:tlid":"58400810:58400811","tiger:upload_uuid":"bulk_upload.pl-afd2caa4-6281-4386-a929-c6ec8183f218","osm_id":19549357,"osm_type":"way"},"geometry":{"type":"LineString","coordinates":[[-85.7329647,35.0695011],[-85.7320353,35.0687855],[-85.7275093,35.0639087],[-85.7259018,35.0623027]]}},{"type":"Feature","properties":{"id":19549510,"name":null,"description":null,"kind":"osm_service","source":"OpenStreetMap","confidence":"community","permission":"ODbL","status":"raw context","last_checked":null,"source_file":"osm_aop_9patch.geojson","access":"private","highway":"service","tiger:cfcc":"A74","tiger:county":"Marion, TN","tiger:reviewed":"no","tiger:source":"tiger_import_dch_v0.6_20070829","tiger:tlid":"58409310","tiger:upload_uuid":"bulk_upload.pl-afd2caa4-6281-4386-a929-c6ec8183f218","osm_id":19549510,"osm_type":"way"},"geometry":{"type":"LineString","coordinates":[[-85.7374518,35.0958771],[-85.7399842,35.0958791]]}},{"type":"Feature","properties":{"id":19549773,"name":null,"description":null,"kind":"osm_service","source":"OpenStreetMap","confidence":"community","permission":"ODbL","status":"raw context","last_checked":null,"source_file":"osm_aop_9patch.geojson","access":"private","highway":"service","osm_id":19549773,"osm_type":"way"},"geometry":{"type":"LineString","coordinates":[[-85.7361441,35.0729104],[-85.7372791,35.0730274]]}},{"type":"Feature","properties":{"id":40785038,"name":null,"description":null,"kind":"osm_service","source":"OpenStreetMap","confidence":"community","permission":"ODbL","status":"raw context","last_checked":null,"source_file":"osm_aop_9patch.geojson","access":"no","highway":"service","oneway":"no","osm_id":40785038,"osm_type":"way"},"geometry":{"type":"LineString","coordinates":[[-85.7370857,35.091199],[-85.7368314,35.0912006]]}},{"type":"Feature","properties":{"id":383693504,"name":null,"description":null,"kind":"osm_track","source":"OpenStreetMap","confidence":"community","permission":"ODbL","status":"raw context","last_checked":null,"source_file":"osm_aop_9patch.geojson","highway":"track","osm_id":383693504,"osm_type":"way"},"geometry":{"type":"LineString","coordinates":[[-85.7459594,35.0889337],[-85.7459409,35.0896039],[-85.7459026,35.0909883],[-85.7458707,35.0921398]]}},{"type":"Feature","properties":{"id":392166283,"name":"Stagecoach Road","description":null,"kind":"osm_unclassified","source":"Bing","confidence":"community","permission":"ODbL","status":"raw context","last_checked":null,"source_file":"osm_aop_9patch.geojson","highway":"unclassified","source:name":"some truly terrible TIGER","osm_id":392166283,"osm_type":"way"},"geometry":{"type":"LineString","coordinates":[[-85.8458073,35.1269817],[-85.8438813,35.1268167],[-85.8385845,35.1265605],[-85.8382165,35.1263604],[-85.8378507,35.1256102],[-85.8375835,35.1252802],[-85.8372971,35.1249283],[-85.8367821,35.1246651],[-85.8357306,35.1244896],[-85.8344217,35.1243843],[-85.8338209,35.1242439],[-85.8334347,35.1239104],[-85.8318039,35.1229451],[-85.8309027,35.1227521],[-85.830569,35.1227447],[-85.8301087,35.1227345],[-85.8290111,35.1231245],[-85.828199,35.1234717],[-85.826182,35.1240859],[-85.8248913,35.1244124],[-85.8239504,35.1248055],[-85.8231779,35.1248055],[-85.82262,35.12463],[-85.8216265,35.1249029],[-85.8198949,35.124981],[-85.8186933,35.1247704],[-85.8180495,35.124472],[-85.8175812,35.1240398],[-85.8172127,35.1236998],[-85.8167192,35.1232435],[-85.8157965,35.1226468],[-85.8155876,35.1225811],[-85.8138438,35.1220325],[-85.8134049,35.1219343],[-85.8126771,35.1217714],[-85.81209,35.1217295],[-85.8117387,35.1216143],[-85.811462,35.1215235],[-85.8102818,35.1209882],[-85.8100901,35.120862],[-85.8094021,35.120409],[-85.8084783,35.1198692],[-85.8079752,35.1195753],[-85.8070385,35.1193051],[-85.8067059,35.1192348],[-85.806398,35.119277],[-85.8060976,35.1194262],[-85.8057757,35.119707],[-85.8054753,35.1201282],[-85.805279,35.1205863],[-85.8050033,35.120918],[-85.8047565,35.121155],[-85.8046814,35.1215323],[-85.8050254,35.1227303],[-85.8050322,35.1227538],[-85.8051089,35.1229218],[-85.8053326,35.123412],[-85.8052929,35.1235594],[-85.8051502,35.1236314],[-85.8046707,35.1236121],[-85.8038875,35.1234804],[-85.8029755,35.1232874],[-85.8016881,35.1232786],[-85.8003791,35.1234102],[-85.799435,35.1233927],[-85.7982087,35.1234032],[-85.7971787,35.1231399],[-85.7969641,35.123061],[-85.7968354,35.1231048],[-85.7969105,35.1232014],[-85.7970714,35.1234208],[-85.7972753,35.1237893],[-85.797418,35.1242702],[-85.7974791,35.1245791],[-85.7978225,35.1251231],[-85.7980907,35.1254478],[-85.7981368,35.1256216],[-85.7979866,35.1257532],[-85.7976111,35.1257883],[-85.7972002,35.12579],[-85.7966637,35.1256058],[-85.7958194,35.1251653],[-85.7954224,35.1248406],[-85.7952615,35.1243404],[-85.7950147,35.1239455],[-85.7946145,35.1235612],[-85.7944461,35.1231908],[-85.7945534,35.12248],[-85.7945641,35.1220764],[-85.7944461,35.1217517],[-85.794135,35.1214884],[-85.7933807,35.1213849],[-85.7925331,35.1215165],[-85.7919892,35.1216552],[-85.7916534,35.1218938],[-85.7914527,35.1221378],[-85.7912811,35.1223221],[-85.7910526,35.1224116],[-85.7906985,35.122473],[-85.7904947,35.1225608],[-85.7902404,35.122638],[-85.7899582,35.1226398],[-85.7891782,35.122559],[-85.7878371,35.1221992],[-85.7871794,35.1219465],[-85.7865143,35.1215955],[-85.7856881,35.1213673],[-85.7851764,35.1212427],[-85.7849082,35.1210233],[-85.7842397,35.120051],[-85.7836856,35.1197509],[-85.78336,35.1197263],[-85.7829453,35.1198386],[-85.7820655,35.1199264],[-85.7812609,35.119707],[-85.7809497,35.1195841],[-85.780821,35.1194525],[-85.7806815,35.1191541],[-85.7804954,35.1189452],[-85.7798409,35.1187259],[-85.7794155,35.1186188],[-85.7791366,35.118689],[-85.7788002,35.1188399],[-85.7782745,35.1188575],[-85.7778346,35.1188048],[-85.7774913,35.1186205],[-85.7772016,35.1184538],[-85.7768835,35.1184784],[-85.7766223,35.1186118],[-85.7759464,35.1187083],[-85.7754566,35.1186714],[-85.7726848,35.117936],[-85.7721628,35.1178465],[-85.7711329,35.1178202],[-85.7707144,35.1178465],[-85.7703711,35.1177324],[-85.7699597,35.1175674],[-85.7691373,35.1174692],[-85.7683005,35.1174165],[-85.7677388,35.1175587],[-85.7673847,35.1174972],[-85.7670736,35.117348],[-85.7667088,35.1171286],[-85.7663907,35.1171181],[-85.7653463,35.1172866],[-85.7649852,35.1173024],[-85.7647921,35.1172322],[-85.7645454,35.1167846],[-85.7643415,35.1165652],[-85.7639553,35.1165126],[-85.7634939,35.1165389],[-85.7623851,35.1159878],[-85.7618487,35.115742],[-85.7615091,35.1157052],[-85.7612409,35.1159158],[-85.7610156,35.1161703],[-85.7603895,35.1166196],[-85.7601573,35.116723],[-85.7600553,35.1169117],[-85.7598569,35.1171881],[-85.7597442,35.1174163],[-85.759653,35.1178682],[-85.7597388,35.1181183],[-85.7599159,35.1183509],[-85.7599802,35.1185308],[-85.7599027,35.1186936]]}},{"type":"Feature","properties":{"id":651826176,"name":null,"description":null,"kind":"osm_service","source":"OpenStreetMap","confidence":"community","permission":"ODbL","status":"raw context","last_checked":null,"source_file":"osm_aop_9patch.geojson","highway":"service","osm_id":651826176,"osm_type":"way"},"geometry":{"type":"LineString","coordinates":[[-85.759826,35.114318],[-85.7601815,35.1118751],[-85.7603124,35.111756],[-85.761062,35.1114941],[-85.7614404,35.1112203],[-85.7615132,35.1111429],[-85.7614695,35.1108809],[-85.7615423,35.1108214],[-85.7616297,35.1108273],[-85.7616806,35.110875],[-85.7616733,35.1109345],[-85.7616515,35.1110119],[-85.7615132,35.1111429]]}},{"type":"Feature","properties":{"id":700928456,"name":null,"description":null,"kind":"osm_service","source":"OpenStreetMap","confidence":"community","permission":"ODbL","status":"raw context","last_checked":null,"source_file":"osm_aop_9patch.geojson","highway":"service","osm_id":700928456,"osm_type":"way"},"geometry":{"type":"LineString","coordinates":[[-85.7373723,35.0929988],[-85.7377395,35.0930187],[-85.7380546,35.0930278],[-85.7383898,35.093055],[-85.7386184,35.0930859],[-85.738736,35.0930859],[-85.7388802,35.0930568],[-85.7389868,35.0930115],[-85.7390578,35.0929915],[-85.7391754,35.0929806],[-85.7395349,35.0929969],[-85.7399721,35.0930133],[-85.740598,35.0930296],[-85.7408776,35.0930478],[-85.741175,35.0930496],[-85.7413504,35.0930587],[-85.7415013,35.0930696],[-85.7417232,35.0930914],[-85.7419784,35.0931277],[-85.7422492,35.0931713],[-85.7425821,35.0932366],[-85.7428817,35.0932729]]}},{"type":"Feature","properties":{"id":746679136,"name":null,"description":null,"kind":"osm_service","source":"OpenStreetMap","confidence":"community","permission":"ODbL","status":"raw context","last_checked":null,"source_file":"osm_aop_9patch.geojson","access":"private","highway":"service","service":"driveway","osm_id":746679136,"osm_type":"way"},"geometry":{"type":"LineString","coordinates":[[-85.7308982,35.0819863],[-85.7310196,35.0816882],[-85.7313283,35.0809972],[-85.7315575,35.0804795],[-85.7316445,35.0803047]]}},{"type":"Feature","properties":{"id":1215497663,"name":null,"description":null,"kind":"osm_track","source":"OpenStreetMap","confidence":"community","permission":"ODbL","status":"raw context","last_checked":null,"source_file":"osm_aop_9patch.geojson","highway":"track","osm_id":1215497663,"osm_type":"way"},"geometry":{"type":"LineString","coordinates":[[-85.755586,35.0919237],[-85.7556258,35.0920161],[-85.7557197,35.0921676],[-85.7560094,35.0925802],[-85.7562803,35.0929686],[-85.7564501,35.0932159],[-85.7564895,35.0932393],[-85.75656,35.0933216],[-85.7566019,35.0933648],[-85.7567187,35.0934622],[-85.7568709,35.0935896],[-85.7569346,35.0936823],[-85.7569629,35.093856],[-85.7569771,35.0941369],[-85.7569205,35.0943541],[-85.7568886,35.0945395],[-85.7568886,35.0947103],[-85.7569063,35.094829],[-85.7568886,35.0949767],[-85.7568285,35.0951476],[-85.7567364,35.0952663],[-85.7566178,35.0953427],[-85.7565701,35.0953734],[-85.7561993,35.0956254],[-85.7560654,35.0956915],[-85.7559735,35.0957649],[-85.7559039,35.0958039],[-85.7557521,35.0959015],[-85.7553536,35.0960977],[-85.7551121,35.0961516],[-85.7549512,35.0961876],[-85.7547852,35.0961877],[-85.7545527,35.0961643],[-85.7545043,35.0961604],[-85.7542194,35.0961377],[-85.754119,35.0961773],[-85.7539836,35.0962308],[-85.7537975,35.0962516],[-85.7536258,35.0962707],[-85.7532884,35.0962208],[-85.7529428,35.0961094],[-85.7527517,35.0960479],[-85.7522273,35.0958117],[-85.7520772,35.0957581],[-85.7518451,35.0956753],[-85.7515971,35.0956387],[-85.751341,35.0956454],[-85.7508044,35.0956886],[-85.7503572,35.0957718],[-85.7501051,35.0957784],[-85.7498571,35.0957585],[-85.7496254,35.0956986],[-85.7494384,35.0955921],[-85.7492839,35.0954225],[-85.7491497,35.0952395],[-85.7489424,35.0950865],[-85.7486841,35.0949421],[-85.7486212,35.0949069],[-85.7484789,35.0947938],[-85.7484624,35.0947731],[-85.7483488,35.0946308],[-85.7483366,35.0945177],[-85.7484017,35.0943647],[-85.7484689,35.0942964],[-85.7485196,35.094245],[-85.7487229,35.0941585],[-85.7489871,35.0940554],[-85.7493286,35.0940554],[-85.74991,35.0941352],[-85.7503287,35.0941585],[-85.7506662,35.0941186],[-85.7507049,35.0941012],[-85.7508369,35.0940421],[-85.7509158,35.0939573],[-85.750967,35.0939023],[-85.7509873,35.0938092],[-85.7509223,35.0936595],[-85.7508366,35.0935518],[-85.7508084,35.0935165],[-85.7505564,35.093287],[-85.7503938,35.0931306],[-85.750308,35.0930038],[-85.7502881,35.0929743],[-85.7502764,35.0929293],[-85.7502596,35.0928645],[-85.7503043,35.0926682],[-85.75041,35.0924886],[-85.7504629,35.0923489],[-85.7504466,35.0922158],[-85.7503653,35.0921027],[-85.7503461,35.0920837],[-85.7502647,35.0920032],[-85.7500368,35.0918923],[-85.7498118,35.091746],[-85.7497256,35.0917712],[-85.7494637,35.0918645],[-85.7491864,35.0919477],[-85.7489676,35.0919704],[-85.7488957,35.0919734],[-85.7486688,35.091983],[-85.7483687,35.0919286],[-85.7481669,35.0919083],[-85.7479263,35.0918996],[-85.7476325,35.0919402],[-85.7471866,35.0920444],[-85.747091,35.0920937]]}},{"type":"Feature","properties":{"id":1215497664,"name":null,"description":null,"kind":"osm_track","source":"OpenStreetMap","confidence":"community","permission":"ODbL","status":"raw context","last_checked":null,"source_file":"osm_aop_9patch.geojson","highway":"track","osm_id":1215497664,"osm_type":"way"},"geometry":{"type":"LineString","coordinates":[[-85.7498118,35.091746],[-85.7496647,35.0916266],[-85.7493801,35.0915434],[-85.7492991,35.0914926],[-85.7492053,35.0914336],[-85.7489451,35.0912773],[-85.7487134,35.0912207],[-85.7481686,35.0911675],[-85.7478374,35.0911577],[-85.7474937,35.0911476],[-85.7467498,35.0910844],[-85.7459026,35.0909883]]}},{"type":"Feature","properties":{"id":1215497665,"name":null,"description":null,"kind":"osm_track","source":"OpenStreetMap","confidence":"community","permission":"ODbL","status":"raw context","last_checked":null,"source_file":"osm_aop_9patch.geojson","highway":"track","osm_id":1215497665,"osm_type":"way"},"geometry":{"type":"LineString","coordinates":[[-85.7496566,35.0893579],[-85.7496189,35.0894727],[-85.7496118,35.0894943],[-85.7496322,35.0896772],[-85.7496403,35.0898868],[-85.7495753,35.0901163],[-85.7495753,35.0902249],[-85.7495753,35.0903126],[-85.7495997,35.0904257],[-85.749685,35.0904889],[-85.7498558,35.0905255],[-85.7499737,35.0905122],[-85.7503111,35.090429],[-85.7505835,35.0903758],[-85.7507258,35.0903126],[-85.7508071,35.0902527],[-85.7508356,35.0901862],[-85.7509453,35.0901296]]}},{"type":"Feature","properties":{"id":1215497666,"name":null,"description":null,"kind":"osm_track","source":"OpenStreetMap","confidence":"community","permission":"ODbL","status":"raw context","last_checked":null,"source_file":"osm_aop_9patch.geojson","highway":"track","osm_id":1215497666,"osm_type":"way"},"geometry":{"type":"LineString","coordinates":[[-85.750517,35.0869504],[-85.7507222,35.086852],[-85.7508461,35.0867564],[-85.7509417,35.0866087],[-85.7509841,35.0864494],[-85.7511399,35.086154],[-85.7513558,35.0858238],[-85.7516106,35.0855516],[-85.751968,35.0853141],[-85.7521061,35.0852446],[-85.7523184,35.0852012],[-85.7525626,35.0851433],[-85.7530263,35.08501],[-85.7537447,35.0847407],[-85.754173,35.0845611],[-85.754357,35.0845148],[-85.7545658,35.0845032],[-85.7547959,35.0844916],[-85.754994,35.0845264],[-85.7551285,35.0845901],[-85.7552736,35.0846509],[-85.7554612,35.084677],[-85.7556842,35.0847407],[-85.7558505,35.0848479],[-85.7559567,35.0850245],[-85.7559992,35.0851693],[-85.7560063,35.0853634],[-85.7559992,35.0855342],[-85.7560063,35.0857109],[-85.756024,35.0857891],[-85.7561478,35.0860179],[-85.7562115,35.0862061],[-85.7562717,35.086322],[-85.7563496,35.086432],[-85.7565442,35.0865942],[-85.7568769,35.0868259],[-85.7571282,35.0869852],[-85.7573122,35.0871068],[-85.7574892,35.0873356],[-85.757567,35.0875036],[-85.7576024,35.0876831],[-85.7575954,35.0878308],[-85.7575246,35.0882189],[-85.7574927,35.0884274],[-85.7574856,35.0885838],[-85.7574998,35.0887952],[-85.7575069,35.0889168],[-85.7574856,35.0891022],[-85.7573865,35.0894236],[-85.757206,35.0898319],[-85.7570893,35.0900897],[-85.7570291,35.090249],[-85.7569689,35.0903445],[-85.75694,35.0903761],[-85.7568978,35.0904222],[-85.7568521,35.090472],[-85.7567353,35.0907036],[-85.756431,35.0913552],[-85.7562717,35.0916911],[-85.7562434,35.0918272],[-85.7562398,35.0919633],[-85.7562257,35.0920734],[-85.7562046,35.0921158],[-85.7561809,35.0921401],[-85.7561567,35.0921528],[-85.756116,35.0921545],[-85.7560063,35.0921255],[-85.755716,35.0919923],[-85.755586,35.0919237],[-85.7551887,35.0917143],[-85.7544773,35.0912857],[-85.7543441,35.0912071],[-85.7539571,35.0909787],[-85.7536704,35.0907905],[-85.7534975,35.0906972],[-85.7533589,35.0906225],[-85.7530758,35.0905038],[-85.7527927,35.0904575],[-85.7524741,35.090443],[-85.7521096,35.0904285],[-85.7519454,35.0904124],[-85.7518661,35.0904046],[-85.7517557,35.0903938],[-85.7513664,35.0903098],[-85.7512608,35.0902744],[-85.7512106,35.0902577],[-85.7509453,35.0901296],[-85.7507908,35.0900864],[-85.7506485,35.090093],[-85.7504491,35.0901179],[-85.7504087,35.090123],[-85.7500184,35.0902427],[-85.7498639,35.0902893],[-85.7497338,35.090286],[-85.749651,35.0902699],[-85.7495753,35.0902249],[-85.7494906,35.0902374],[-85.7494234,35.0902837],[-85.7492535,35.0905067],[-85.7491862,35.0906515],[-85.749165,35.0908513],[-85.7491968,35.0909845],[-85.7492889,35.0912307],[-85.7493313,35.0913205],[-85.7492991,35.0914926],[-85.7491862,35.0917143],[-85.7490447,35.0918736],[-85.7488957,35.0919734]]}},{"type":"Feature","properties":{"id":1215497667,"name":null,"description":null,"kind":"osm_track","source":"OpenStreetMap","confidence":"community","permission":"ODbL","status":"raw context","last_checked":null,"source_file":"osm_aop_9patch.geojson","highway":"track","osm_id":1215497667,"osm_type":"way"},"geometry":{"type":"LineString","coordinates":[[-85.750517,35.0869504],[-85.7504639,35.0868305],[-85.7503704,35.0867041],[-85.7501752,35.0864347],[-85.7500451,35.0863116],[-85.7498622,35.0861585],[-85.7497036,35.0859589],[-85.7494882,35.0857361],[-85.7494353,35.0856096],[-85.7492564,35.0854633],[-85.7490775,35.0852736],[-85.749045,35.0851372],[-85.7490613,35.0849909],[-85.7491385,35.0848545],[-85.7492727,35.0847846],[-85.7494882,35.0846848],[-85.7497239,35.0846183]]}},{"type":"Feature","properties":{"id":1215497668,"name":null,"description":null,"kind":"osm_track","source":"OpenStreetMap","confidence":"community","permission":"ODbL","status":"raw context","last_checked":null,"source_file":"osm_aop_9patch.geojson","highway":"track","osm_id":1215497668,"osm_type":"way"},"geometry":{"type":"LineString","coordinates":[[-85.7492405,35.0929749],[-85.7492441,35.0929089],[-85.749237,35.0927887],[-85.7492246,35.092683],[-85.7492299,35.0925368],[-85.7492512,35.0923066],[-85.7492653,35.0921328],[-85.7495148,35.092072],[-85.7496776,35.0920126],[-85.7499024,35.0919576],[-85.7499926,35.0919229],[-85.7500368,35.0918923],[-85.7507092,35.0919425],[-85.7512743,35.0920024],[-85.751689,35.0920822],[-85.7520183,35.0921321],[-85.7521849,35.0922153],[-85.7522906,35.092355],[-85.7523272,35.0925014],[-85.7522337,35.0926045],[-85.7522093,35.092691],[-85.7522297,35.0927774],[-85.7523476,35.0928706],[-85.7523842,35.0929438],[-85.7523354,35.0930469],[-85.752315,35.0931567],[-85.7523394,35.0932531],[-85.7523842,35.0933795],[-85.7523557,35.0934893],[-85.7522093,35.0935725],[-85.7520467,35.0936091],[-85.7517215,35.093619],[-85.7512092,35.0935725],[-85.7508366,35.0935518],[-85.7504525,35.0935373],[-85.7502376,35.0935292],[-85.7499652,35.0934993],[-85.749392,35.0934926],[-85.7490043,35.0935093],[-85.7485761,35.093573],[-85.7482044,35.0936714],[-85.7479992,35.0937351],[-85.7479458,35.0937406],[-85.747801,35.0937554],[-85.7476696,35.0937554],[-85.7475462,35.0937554],[-85.7473409,35.093738],[-85.7470365,35.0936367],[-85.7468843,35.0935527],[-85.7468631,35.0934716],[-85.7468772,35.0933587],[-85.7469834,35.0932805],[-85.7472382,35.0931762],[-85.7475922,35.0930546],[-85.7479496,35.0929938],[-85.7482434,35.0929591],[-85.7487105,35.0929533],[-85.7491317,35.0929735],[-85.7492405,35.0929749],[-85.7495777,35.0929793],[-85.7498647,35.0930026],[-85.7498997,35.0930054],[-85.7502182,35.0930228],[-85.750308,35.0930038]]}},{"type":"Feature","properties":{"id":1215497669,"name":null,"description":null,"kind":"osm_track","source":"OpenStreetMap","confidence":"community","permission":"ODbL","status":"raw context","last_checked":null,"source_file":"osm_aop_9patch.geojson","highway":"track","osm_id":1215497669,"osm_type":"way"},"geometry":{"type":"LineString","coordinates":[[-85.7502764,35.0929293],[-85.7503319,35.092881],[-85.7503827,35.0928211],[-85.7504396,35.0927995],[-85.7505453,35.0927862],[-85.7506835,35.0927363],[-85.7506795,35.0926881],[-85.75071,35.0925899],[-85.7507669,35.0925134],[-85.750777,35.0924319],[-85.7506815,35.0923405],[-85.750651,35.092249],[-85.7506449,35.0921791],[-85.7505128,35.0921442],[-85.7503461,35.0920837],[-85.7502627,35.0921558],[-85.7501936,35.0921691],[-85.7500046,35.0921758],[-85.7499436,35.0922274],[-85.7498948,35.0923089],[-85.7498765,35.092555],[-85.7498847,35.0926465],[-85.749903,35.0926981],[-85.7498989,35.0928145],[-85.7498867,35.0929276],[-85.7498647,35.0930026]]}},{"type":"Feature","properties":{"id":1215497670,"name":null,"description":null,"kind":"osm_track","source":"OpenStreetMap","confidence":"community","permission":"ODbL","status":"raw context","last_checked":null,"source_file":"osm_aop_9patch.geojson","highway":"track","osm_id":1215497670,"osm_type":"way"},"geometry":{"type":"LineString","coordinates":[[-85.7561567,35.0921528],[-85.756224,35.0922137],[-85.7564003,35.0923263],[-85.7565744,35.0924045],[-85.7568209,35.0925091],[-85.7568717,35.0925545],[-85.7571259,35.0926982],[-85.7571675,35.092707],[-85.7573246,35.092765],[-85.757397,35.0927763],[-85.7575033,35.0928091],[-85.7576435,35.0928671],[-85.7579177,35.092954],[-85.7579932,35.0929856],[-85.7582227,35.0931166],[-85.7583845,35.093254],[-85.75844,35.0933032],[-85.7584908,35.093394],[-85.7585225,35.0934238],[-85.7585509,35.0934507],[-85.7585925,35.0934998],[-85.7586217,35.093554],[-85.7586402,35.0936322],[-85.7586495,35.0937633],[-85.7586526,35.0938011],[-85.7586341,35.0938717],[-85.7586294,35.0939624],[-85.7586079,35.0942196],[-85.7586033,35.0943859],[-85.7586156,35.0946456],[-85.7586279,35.0948914],[-85.7586495,35.0949947],[-85.758688,35.0952569],[-85.7586957,35.09533],[-85.7587219,35.0954283],[-85.7587696,35.0955783],[-85.7588559,35.0957472],[-85.7589761,35.0960359],[-85.7590192,35.0961203],[-85.7590469,35.0962691],[-85.759067,35.0964619],[-85.7590808,35.0965388],[-85.759067,35.0967153],[-85.7590223,35.0968867],[-85.7589576,35.0970253],[-85.7588682,35.0971816],[-85.7587434,35.0973303],[-85.7585771,35.0974917],[-85.758423,35.0976139],[-85.7582797,35.0976908],[-85.7581611,35.0977223],[-85.7580302,35.0977349],[-85.7579562,35.0977148],[-85.7577144,35.0975761],[-85.7576605,35.0975081],[-85.7575757,35.0974034],[-85.7574756,35.0973379],[-85.7573554,35.0972925],[-85.7572091,35.097261],[-85.7570997,35.0972711],[-85.7570073,35.0973291],[-85.7568732,35.0974488],[-85.7568101,35.0974576],[-85.7567315,35.0974312],[-85.7566653,35.0973808],[-85.7565544,35.0972345],[-85.756408,35.0971173],[-85.7562139,35.0970316],[-85.7561051,35.0970066],[-85.756066,35.0969976],[-85.7557456,35.0970077],[-85.7556146,35.0970241],[-85.7553882,35.0970959],[-85.7551848,35.0971539],[-85.7551093,35.0971526],[-85.754869,35.0971413],[-85.7547755,35.0971084],[-85.7546718,35.097072],[-85.7545332,35.0969938],[-85.7544469,35.0968867],[-85.7544194,35.0968539],[-85.7543653,35.0967896],[-85.7543237,35.0966623],[-85.7542882,35.096593],[-85.7542835,35.0965729],[-85.7542559,35.0964556],[-85.7542328,35.0963522],[-85.7542266,35.0962854],[-85.7541758,35.0962287],[-85.754119,35.0961773],[-85.7541095,35.0960989],[-85.7540664,35.0960182],[-85.7540017,35.0959187],[-85.7538831,35.0957825],[-85.7538215,35.0956704],[-85.7538091,35.0955872],[-85.7538091,35.0955191],[-85.7538292,35.0954435],[-85.753897,35.095354],[-85.7539663,35.0952519],[-85.7539663,35.0951636],[-85.7539355,35.0950754]]}},{"type":"Feature","properties":{"id":1215497671,"name":null,"description":null,"kind":"osm_track","source":"OpenStreetMap","confidence":"community","permission":"ODbL","status":"raw context","last_checked":null,"source_file":"osm_aop_9patch.geojson","highway":"track","osm_id":1215497671,"osm_type":"way"},"geometry":{"type":"LineString","coordinates":[[-85.7486841,35.0949421],[-85.7488117,35.0949481],[-85.7489996,35.0949721],[-85.7492584,35.0949721],[-85.7493647,35.0949506],[-85.7495234,35.0948662],[-85.7496251,35.0948347],[-85.7497052,35.0948321],[-85.7498608,35.0948876],[-85.7500765,35.0949721],[-85.7501627,35.0949859],[-85.7502983,35.0949721],[-85.7503923,35.0949191],[-85.7505309,35.0948511],[-85.7506064,35.0948422],[-85.7507189,35.0948826],[-85.7507851,35.0949305],[-85.7508575,35.0950414],[-85.7509191,35.0951397],[-85.750973,35.0951952],[-85.7510516,35.0952229],[-85.7511841,35.0952443],[-85.7513936,35.0952468],[-85.7516447,35.0952279],[-85.7518342,35.095204],[-85.7519297,35.0952141],[-85.7520298,35.0952557],[-85.75213,35.0953855],[-85.7521592,35.0954435],[-85.7521762,35.0955355],[-85.7521746,35.0956086],[-85.7521515,35.0956615],[-85.7520772,35.0957581]]}},{"type":"Feature","properties":{"id":1215497672,"name":null,"description":null,"kind":"osm_track","source":"OpenStreetMap","confidence":"community","permission":"ODbL","status":"raw context","last_checked":null,"source_file":"osm_aop_9patch.geojson","highway":"track","osm_id":1215497672,"osm_type":"way"},"geometry":{"type":"LineString","coordinates":[[-85.7573385,35.0961759],[-85.7572734,35.096129],[-85.7572252,35.0960632],[-85.7572225,35.0959469],[-85.7571849,35.0958591],[-85.7571206,35.0958064],[-85.7569704,35.0957121],[-85.7569274,35.0956397],[-85.7569194,35.0955738],[-85.7568765,35.095486],[-85.7568041,35.095418],[-85.7566914,35.0953719],[-85.7566178,35.0953427],[-85.756509,35.0952622],[-85.7563695,35.0952139],[-85.7561469,35.0951568],[-85.7560423,35.0951568],[-85.7558438,35.0951964],[-85.7557499,35.0952095],[-85.7554898,35.0952271],[-85.75515,35.095221],[-85.7551223,35.0952205],[-85.7549856,35.0952105],[-85.7548219,35.0951985],[-85.7544625,35.0951503],[-85.7542184,35.095102],[-85.7539355,35.0950754],[-85.7537928,35.0950662],[-85.7537598,35.0950641],[-85.7536135,35.0950628],[-85.7534733,35.0950779],[-85.7532961,35.0950842],[-85.7531673,35.0951109],[-85.7531436,35.0951158],[-85.7528879,35.0952897],[-85.7526491,35.0954699],[-85.7524966,35.095562],[-85.7524011,35.0956174],[-85.7522763,35.0956477],[-85.7521515,35.0956615]]}},{"type":"Feature","properties":{"id":1215497673,"name":null,"description":null,"kind":"osm_track","source":"OpenStreetMap","confidence":"community","permission":"ODbL","status":"raw context","last_checked":null,"source_file":"osm_aop_9patch.geojson","highway":"track","osm_id":1215497673,"osm_type":"way"},"geometry":{"type":"LineString","coordinates":[[-85.7534975,35.0906972],[-85.7535288,35.0905819],[-85.7535278,35.0905439],[-85.7535226,35.0903412],[-85.7535319,35.0901458],[-85.7535118,35.0899794],[-85.7534795,35.0898811],[-85.7534271,35.0898016],[-85.7533054,35.0897058],[-85.7532099,35.0896466],[-85.7530389,35.0895899],[-85.7529079,35.0895621],[-85.7527508,35.0895697],[-85.7526183,35.0896025],[-85.7525613,35.0896516],[-85.752512,35.0897285],[-85.7524658,35.0898584],[-85.7524134,35.089958],[-85.7523256,35.0901067],[-85.7522363,35.0902164],[-85.7521269,35.0903096],[-85.7520206,35.0903765],[-85.7519454,35.0904124],[-85.7519682,35.0904596],[-85.7521223,35.0906878],[-85.7521762,35.0907559],[-85.7522255,35.0907924],[-85.7522964,35.0908],[-85.7524335,35.0908265],[-85.7527031,35.0909639],[-85.7527339,35.0909941],[-85.7527832,35.0910975],[-85.7528972,35.0913433],[-85.7529326,35.0913975],[-85.7529973,35.0914454],[-85.753062,35.0914756],[-85.7532222,35.0915059],[-85.7534702,35.0915689],[-85.7538091,35.0916786],[-85.7540418,35.0917668],[-85.7540972,35.0917983],[-85.7541773,35.0918714],[-85.7542343,35.0918979],[-85.7542651,35.091908],[-85.754299,35.0919483],[-85.7544454,35.0922231],[-85.7545224,35.0924374],[-85.754621,35.0927336],[-85.7546903,35.092871],[-85.754772,35.0929718],[-85.754886,35.0930739],[-85.7549692,35.0931395],[-85.7550138,35.0931533],[-85.7552572,35.0931584],[-85.755573,35.0931521],[-85.7556378,35.0931748],[-85.7556886,35.0932126],[-85.7556998,35.0932263],[-85.7557194,35.0932718],[-85.7557348,35.0933538],[-85.7557394,35.093437],[-85.7557429,35.0935136],[-85.7557509,35.0936891],[-85.7557631,35.093739],[-85.7559095,35.0939635],[-85.7559826,35.0940051],[-85.7561066,35.0940167],[-85.7562347,35.0939918],[-85.7562977,35.0939552],[-85.7562937,35.0938937],[-85.7562652,35.0938504],[-85.7562713,35.0937373],[-85.7563058,35.0936542],[-85.7563567,35.0936159],[-85.756438,35.093591],[-85.7564746,35.0935643],[-85.756499,35.0935194],[-85.7565315,35.0934978],[-85.7565823,35.0935161],[-85.7566352,35.0935743],[-85.7566839,35.0935959],[-85.7567144,35.093571],[-85.7567226,35.0935178],[-85.7567187,35.0934622],[-85.7568425,35.0934596],[-85.7569563,35.0934662],[-85.75706,35.0934862],[-85.7571637,35.0935411],[-85.7572653,35.0936142],[-85.7573791,35.0937307],[-85.7574198,35.0937539],[-85.7574706,35.0937539],[-85.7575519,35.0937473],[-85.7576088,35.0937756],[-85.7577023,35.0938687],[-85.7577831,35.0939362],[-85.7578574,35.0939724],[-85.7579849,35.0939637],[-85.7580733,35.0939434],[-85.7581512,35.0938942],[-85.7581707,35.0938189],[-85.7582397,35.0937537],[-85.7582892,35.0936697],[-85.7582821,35.093564]]}},{"type":"Feature","properties":{"id":1215497674,"name":null,"description":null,"kind":"osm_track","source":"OpenStreetMap","confidence":"community","permission":"ODbL","status":"raw context","last_checked":null,"source_file":"osm_aop_9patch.geojson","highway":"track","osm_id":1215497674,"osm_type":"way"},"geometry":{"type":"LineString","coordinates":[[-85.7557394,35.093437],[-85.7558026,35.0934533],[-85.755952,35.0934975],[-85.7560968,35.0935706],[-85.7561461,35.0935844],[-85.7562185,35.0935731],[-85.7563125,35.0935315],[-85.7563988,35.0934773],[-85.7564558,35.0934054],[-85.7565143,35.0933802],[-85.7565374,35.0933323],[-85.75656,35.0933216],[-85.7566391,35.0933021],[-85.7567485,35.0932731],[-85.7568655,35.0932731],[-85.7569641,35.0933021],[-85.7570365,35.0933134],[-85.757112,35.093287],[-85.7573431,35.093084],[-85.7574463,35.0930223],[-85.7575079,35.0930008],[-85.7576312,35.0929958],[-85.7576822,35.0929988],[-85.7577412,35.0930084],[-85.7577962,35.0930292],[-85.7578283,35.0930611],[-85.7578344,35.0930877],[-85.7578875,35.0931514],[-85.7579194,35.0932194],[-85.7579282,35.0933092],[-85.7579424,35.0933657],[-85.7580273,35.0935322],[-85.7580875,35.09358],[-85.7581583,35.0935959],[-85.7582238,35.0935858],[-85.7582821,35.093564],[-85.7583883,35.0935307],[-85.758468,35.0934801],[-85.7585225,35.0934238],[-85.7585653,35.0933715],[-85.7585936,35.0932991],[-85.7586042,35.0932122],[-85.7585967,35.0931868],[-85.7585918,35.0931702],[-85.7585511,35.0931485],[-85.7585087,35.0931456],[-85.7584768,35.0931152],[-85.758445,35.0930862],[-85.7584096,35.0930732],[-85.7583852,35.093047]]}},{"type":"Feature","properties":{"id":1215497675,"name":null,"description":null,"kind":"osm_track","source":"OpenStreetMap","confidence":"community","permission":"ODbL","status":"raw context","last_checked":null,"source_file":"osm_aop_9patch.geojson","highway":"track","osm_id":1215497675,"osm_type":"way"},"geometry":{"type":"LineString","coordinates":[[-85.7582166,35.0928017],[-85.758232,35.0929025],[-85.7582844,35.0929781],[-85.7583337,35.0930298],[-85.7583852,35.093047],[-85.7584169,35.0930576],[-85.7585432,35.0930336],[-85.7586757,35.0929882],[-85.7587604,35.0929769],[-85.758778,35.0929756],[-85.758879,35.0929681],[-85.7589379,35.092946],[-85.7590761,35.0928478],[-85.7591717,35.0928595],[-85.7593079,35.0928794],[-85.7593648,35.0928694],[-85.7594603,35.0927697],[-85.7594989,35.0926782],[-85.7594766,35.09258],[-85.759442,35.0924719],[-85.7594176,35.0924187],[-85.7593444,35.0923505],[-85.7592936,35.092299],[-85.7592814,35.0922557],[-85.7592916,35.0922125],[-85.7592997,35.0921742],[-85.7592855,35.0921227],[-85.7592489,35.0920328],[-85.7592509,35.0919846],[-85.7591961,35.0918998],[-85.7591513,35.0918665],[-85.7591371,35.0918382],[-85.75907,35.0918349],[-85.7589989,35.0917967],[-85.7588972,35.0918033],[-85.758818,35.0918482],[-85.7587712,35.0919181],[-85.7587509,35.0920229],[-85.7587468,35.0921143],[-85.7587367,35.0921559],[-85.7587529,35.0922042],[-85.7587143,35.0923489],[-85.7586797,35.0924736],[-85.75857,35.0926216],[-85.7585354,35.0926532],[-85.7585029,35.0926532],[-85.7584114,35.0926532],[-85.758324,35.09261],[-85.7582549,35.09259],[-85.7581817,35.0926017],[-85.7580964,35.0926466]]}},{"type":"Feature","properties":{"id":1215497676,"name":null,"description":null,"kind":"osm_track","source":"OpenStreetMap","confidence":"community","permission":"ODbL","status":"raw context","last_checked":null,"source_file":"osm_aop_9patch.geojson","highway":"track","osm_id":1215497676,"osm_type":"way"},"geometry":{"type":"LineString","coordinates":[[-85.7576312,35.0929958],[-85.7576312,35.092929],[-85.7576435,35.0928671],[-85.7576558,35.092842],[-85.7577098,35.092813],[-85.7578114,35.0927865],[-85.7579347,35.0927777],[-85.7580502,35.0927865],[-85.7582166,35.0928017],[-85.7582712,35.0928048],[-85.7583259,35.0928035],[-85.7583983,35.0927804],[-85.7584707,35.0927442],[-85.7584949,35.0927036],[-85.7585029,35.0926532],[-85.7585043,35.0926125],[-85.7584908,35.0925138],[-85.7584742,35.0924163],[-85.7584721,35.092404],[-85.758401,35.0922285],[-85.7583761,35.0921779],[-85.7583339,35.0920924],[-85.7582669,35.0920079],[-85.7581945,35.0919662],[-85.7580939,35.0919585],[-85.7580537,35.091963],[-85.7580241,35.091975],[-85.7579785,35.0920156],[-85.7579329,35.0920661],[-85.7579169,35.0921319],[-85.7579128,35.0922241],[-85.7579249,35.0923207],[-85.757945,35.0923623],[-85.7579868,35.0924153],[-85.7580013,35.0924337],[-85.7580572,35.0925186],[-85.7580671,35.0925335],[-85.7580858,35.0925741],[-85.7580964,35.0926466],[-85.7580964,35.0927164],[-85.7580794,35.0927631],[-85.7580502,35.0927865]]}},{"type":"Feature","properties":{"id":1215497677,"name":null,"description":null,"kind":"osm_track","source":"OpenStreetMap","confidence":"community","permission":"ODbL","status":"raw context","last_checked":null,"source_file":"osm_aop_9patch.geojson","highway":"track","osm_id":1215497677,"osm_type":"way"},"geometry":{"type":"LineString","coordinates":[[-85.7585967,35.0931868],[-85.7587212,35.0931846],[-85.7587482,35.0931795],[-85.7588013,35.0931291],[-85.758806,35.0930932],[-85.7588036,35.0930112],[-85.7587882,35.0930018],[-85.758778,35.0929756]]}},{"type":"Feature","properties":{"id":1215497678,"name":null,"description":null,"kind":"osm_track","source":"OpenStreetMap","confidence":"community","permission":"ODbL","status":"raw context","last_checked":null,"source_file":"osm_aop_9patch.geojson","highway":"track","osm_id":1215497678,"osm_type":"way"},"geometry":{"type":"LineString","coordinates":[[-85.7507049,35.0941012],[-85.7507005,35.0940539],[-85.7506659,35.0940123],[-85.7506232,35.0939408],[-85.7506009,35.0938693],[-85.7505521,35.0937279],[-85.7505196,35.0936597],[-85.7504525,35.0935373]]}},{"type":"Feature","properties":{"id":1215497679,"name":null,"description":null,"kind":"osm_track","source":"OpenStreetMap","confidence":"community","permission":"ODbL","status":"raw context","last_checked":null,"source_file":"osm_aop_9patch.geojson","highway":"track","osm_id":1215497679,"osm_type":"way"},"geometry":{"type":"LineString","coordinates":[[-85.7566019,35.0933648],[-85.7565815,35.0933897],[-85.7565409,35.0934213],[-85.7565073,35.0934296],[-85.7564779,35.093487],[-85.7564281,35.0935269],[-85.7563559,35.0935577],[-85.756235,35.09364],[-85.7562085,35.0936483],[-85.756175,35.0936683],[-85.7560866,35.0936874],[-85.755987,35.0936849],[-85.7559422,35.0936758],[-85.755862,35.0936092],[-85.7558254,35.0935643],[-85.7557953,35.0935415],[-85.7557429,35.0935136]]}},{"type":"Feature","properties":{"id":1215497680,"name":null,"description":null,"kind":"osm_track","source":"OpenStreetMap","confidence":"community","permission":"ODbL","status":"raw context","last_checked":null,"source_file":"osm_aop_9patch.geojson","highway":"track","osm_id":1215497680,"osm_type":"way"},"geometry":{"type":"LineString","coordinates":[[-85.7564501,35.0932159],[-85.756362,35.0931843],[-85.7563274,35.093161],[-85.7561943,35.0930645],[-85.7561028,35.0930238],[-85.75605,35.093018],[-85.7559951,35.0930288],[-85.7559494,35.0930612],[-85.7558731,35.0931161],[-85.7558193,35.0931377],[-85.7557603,35.0931701],[-85.7557217,35.0932009],[-85.7556998,35.0932263]]}},{"type":"Feature","properties":{"id":1215497681,"name":null,"description":null,"kind":"osm_track","source":"OpenStreetMap","confidence":"community","permission":"ODbL","status":"raw context","last_checked":null,"source_file":"osm_aop_9patch.geojson","highway":"track","osm_id":1215497681,"osm_type":"way"},"geometry":{"type":"LineString","coordinates":[[-85.758879,35.0929681],[-85.758899,35.093026],[-85.7590223,35.093258],[-85.7590392,35.0935428],[-85.7590361,35.0938252],[-85.75903,35.0939248],[-85.7589699,35.0940874],[-85.7589083,35.0942222],[-85.758879,35.0943609],[-85.7588359,35.0945273],[-85.7587512,35.0947352],[-85.7586757,35.0949294],[-85.7586495,35.0949947],[-85.7586464,35.0952457],[-85.758631,35.0952974],[-85.7586294,35.095426],[-85.7585894,35.0955558],[-85.7585863,35.0956201],[-85.7585755,35.0956932],[-85.7585463,35.0957386],[-85.7584569,35.095789],[-85.7584276,35.0958344],[-85.7583768,35.0958999],[-85.7583475,35.0959692],[-85.7583475,35.0960322],[-85.7583491,35.0960902],[-85.7582967,35.0961696],[-85.7582335,35.0961885],[-85.7581704,35.0961848],[-85.7581165,35.0962011],[-85.758041,35.0962692],[-85.7579701,35.0962894],[-85.7579316,35.0962743],[-85.7578931,35.0962667],[-85.7577606,35.096186],[-85.7576928,35.096118],[-85.7576235,35.0960688],[-85.7575557,35.0960512],[-85.7574895,35.0960675],[-85.7573385,35.0961759],[-85.7572765,35.0962186],[-85.757258,35.0962615],[-85.7572364,35.0963447],[-85.757201,35.0963548],[-85.7571748,35.0963598],[-85.7571501,35.0963951],[-85.7571516,35.0964045],[-85.7571594,35.0964556],[-85.757201,35.0964783],[-85.7572364,35.0965375],[-85.7572734,35.0965791],[-85.7572934,35.0966169],[-85.7574536,35.0966837],[-85.7575075,35.0966837],[-85.7575769,35.0967089],[-85.7576108,35.0967543],[-85.7576262,35.0967972],[-85.7576215,35.0968652],[-85.7576231,35.0969093],[-85.7576647,35.0969686],[-85.7577386,35.097014],[-85.757771,35.0970341],[-85.757811,35.0970921],[-85.7579189,35.0973076],[-85.7580267,35.0974501],[-85.7580544,35.097498],[-85.7580606,35.0975446],[-85.7580637,35.0976555],[-85.758056,35.0976959],[-85.7580302,35.0977349]]}},{"type":"Feature","properties":{"id":1215497682,"name":null,"description":null,"kind":"osm_track","source":"OpenStreetMap","confidence":"community","permission":"ODbL","status":"raw context","last_checked":null,"source_file":"osm_aop_9patch.geojson","highway":"track","osm_id":1215497682,"osm_type":"way"},"geometry":{"type":"LineString","coordinates":[[-85.7496189,35.0894727],[-85.7493582,35.0895076],[-85.7491326,35.0895342],[-85.7489618,35.0895741],[-85.7488622,35.089619],[-85.7488134,35.0896689],[-85.7487707,35.0897272],[-85.7486671,35.0898286],[-85.7485268,35.0898901],[-85.7483581,35.0899201],[-85.7481426,35.0899201],[-85.7480034,35.0898978],[-85.7475287,35.0898219],[-85.7459409,35.0896039]]}},{"type":"Feature","properties":{"id":1215497683,"name":null,"description":null,"kind":"osm_track","source":"OpenStreetMap","confidence":"community","permission":"ODbL","status":"raw context","last_checked":null,"source_file":"osm_aop_9patch.geojson","highway":"track","osm_id":1215497683,"osm_type":"way"},"geometry":{"type":"LineString","coordinates":[[-85.7480034,35.0898978],[-85.7479332,35.0903824],[-85.7478822,35.09076],[-85.7478374,35.0911577]]}},{"type":"Feature","properties":{"id":1215497687,"name":null,"description":null,"kind":"osm_track","source":"OpenStreetMap","confidence":"community","permission":"ODbL","status":"raw context","last_checked":null,"source_file":"osm_aop_9patch.geojson","highway":"track","osm_id":1215497687,"osm_type":"way"},"geometry":{"type":"LineString","coordinates":[[-85.7518661,35.0904046],[-85.7518628,35.0903475],[-85.7518367,35.0902983],[-85.7518213,35.0902529],[-85.751812,35.0901635],[-85.7518336,35.09005],[-85.7518274,35.0899479],[-85.7517951,35.0899101],[-85.7517119,35.0898836],[-85.7516643,35.0898848],[-85.7516148,35.0898861],[-85.751547,35.0899403],[-85.7515316,35.089987],[-85.7515393,35.0900462],[-85.7515501,35.0900689],[-85.7515393,35.0900929],[-85.7515316,35.0901219],[-85.7514808,35.0901471],[-85.751413,35.0901899],[-85.7513492,35.0902322],[-85.7513004,35.0902508],[-85.7512608,35.0902744],[-85.7512405,35.090234],[-85.7512235,35.0901647],[-85.7512004,35.0901181],[-85.7511958,35.0900777],[-85.7511311,35.0900298],[-85.7510186,35.0900034],[-85.7509,35.0899819],[-85.750823,35.089992],[-85.7507706,35.0900172],[-85.7506674,35.0900412],[-85.7506058,35.0900664],[-85.7505303,35.090079],[-85.7504933,35.0900903],[-85.7504491,35.0901179]]}},{"type":"Feature","properties":{"id":1215497688,"name":null,"description":null,"kind":"osm_track","source":"OpenStreetMap","confidence":"community","permission":"ODbL","status":"raw context","last_checked":null,"source_file":"osm_aop_9patch.geojson","highway":"track","osm_id":1215497688,"osm_type":"way"},"geometry":{"type":"LineString","coordinates":[[-85.7516643,35.0898848],[-85.7516626,35.0897651],[-85.7516441,35.089721],[-85.7516302,35.0896844],[-85.7516348,35.0895609],[-85.7516194,35.0895231],[-85.7515979,35.0895092],[-85.7515255,35.0895017],[-85.7514531,35.0895155],[-85.7514192,35.0895622],[-85.7513545,35.0895811],[-85.7513252,35.0896365],[-85.7512821,35.0897034],[-85.7512836,35.0897727],[-85.7512297,35.0898067],[-85.7511573,35.0897992],[-85.7511311,35.0897891],[-85.7510171,35.0897916],[-85.7509817,35.0898294],[-85.7509678,35.0898622],[-85.7509293,35.0898924],[-85.7509077,35.0899277],[-85.7508969,35.0899403],[-85.7509,35.0899819]]}},{"type":"Feature","properties":{"id":1215497689,"name":null,"description":null,"kind":"osm_track","source":"OpenStreetMap","confidence":"community","permission":"ODbL","status":"raw context","last_checked":null,"source_file":"osm_aop_9patch.geojson","highway":"track","osm_id":1215497689,"osm_type":"way"},"geometry":{"type":"LineString","coordinates":[[-85.7543441,35.0912071],[-85.7543216,35.0911541],[-85.7543049,35.0911149],[-85.7542325,35.0909422],[-85.7542048,35.0909019],[-85.7541878,35.0908615],[-85.7541561,35.0908137],[-85.7541016,35.0907317],[-85.7539968,35.0906182],[-85.7538828,35.0905174],[-85.7537811,35.090472],[-85.7536625,35.0904506],[-85.7535978,35.0904619],[-85.753567,35.0904859],[-85.7535278,35.0905439]]}},{"type":"Feature","properties":{"id":1215497690,"name":null,"description":null,"kind":"osm_track","source":"OpenStreetMap","confidence":"community","permission":"ODbL","status":"raw context","last_checked":null,"source_file":"osm_aop_9patch.geojson","highway":"track","osm_id":1215497690,"osm_type":"way"},"geometry":{"type":"LineString","coordinates":[[-85.7573279,35.0914183],[-85.7572878,35.0914473],[-85.7572247,35.0915122],[-85.7571699,35.0915272],[-85.7570784,35.0915438],[-85.7570357,35.0915837],[-85.7570052,35.0916536],[-85.7569808,35.0917634],[-85.7569605,35.0918116],[-85.7569076,35.0918565],[-85.7568263,35.0918665],[-85.7567328,35.0918598],[-85.7566739,35.0918665],[-85.7566088,35.0919097],[-85.7565052,35.0920361],[-85.7564543,35.0920927],[-85.7563873,35.0921176],[-85.7562877,35.0921226],[-85.7562046,35.0921158],[-85.7561613,35.0920871],[-85.7561438,35.0920413],[-85.7561006,35.0919887],[-85.7560994,35.0918951],[-85.7560702,35.091747],[-85.7560698,35.0916842],[-85.7560679,35.0914404],[-85.7560737,35.0913067],[-85.7560095,35.0911892],[-85.7559873,35.0911022],[-85.7559803,35.0910249],[-85.7559745,35.090893],[-85.755964,35.0907879],[-85.7559372,35.0907124],[-85.7559278,35.0906857],[-85.7559056,35.0905911],[-85.7558823,35.0905042],[-85.7558181,35.0904173],[-85.7557445,35.0903561],[-85.7556523,35.0902874],[-85.7555052,35.0902262],[-85.7553826,35.0902148],[-85.7552612,35.09023],[-85.7551654,35.0902816],[-85.7551164,35.09036],[-85.7551164,35.0904641],[-85.7551316,35.0905329],[-85.755143,35.0905535],[-85.7551923,35.0906427],[-85.7552974,35.0907192],[-85.7553826,35.0907679],[-85.7554666,35.0908405],[-85.7554912,35.090894],[-85.7555112,35.0909648],[-85.7555158,35.0910823],[-85.755529,35.0912025],[-85.7555322,35.0912314],[-85.7555509,35.0912858],[-85.7555987,35.0913183],[-85.7557388,35.0914071],[-85.7557902,35.0914109],[-85.7558871,35.0914148],[-85.7559315,35.0914281],[-85.7559968,35.0914845],[-85.7560319,35.0915562],[-85.7560698,35.0916842]]}},{"type":"Feature","properties":{"id":1215497691,"name":null,"description":null,"kind":"osm_track","source":"OpenStreetMap","confidence":"community","permission":"ODbL","status":"raw context","last_checked":null,"source_file":"osm_aop_9patch.geojson","highway":"track","osm_id":1215497691,"osm_type":"way"},"geometry":{"type":"LineString","coordinates":[[-85.755529,35.0912025],[-85.7554419,35.0912126],[-85.7553535,35.0912151],[-85.7553057,35.091235],[-85.7552406,35.0912458],[-85.7550811,35.0912375],[-85.7550414,35.0912217],[-85.7549083,35.0911851],[-85.7547873,35.091176],[-85.7547497,35.0911843],[-85.7547264,35.0911926],[-85.7546511,35.0912059],[-85.7545251,35.0911993],[-85.7544296,35.0911876],[-85.7543666,35.0911685],[-85.7543216,35.0911541]]}},{"type":"Feature","properties":{"id":1215497692,"name":null,"description":null,"kind":"osm_track","source":"OpenStreetMap","confidence":"community","permission":"ODbL","status":"raw context","last_checked":null,"source_file":"osm_aop_9patch.geojson","highway":"track","osm_id":1215497692,"osm_type":"way"},"geometry":{"type":"LineString","coordinates":[[-85.755143,35.0905535],[-85.7551068,35.0905714],[-85.7550787,35.0905956],[-85.7550452,35.0906307],[-85.7549271,35.090646],[-85.7547555,35.0906504],[-85.7546334,35.0906647],[-85.7545476,35.0906866],[-85.754502,35.0907086],[-85.7544336,35.0907591],[-85.7543438,35.0908139],[-85.7543022,35.0908249],[-85.7542318,35.0908226],[-85.7541561,35.0908137]]}},{"type":"Feature","properties":{"id":1215497693,"name":null,"description":null,"kind":"osm_track","source":"OpenStreetMap","confidence":"community","permission":"ODbL","status":"raw context","last_checked":null,"source_file":"osm_aop_9patch.geojson","highway":"track","osm_id":1215497693,"osm_type":"way"},"geometry":{"type":"LineString","coordinates":[[-85.7580537,35.091963],[-85.7580368,35.0919335],[-85.7580153,35.0918818],[-85.7579999,35.0917709],[-85.7579981,35.0917219],[-85.7579921,35.0915579],[-85.7579875,35.0914797],[-85.7579552,35.091365],[-85.757855,35.09107],[-85.7577349,35.0908091],[-85.7576301,35.0907133],[-85.7575223,35.0905974],[-85.757399,35.0905066],[-85.7572881,35.09046],[-85.7571818,35.0904184],[-85.757037,35.0903856],[-85.75694,35.0903761],[-85.7569939,35.0904032],[-85.757094,35.0904751],[-85.7571618,35.090528],[-85.7571957,35.0905948],[-85.7571988,35.0906919],[-85.7571834,35.0907927],[-85.7571849,35.0908532],[-85.7572065,35.0909137],[-85.7572465,35.0909944],[-85.757282,35.0911369],[-85.7573097,35.0911974],[-85.7573112,35.091239],[-85.7572958,35.0912932],[-85.7573097,35.0913701],[-85.7573279,35.0914183],[-85.7573682,35.0914797],[-85.7574175,35.0915465],[-85.757456,35.0915717],[-85.7575516,35.0915957],[-85.7575808,35.0916171],[-85.7576347,35.0916789],[-85.7576856,35.091718],[-85.757758,35.0917356],[-85.7578905,35.0917306],[-85.7579981,35.0917219]]}},{"type":"Feature","properties":{"id":1215497694,"name":null,"description":null,"kind":"osm_track","source":"OpenStreetMap","confidence":"community","permission":"ODbL","status":"raw context","last_checked":null,"source_file":"osm_aop_9patch.geojson","highway":"track","osm_id":1215497694,"osm_type":"way"},"geometry":{"type":"LineString","coordinates":[[-85.7568978,35.0904222],[-85.7568794,35.090375],[-85.7568459,35.0903026],[-85.7568097,35.090263],[-85.7567587,35.0902345],[-85.7566729,35.0902104],[-85.7565723,35.0901961],[-85.7564664,35.0901983],[-85.7564342,35.0901961],[-85.756394,35.0902148],[-85.7563752,35.0902554],[-85.7563618,35.0902872],[-85.7563283,35.0903201],[-85.756276,35.0903267],[-85.7562129,35.0903036],[-85.7561781,35.090296],[-85.7561499,35.0903113],[-85.7561311,35.090353],[-85.7561298,35.0904079],[-85.7561512,35.0904584],[-85.756162,35.0905012],[-85.7561499,35.0905549],[-85.7561003,35.0906186],[-85.7560627,35.0906285],[-85.7560158,35.0906197],[-85.755993,35.0906274],[-85.7559541,35.0906757],[-85.7559372,35.0907124]]}},{"type":"Feature","properties":{"id":1215497695,"name":null,"description":null,"kind":"osm_track","source":"OpenStreetMap","confidence":"community","permission":"ODbL","status":"raw context","last_checked":null,"source_file":"osm_aop_9patch.geojson","highway":"track","osm_id":1215497695,"osm_type":"way"},"geometry":{"type":"LineString","coordinates":[[-85.7584742,35.0924163],[-85.7584404,35.0924368],[-85.7583865,35.0924484],[-85.7582513,35.0924484],[-85.7581843,35.0924609],[-85.7581141,35.0924858],[-85.7580572,35.0925186]]}},{"type":"Feature","properties":{"id":1215497696,"name":null,"description":null,"kind":"osm_track","source":"OpenStreetMap","confidence":"community","permission":"ODbL","status":"raw context","last_checked":null,"source_file":"osm_aop_9patch.geojson","highway":"track","osm_id":1215497696,"osm_type":"way"},"geometry":{"type":"LineString","coordinates":[[-85.7583761,35.0921779],[-85.7583337,35.0921981],[-85.7582859,35.0922039],[-85.7582269,35.0922006],[-85.758166,35.0922139],[-85.7581151,35.0922472],[-85.7580694,35.092302],[-85.7580287,35.0923686],[-85.7579868,35.0924153]]}},{"type":"Feature","properties":{"id":1215497697,"name":null,"description":null,"kind":"osm_track","source":"OpenStreetMap","confidence":"community","permission":"ODbL","status":"raw context","last_checked":null,"source_file":"osm_aop_9patch.geojson","highway":"track","osm_id":1215497697,"osm_type":"way"},"geometry":{"type":"LineString","coordinates":[[-85.7484689,35.0942964],[-85.748389,35.0942305],[-85.7483706,35.0941813],[-85.7483952,35.0940767],[-85.7483598,35.0940011],[-85.7482381,35.0938952],[-85.7480193,35.0937818],[-85.7479458,35.0937406]]}},{"type":"Feature","properties":{"id":1215497698,"name":null,"description":null,"kind":"osm_track","source":"OpenStreetMap","confidence":"community","permission":"ODbL","status":"raw context","last_checked":null,"source_file":"osm_aop_9patch.geojson","highway":"track","osm_id":1215497698,"osm_type":"way"},"geometry":{"type":"LineString","coordinates":[[-85.7484707,35.0947675],[-85.7484624,35.0947731],[-85.7483428,35.0948544],[-85.7481102,35.0949477],[-85.7480486,35.094959],[-85.7480085,35.0949389],[-85.7479746,35.0948859],[-85.7478283,35.0947977],[-85.7477497,35.094717],[-85.7477482,35.0946414],[-85.7476265,35.0944196],[-85.747588,35.0942607],[-85.7475556,35.0941763],[-85.7475664,35.0939028],[-85.7475803,35.0938511],[-85.747645,35.0938145],[-85.7476696,35.0937554]]}},{"type":"Feature","properties":{"id":1215497699,"name":null,"description":null,"kind":"osm_track","source":"OpenStreetMap","confidence":"community","permission":"ODbL","status":"raw context","last_checked":null,"source_file":"osm_aop_9patch.geojson","highway":"track","osm_id":1215497699,"osm_type":"way"},"geometry":{"type":"LineString","coordinates":[[-85.7549856,35.0952105],[-85.7549315,35.0951632],[-85.7549145,35.0951229],[-85.7549161,35.0950321],[-85.7549546,35.0949742],[-85.7549992,35.0949162],[-85.7550008,35.094862],[-85.7549854,35.0948015],[-85.7549885,35.094712],[-85.7550193,35.0946515],[-85.7550069,35.094625],[-85.7549176,35.0945796],[-85.754839,35.0945822],[-85.7547189,35.0946187],[-85.7546449,35.0946301],[-85.754571,35.0946376],[-85.7544801,35.0946729],[-85.7543276,35.094741],[-85.7542906,35.0947359],[-85.7542182,35.0947107],[-85.754058,35.0947095],[-85.7539086,35.0947359],[-85.753753,35.0947851],[-85.7535096,35.0949313],[-85.7534063,35.0949452],[-85.7532862,35.0949969],[-85.7531673,35.0951109]]}},{"type":"Feature","properties":{"id":1215497700,"name":null,"description":null,"kind":"osm_track","source":"OpenStreetMap","confidence":"community","permission":"ODbL","status":"raw context","last_checked":null,"source_file":"osm_aop_9patch.geojson","highway":"track","osm_id":1215497700,"osm_type":"way"},"geometry":{"type":"LineString","coordinates":[[-85.7509158,35.0939573],[-85.7509477,35.0940024],[-85.7509769,35.0940641],[-85.751057,35.0942091],[-85.7511371,35.0942797],[-85.7512219,35.0943061],[-85.7515639,35.0942872],[-85.7517703,35.0942809],[-85.751969,35.0942229],[-85.752157,35.094228],[-85.7523634,35.0942809],[-85.7524944,35.0943969],[-85.7525775,35.0945343],[-85.7526037,35.0946603],[-85.7525945,35.0949061],[-85.7525837,35.0951002],[-85.7525498,35.095259],[-85.7524805,35.0954216],[-85.7524219,35.0955162],[-85.7524011,35.0956174],[-85.7524019,35.0956372],[-85.7524574,35.0956523],[-85.7525298,35.0956712],[-85.7525652,35.0957141],[-85.7526623,35.0957796],[-85.7527285,35.095796],[-85.7528579,35.0957897],[-85.7529627,35.0957531],[-85.7530459,35.095762],[-85.7532523,35.0958451],[-85.753317,35.0958489],[-85.7534433,35.0958313],[-85.7535065,35.0957582],[-85.7535311,35.0956183],[-85.7535496,35.0954884],[-85.7536251,35.0953586],[-85.7537299,35.0952502],[-85.7537884,35.0952149],[-85.7537928,35.0950662],[-85.7537653,35.0950069],[-85.753753,35.0947851]]}},{"type":"Feature","properties":{"id":1215497701,"name":null,"description":null,"kind":"osm_track","source":"OpenStreetMap","confidence":"community","permission":"ODbL","status":"raw context","last_checked":null,"source_file":"osm_aop_9patch.geojson","highway":"track","osm_id":1215497701,"osm_type":"way"},"geometry":{"type":"LineString","coordinates":[[-85.7542835,35.0965729],[-85.7542491,35.0966202],[-85.7541784,35.0966926],[-85.7540616,35.0967578],[-85.7539536,35.0967752],[-85.7538899,35.0967607],[-85.753851,35.0967332],[-85.7538315,35.0966477],[-85.753827,35.0965824],[-85.7538227,35.0965189],[-85.7538174,35.0964364],[-85.7538174,35.0963162],[-85.7537975,35.0962516]]}},{"type":"Feature","properties":{"id":1215497702,"name":null,"description":null,"kind":"osm_track","source":"OpenStreetMap","confidence":"community","permission":"ODbL","status":"raw context","last_checked":null,"source_file":"osm_aop_9patch.geojson","highway":"track","osm_id":1215497702,"osm_type":"way"},"geometry":{"type":"LineString","coordinates":[[-85.753827,35.0965824],[-85.7537395,35.0965898],[-85.7536953,35.0966101],[-85.7536015,35.0966217],[-85.7535087,35.0966459],[-85.7533516,35.0966446],[-85.7531791,35.0965728],[-85.7527816,35.0965589],[-85.7526229,35.0964934],[-85.7525089,35.0964278],[-85.7524982,35.0963749],[-85.752512,35.0963131],[-85.7525644,35.0962514],[-85.7525798,35.096211],[-85.7526784,35.096172],[-85.752777,35.0961619],[-85.7528879,35.0961631],[-85.7529428,35.0961094]]}},{"type":"Feature","properties":{"id":1215497703,"name":null,"description":null,"kind":"osm_track","source":"OpenStreetMap","confidence":"community","permission":"ODbL","status":"raw context","last_checked":null,"source_file":"osm_aop_9patch.geojson","highway":"track","osm_id":1215497703,"osm_type":"way"},"geometry":{"type":"LineString","coordinates":[[-85.7544194,35.0968539],[-85.7544622,35.0968302],[-85.7545507,35.0967347],[-85.754599,35.0966744],[-85.7545869,35.0966458],[-85.7545869,35.0965591],[-85.7545976,35.0965163],[-85.7546352,35.0964834],[-85.7546446,35.0964461],[-85.7546446,35.0963737],[-85.7546057,35.0963199],[-85.7545507,35.0962234],[-85.7545342,35.0961919],[-85.7545043,35.0961604]]}},{"type":"Feature","properties":{"id":1215497704,"name":null,"description":null,"kind":"osm_track","source":"OpenStreetMap","confidence":"community","permission":"ODbL","status":"raw context","last_checked":null,"source_file":"osm_aop_9patch.geojson","highway":"track","osm_id":1215497704,"osm_type":"way"},"geometry":{"type":"LineString","coordinates":[[-85.7560654,35.0956915],[-85.7559602,35.0956791],[-85.7557899,35.0956605],[-85.7554532,35.0956451],[-85.755275,35.0956414],[-85.755244,35.0956407],[-85.7551716,35.0956572],[-85.7550764,35.0957175],[-85.7549986,35.0958284],[-85.7549865,35.0959063],[-85.7549931,35.0959241],[-85.7550375,35.0960445],[-85.7550737,35.096106],[-85.7551121,35.0961516],[-85.7551271,35.0961721],[-85.7551622,35.0962201],[-85.7551957,35.0963441],[-85.7551957,35.0963605],[-85.7551957,35.0964703],[-85.7551924,35.0964922],[-85.7551716,35.0966294],[-85.7551381,35.0967095],[-85.7550431,35.0968393],[-85.755008,35.0968872],[-85.7548766,35.0970573],[-85.7548551,35.097077],[-85.7547755,35.0971084]]}},{"type":"Feature","properties":{"id":1215497705,"name":null,"description":null,"kind":"osm_track","source":"OpenStreetMap","confidence":"community","permission":"ODbL","status":"raw context","last_checked":null,"source_file":"osm_aop_9patch.geojson","highway":"track","osm_id":1215497705,"osm_type":"way"},"geometry":{"type":"LineString","coordinates":[[-85.7550431,35.0968393],[-85.7550147,35.0967753],[-85.7550174,35.096738],[-85.7550442,35.0966754],[-85.7550657,35.0966327],[-85.755067,35.0965405],[-85.755077,35.0965181],[-85.7551019,35.0964626],[-85.7551408,35.0964077],[-85.7551957,35.0963605]]}},{"type":"Feature","properties":{"id":1215497706,"name":null,"description":null,"kind":"osm_track","source":"OpenStreetMap","confidence":"community","permission":"ODbL","status":"raw context","last_checked":null,"source_file":"osm_aop_9patch.geojson","highway":"track","osm_id":1215497706,"osm_type":"way"},"geometry":{"type":"LineString","coordinates":[[-85.7551271,35.0961721],[-85.7550697,35.0962409],[-85.7550187,35.0963166],[-85.7550013,35.0963847],[-85.7549078,35.0965108],[-85.754902,35.0965185],[-85.7548216,35.0966469],[-85.75478,35.0967029],[-85.754725,35.0967182],[-85.7546459,35.0966996],[-85.754599,35.0966744]]}},{"type":"Feature","properties":{"id":1215497707,"name":null,"description":null,"kind":"osm_track","source":"OpenStreetMap","confidence":"community","permission":"ODbL","status":"raw context","last_checked":null,"source_file":"osm_aop_9patch.geojson","highway":"track","osm_id":1215497707,"osm_type":"way"},"geometry":{"type":"LineString","coordinates":[[-85.7547852,35.0961877],[-85.7548162,35.0961608],[-85.7548564,35.0960895],[-85.7548792,35.0960303],[-85.7549114,35.0959853],[-85.7549557,35.0959491],[-85.7549931,35.0959241]]}},{"type":"Feature","properties":{"id":1215497708,"name":null,"description":null,"kind":"osm_track","source":"OpenStreetMap","confidence":"community","permission":"ODbL","status":"raw context","last_checked":null,"source_file":"osm_aop_9patch.geojson","highway":"track","osm_id":1215497708,"osm_type":"way"},"geometry":{"type":"LineString","coordinates":[[-85.755275,35.0956414],[-85.7552708,35.0956001],[-85.7552585,35.0955522],[-85.75515,35.095221]]}},{"type":"Feature","properties":{"id":1215497709,"name":null,"description":null,"kind":"osm_track","source":"OpenStreetMap","confidence":"community","permission":"ODbL","status":"raw context","last_checked":null,"source_file":"osm_aop_9patch.geojson","highway":"track","osm_id":1215497709,"osm_type":"way"},"geometry":{"type":"LineString","coordinates":[[-85.755077,35.0965181],[-85.7549078,35.0965108]]}},{"type":"Feature","properties":{"id":1215497710,"name":null,"description":null,"kind":"osm_track","source":"OpenStreetMap","confidence":"community","permission":"ODbL","status":"raw context","last_checked":null,"source_file":"osm_aop_9patch.geojson","highway":"track","osm_id":1215497710,"osm_type":"way"},"geometry":{"type":"LineString","coordinates":[[-85.7571516,35.0964045],[-85.757094,35.0963995],[-85.7570462,35.0963729],[-85.7570167,35.0963571],[-85.7569324,35.0963587],[-85.7568978,35.0963795],[-85.7568348,35.096397],[-85.7567698,35.0964153],[-85.7566204,35.0964111],[-85.7565797,35.0963928],[-85.7565014,35.0963729],[-85.7564415,35.0963413],[-85.7561803,35.0963329],[-85.7561366,35.0963953],[-85.756101,35.0964178],[-85.7560481,35.0964336],[-85.755976,35.0965408],[-85.7559668,35.096624],[-85.7559424,35.0966564],[-85.7558591,35.0966706],[-85.7558032,35.0966769],[-85.7557412,35.0966839],[-85.7557229,35.096703],[-85.7557016,35.0967288],[-85.7556589,35.0967121],[-85.7556274,35.0966797],[-85.7556243,35.096644],[-85.7556385,35.0965134],[-85.7556345,35.0964918],[-85.7555908,35.0964793],[-85.7555643,35.0964519],[-85.7555461,35.0964203],[-85.7555206,35.0964236],[-85.7554495,35.0964643],[-85.7554129,35.0964743],[-85.7553601,35.0964602],[-85.7553113,35.0964618],[-85.7551924,35.0964922]]}},{"type":"Feature","properties":{"id":1215497711,"name":null,"description":null,"kind":"osm_track","source":"OpenStreetMap","confidence":"community","permission":"ODbL","status":"raw context","last_checked":null,"source_file":"osm_aop_9patch.geojson","highway":"track","osm_id":1215497711,"osm_type":"way"},"geometry":{"type":"LineString","coordinates":[[-85.7561051,35.0970066],[-85.7560827,35.0969757],[-85.7560774,35.0969518],[-85.7560818,35.0968685],[-85.7560827,35.0967947],[-85.7560712,35.0967578],[-85.7560349,35.0967375],[-85.7559429,35.0967295],[-85.7558801,35.0967266],[-85.7558535,35.096702],[-85.7558332,35.0966883],[-85.7558032,35.0966769]]}},{"type":"Feature","properties":{"id":1215497712,"name":"Adventure Off Road Park","description":null,"kind":"osm_park","source":"OpenStreetMap","confidence":"community","permission":"ODbL","status":"raw context","last_checked":null,"source_file":"osm_aop_9patch.geojson","leisure":"park","osm_id":1215497712,"osm_type":"way"},"geometry":{"type":"Polygon","coordinates":[[[-85.7601056,35.0995096],[-85.7454715,35.0989829],[-85.745686,35.0835148],[-85.7599768,35.0834094],[-85.7601056,35.0995096]]]}},{"type":"Feature","properties":{"id":1292999569,"name":null,"description":null,"kind":"osm_service","source":"OpenStreetMap","confidence":"community","permission":"ODbL","status":"raw context","last_checked":null,"source_file":"osm_aop_9patch.geojson","highway":"service","service":"driveway","osm_id":1292999569,"osm_type":"way"},"geometry":{"type":"LineString","coordinates":[[-85.7717123,35.0684619],[-85.7717385,35.0685054],[-85.771745,35.0685222],[-85.7717669,35.0685794],[-85.771779,35.0686512],[-85.7717738,35.0687075],[-85.7717325,35.0688153],[-85.7717213,35.0688731],[-85.7717325,35.0689344],[-85.7717661,35.0689618]]}},{"type":"Feature","properties":{"id":1292999570,"name":null,"description":null,"kind":"osm_service","source":"OpenStreetMap","confidence":"community","permission":"ODbL","status":"raw context","last_checked":null,"source_file":"osm_aop_9patch.geojson","highway":"service","service":"driveway","osm_id":1292999570,"osm_type":"way"},"geometry":{"type":"LineString","coordinates":[[-85.771745,35.0685222],[-85.7716834,35.0686223],[-85.7715367,35.0687805],[-85.7714815,35.0688452],[-85.7714399,35.0689002],[-85.7712887,35.0691273],[-85.7712431,35.0692086],[-85.7712175,35.0692917],[-85.771207,35.0693739],[-85.7712572,35.0694924],[-85.7713085,35.069564],[-85.7714019,35.0696414],[-85.7715689,35.0697513],[-85.7717638,35.0698536]]}},{"type":"Feature","properties":{"id":1292999571,"name":null,"description":null,"kind":"osm_service","source":"OpenStreetMap","confidence":"community","permission":"ODbL","status":"raw context","last_checked":null,"source_file":"osm_aop_9patch.geojson","highway":"service","service":"driveway","osm_id":1292999571,"osm_type":"way"},"geometry":{"type":"LineString","coordinates":[[-85.7700321,35.0678],[-85.770014,35.0678804],[-85.7699736,35.0679748],[-85.7699698,35.0680677],[-85.7700083,35.0681684],[-85.7701717,35.0682959]]}},{"type":"Feature","properties":{"id":1292999572,"name":null,"description":null,"kind":"osm_service","source":"OpenStreetMap","confidence":"community","permission":"ODbL","status":"raw context","last_checked":null,"source_file":"osm_aop_9patch.geojson","highway":"service","service":"driveway","osm_id":1292999572,"osm_type":"way"},"geometry":{"type":"LineString","coordinates":[[-85.7685552,35.0675039],[-85.7685456,35.0675469],[-85.7685553,35.0676033],[-85.7686021,35.067706],[-85.7686559,35.0678008],[-85.7687814,35.0679125],[-85.7688848,35.0679972],[-85.7689485,35.0680807],[-85.7689948,35.0681627]]}},{"type":"Feature","properties":{"id":1292999573,"name":null,"description":null,"kind":"osm_service","source":"OpenStreetMap","confidence":"community","permission":"ODbL","status":"raw context","last_checked":null,"source_file":"osm_aop_9patch.geojson","highway":"service","service":"driveway","osm_id":1292999573,"osm_type":"way"},"geometry":{"type":"LineString","coordinates":[[-85.7685553,35.0676033],[-85.7684745,35.0676547],[-85.7684463,35.0676726],[-85.7683435,35.0677653],[-85.7683255,35.0678319],[-85.7683155,35.0679277],[-85.7682887,35.0679946],[-85.7682174,35.0680309],[-85.768117,35.0680252],[-85.7680225,35.0679851],[-85.7679956,35.0679268],[-85.7680061,35.0678656],[-85.7680341,35.0678217],[-85.7680855,35.0678073],[-85.7681742,35.0678121],[-85.7683255,35.0678319]]}},{"type":"Feature","properties":{"id":1292999574,"name":null,"description":null,"kind":"osm_service","source":"OpenStreetMap","confidence":"community","permission":"ODbL","status":"raw context","last_checked":null,"source_file":"osm_aop_9patch.geojson","highway":"service","service":"driveway","osm_id":1292999574,"osm_type":"way"},"geometry":{"type":"LineString","coordinates":[[-85.7684745,35.0676547],[-85.7685268,35.0677596],[-85.768584,35.067835],[-85.7687008,35.0679717],[-85.7688094,35.0680692],[-85.7689948,35.0681627],[-85.7690525,35.0681915]]}},{"type":"Feature","properties":{"id":1292999575,"name":null,"description":null,"kind":"osm_service","source":"OpenStreetMap","confidence":"community","permission":"ODbL","status":"raw context","last_checked":null,"source_file":"osm_aop_9patch.geojson","highway":"service","service":"driveway","surface":"unpaved","osm_id":1292999575,"osm_type":"way"},"geometry":{"type":"LineString","coordinates":[[-85.7736998,35.0684872],[-85.7737072,35.0687855],[-85.773408,35.0709318],[-85.7733982,35.0711306],[-85.7734129,35.0712425],[-85.7736262,35.0718142]]}},{"type":"Feature","properties":{"id":1292999576,"name":null,"description":null,"kind":"osm_service","source":"OpenStreetMap","confidence":"community","permission":"ODbL","status":"raw context","last_checked":null,"source_file":"osm_aop_9patch.geojson","highway":"service","service":"driveway","surface":"unpaved","osm_id":1292999576,"osm_type":"way"},"geometry":{"type":"LineString","coordinates":[[-85.773408,35.0709318],[-85.7734552,35.0710386],[-85.7735187,35.0711026],[-85.7737239,35.0712052],[-85.7740023,35.0713171],[-85.7741065,35.0713718],[-85.7741717,35.0714424],[-85.7742319,35.071549],[-85.7744208,35.0719635],[-85.7745136,35.0724926]]}},{"type":"Feature","properties":{"id":1337558921,"name":null,"description":null,"kind":"osm_service","source":"OpenStreetMap","confidence":"community","permission":"ODbL","status":"raw context","last_checked":null,"source_file":"osm_aop_9patch.geojson","access":"private","highway":"service","tiger:cfcc":"A74","tiger:county":"Marion, TN","tiger:reviewed":"no","osm_id":1337558921,"osm_type":"way"},"geometry":{"type":"LineString","coordinates":[[-85.7367804,35.1035592],[-85.7364251,35.10364]]}}],"_meta":{"maturity":"reference","group":"OSM cluster","locked":false,"maturity_note":"reference — external raw context"}}