{"type":"FeatureCollection","name":"sfwda_numbered_trails","_meta":{"about":"Contiguous numbered trails stitched from the SFWDA raster trace + hand-read markers. One feature per trail number. Numbers/positions provisional (2015 vintage). Built by build_numbered_trails.py.","trails":67,"maturity":"reference","group":"SFWDA numbered trails (extract)","locked":false,"maturity_note":"reference — external raw context"},"features":[{"type":"Feature","geometry":{"type":"MultiLineString","coordinates":[[[-85.7574197,35.0894328],[-85.7572475,35.0898029],[-85.7571848,35.0898778]],[[-85.7572905,35.0871033],[-85.7571538,35.0870168],[-85.7570687,35.0869939]],[[-85.7568927,35.0903624],[-85.7568935,35.0904612],[-85.7567191,35.090769],[-85.7566635,35.0909151]],[[-85.7560095,35.0857794],[-85.7560046,35.0854725],[-85.7560507,35.085337]],[[-85.7549731,35.0845789],[-85.7549147,35.0845359],[-85.7547105,35.0845206]],[[-85.7545286,35.0912448],[-85.7545772,35.0913292],[-85.7547468,35.0914461]],[[-85.7539261,35.0846798],[-85.7538051,35.0847056],[-85.7534077,35.0848814]],[[-85.7515805,35.0900951],[-85.7515072,35.0901723],[-85.7514362,35.0901969],[-85.7512195,35.0902117],[-85.7509283,35.090186],[-85.750919,35.0901793],[-85.750897,35.0900752],[-85.7508877,35.0900685],[-85.7505634,35.0900942],[-85.750474,35.0901376],[-85.7500039,35.0902629],[-85.7499038,35.0902929],[-85.749749,35.0902895],[-85.7495117,35.0903227]],[[-85.7495117,35.0903227],[-85.7495209,35.0903165],[-85.7495399,35.0902334],[-85.7496593,35.0900369],[-85.7497497,35.0899744],[-85.7497679,35.0898719],[-85.749768,35.0898655],[-85.7497769,35.0898656],[-85.7498576,35.0898157],[-85.7499016,35.0895398],[-85.7498836,35.0894301],[-85.7498041,35.0893516]],[[-85.7495117,35.0903227],[-85.7494381,35.0903724],[-85.7492506,35.0906051],[-85.7492505,35.0906115],[-85.7492538,35.0909192]]]},"properties":{"id":"sfwda_numbered_trails-0","name":"Trail 1","description":null,"kind":"trail","source":"SFWDA AOP trail map 2015-03-11","confidence":"low","permission":"SFWDA paper map — permission TBD","status":"raster trace (2015 vintage); contiguous trail under hand-read markers; needs review before core/publish","last_checked":null,"trail_number":1,"difficulty":"easy","edge_count":30,"parts":10,"stitched_gaps":0,"unjoined_gaps":7,"number_confidence":"low","source_name":"SFWDA AOP trail map 2015-03-11","source_type":"community_raster","review_status":"raster trace (2015 vintage); contiguous trail under hand-read markers; needs review before core/publish"}},{"type":"Feature","geometry":{"type":"MultiLineString","coordinates":[[[-85.7557744,35.0958652],[-85.7558907,35.0958082],[-85.7559528,35.0957567],[-85.7559762,35.0957045],[-85.7561004,35.0956739],[-85.7563102,35.0955658],[-85.7564192,35.0954755],[-85.7565415,35.0954045],[-85.7565916,35.095339],[-85.7565916,35.0953324],[-85.7565988,35.0953324],[-85.7566985,35.0953336],[-85.7568489,35.0951167],[-85.7569066,35.094925],[-85.7569155,35.0944014],[-85.756966,35.0942026],[-85.7569946,35.0941761]],[[-85.7556908,35.092041],[-85.7557303,35.092198],[-85.7559095,35.0924604],[-85.756042,35.0926051]]]},"properties":{"id":"sfwda_numbered_trails-1","name":"Trail 2","description":null,"kind":"trail","source":"SFWDA AOP trail map 2015-03-11","confidence":"low","permission":"SFWDA paper map — permission TBD","status":"raster trace (2015 vintage); contiguous trail under hand-read markers; needs review before core/publish","last_checked":null,"trail_number":2,"difficulty":"easy","edge_count":7,"parts":2,"stitched_gaps":0,"unjoined_gaps":1,"number_confidence":"low","source_name":"SFWDA AOP trail map 2015-03-11","source_type":"community_raster","review_status":"raster trace (2015 vintage); contiguous trail under hand-read markers; needs review before core/publish"}},{"type":"Feature","geometry":{"type":"MultiLineString","coordinates":[[[-85.7592294,35.0951482],[-85.7591297,35.0951302],[-85.7588942,35.0951546]],[[-85.7561383,35.0969969],[-85.7563091,35.0970486],[-85.7564623,35.0971335],[-85.7566355,35.0972914],[-85.7566937,35.0973729],[-85.7568015,35.0974544],[-85.7568939,35.0974485],[-85.7570201,35.097323],[-85.7571259,35.0972645],[-85.7572681,35.0972599],[-85.7575326,35.0973619],[-85.7576187,35.0974348],[-85.7576766,35.0975202]],[[-85.7562377,35.0921609],[-85.7562772,35.0922528],[-85.7563549,35.0923056],[-85.7568456,35.0925366]],[[-85.7557207,35.0970068],[-85.7556124,35.0970175],[-85.755504,35.0970685]],[[-85.7538881,35.0951455],[-85.7539382,35.095199],[-85.7539387,35.0952711],[-85.7538316,35.0954716]]]},"properties":{"id":"sfwda_numbered_trails-2","name":"Trail 3","description":null,"kind":"trail","source":"SFWDA AOP trail map 2015-03-11","confidence":"low","permission":"SFWDA paper map — permission TBD","status":"raster trace (2015 vintage); contiguous trail under hand-read markers; needs review before core/publish","last_checked":null,"trail_number":3,"difficulty":"easy","edge_count":5,"parts":5,"stitched_gaps":0,"unjoined_gaps":4,"number_confidence":"low","source_name":"SFWDA AOP trail map 2015-03-11","source_type":"community_raster","review_status":"raster trace (2015 vintage); contiguous trail under hand-read markers; needs review before core/publish"}},{"type":"Feature","geometry":{"type":"LineString","coordinates":[[-85.7581707,35.0962021],[-85.7581065,35.0962075],[-85.7579994,35.0962858],[-85.7579352,35.0962845],[-85.7577716,35.0962011],[-85.7576508,35.0960854],[-85.7575797,35.0960507],[-85.7575298,35.0960498],[-85.7573799,35.0961403],[-85.7573085,35.096159]]},"properties":{"id":"sfwda_numbered_trails-3","name":"Trail 4","description":null,"kind":"trail","source":"SFWDA AOP trail map 2015-03-11","confidence":"low","permission":"SFWDA paper map — permission TBD","status":"raster trace (2015 vintage); contiguous trail under hand-read markers; needs review before core/publish","last_checked":null,"trail_number":4,"difficulty":"easy","edge_count":1,"parts":1,"stitched_gaps":0,"unjoined_gaps":0,"number_confidence":"low","source_name":"SFWDA AOP trail map 2015-03-11","source_type":"community_raster","review_status":"raster trace (2015 vintage); contiguous trail under hand-read markers; needs review before core/publish"}},{"type":"Feature","geometry":{"type":"LineString","coordinates":[[-85.7559287,35.0966855],[-85.7559828,35.0966142],[-85.7559906,35.0965287],[-85.7560371,35.096444],[-85.7561222,35.0964063],[-85.7562152,35.0963226],[-85.7564741,35.0963347],[-85.7566449,35.0964044],[-85.7567874,35.0964074],[-85.7569658,35.0963515],[-85.7571509,35.0963952]]},"properties":{"id":"sfwda_numbered_trails-4","name":"Trail 5","description":null,"kind":"trail","source":"SFWDA AOP trail map 2015-03-11","confidence":"low","permission":"SFWDA paper map — permission TBD","status":"raster trace (2015 vintage); contiguous trail under hand-read markers; needs review before core/publish","last_checked":null,"trail_number":5,"difficulty":"easy","edge_count":1,"parts":1,"stitched_gaps":0,"unjoined_gaps":0,"number_confidence":"low","source_name":"SFWDA AOP trail map 2015-03-11","source_type":"community_raster","review_status":"raster trace (2015 vintage); contiguous trail under hand-read markers; needs review before core/publish"}},{"type":"Feature","geometry":{"type":"LineString","coordinates":[[-85.7567728,35.0918729],[-85.7567159,35.0918674],[-85.7566594,35.0918947],[-85.7564703,35.0921016],[-85.7562376,35.0921478]]},"properties":{"id":"sfwda_numbered_trails-5","name":"Trail 7","description":null,"kind":"trail","source":"SFWDA AOP trail map 2015-03-11","confidence":"low","permission":"SFWDA paper map — permission TBD","status":"raster trace (2015 vintage); contiguous trail under hand-read markers; needs review before core/publish","last_checked":null,"trail_number":7,"difficulty":"easy","edge_count":1,"parts":1,"stitched_gaps":0,"unjoined_gaps":0,"number_confidence":"low","source_name":"SFWDA AOP trail map 2015-03-11","source_type":"community_raster","review_status":"raster trace (2015 vintage); contiguous trail under hand-read markers; needs review before core/publish"}},{"type":"Feature","geometry":{"type":"LineString","coordinates":[[-85.7573209,35.0914465],[-85.7573038,35.0911957]]},"properties":{"id":"sfwda_numbered_trails-6","name":"Trail 8","description":null,"kind":"trail","source":"SFWDA AOP trail map 2015-03-11","confidence":"low","permission":"SFWDA paper map — permission TBD","status":"raster trace (2015 vintage); contiguous trail under hand-read markers; needs review before core/publish","last_checked":null,"trail_number":8,"difficulty":"easy","edge_count":1,"parts":1,"stitched_gaps":0,"unjoined_gaps":0,"number_confidence":"low","source_name":"SFWDA AOP trail map 2015-03-11","source_type":"community_raster","review_status":"raster trace (2015 vintage); contiguous trail under hand-read markers; needs review before core/publish"}},{"type":"Feature","geometry":{"type":"LineString","coordinates":[[-85.7559953,35.0909951],[-85.755978,35.090825],[-85.7559462,35.0907465],[-85.7559528,35.0906549],[-85.7558106,35.0904201],[-85.7556227,35.0902904],[-85.755482,35.0902324],[-85.7552259,35.090234],[-85.7552183,35.0902405],[-85.7551127,35.0903714],[-85.7551257,35.0905929],[-85.7551258,35.0905994],[-85.7552516,35.0907032],[-85.7552522,35.0907293]]},"properties":{"id":"sfwda_numbered_trails-7","name":"Trail 9","description":null,"kind":"trail","source":"SFWDA AOP trail map 2015-03-11","confidence":"low","permission":"SFWDA paper map — permission TBD","status":"raster trace (2015 vintage); contiguous trail under hand-read markers; needs review before core/publish","last_checked":null,"trail_number":9,"difficulty":"easy","edge_count":6,"parts":1,"stitched_gaps":0,"unjoined_gaps":0,"number_confidence":"low","source_name":"SFWDA AOP trail map 2015-03-11","source_type":"community_raster","review_status":"raster trace (2015 vintage); contiguous trail under hand-read markers; needs review before core/publish"}},{"type":"Feature","geometry":{"type":"LineString","coordinates":[[-85.756053,35.0906415],[-85.7559528,35.0906549]]},"properties":{"id":"sfwda_numbered_trails-8","name":"Trail 10","description":null,"kind":"trail","source":"SFWDA AOP trail map 2015-03-11","confidence":"high","permission":"SFWDA paper map — permission TBD","status":"raster trace (2015 vintage); contiguous trail under hand-read markers; needs review before core/publish","last_checked":null,"trail_number":10,"difficulty":"easy","edge_count":1,"parts":1,"stitched_gaps":0,"unjoined_gaps":0,"number_confidence":"high","source_name":"SFWDA AOP trail map 2015-03-11","source_type":"community_raster","review_status":"raster trace (2015 vintage); contiguous trail under hand-read markers; needs review before core/publish"}},{"type":"Feature","geometry":{"type":"LineString","coordinates":[[-85.7532333,35.0950713],[-85.7533991,35.0950163],[-85.7534074,35.0950165],[-85.7534736,35.0950573],[-85.7537055,35.0950495],[-85.7538049,35.095078],[-85.7538798,35.0951322],[-85.7538881,35.0951324],[-85.7540285,35.0950701],[-85.7542415,35.0950872],[-85.754413,35.0951362],[-85.7549188,35.0951714],[-85.7549889,35.095199],[-85.7551523,35.0952151],[-85.7551679,35.0952153],[-85.7557979,35.0951937]]},"properties":{"id":"sfwda_numbered_trails-9","name":"Trail 11","description":null,"kind":"trail","source":"SFWDA AOP trail map 2015-03-11","confidence":"high","permission":"SFWDA paper map — permission TBD","status":"raster trace (2015 vintage); contiguous trail under hand-read markers; needs review before core/publish","last_checked":null,"trail_number":11,"difficulty":"easy","edge_count":9,"parts":1,"stitched_gaps":0,"unjoined_gaps":0,"number_confidence":"high","source_name":"SFWDA AOP trail map 2015-03-11","source_type":"community_raster","review_status":"raster trace (2015 vintage); contiguous trail under hand-read markers; needs review before core/publish"}},{"type":"Feature","geometry":{"type":"MultiLineString","coordinates":[[[-85.7561514,35.0904315],[-85.7561815,35.0903331],[-85.7563598,35.0903387],[-85.7564327,35.0902389],[-85.7565385,35.0902158],[-85.7567575,35.0902416],[-85.7568142,35.0902661],[-85.7568927,35.0903624]],[[-85.7565673,35.0892623],[-85.7568323,35.0890013]]]},"properties":{"id":"sfwda_numbered_trails-10","name":"Trail 12","description":null,"kind":"trail","source":"SFWDA AOP trail map 2015-03-11","confidence":"high","permission":"SFWDA paper map — permission TBD","status":"raster trace (2015 vintage); contiguous trail under hand-read markers; needs review before core/publish","last_checked":null,"trail_number":12,"difficulty":"easy","edge_count":2,"parts":2,"stitched_gaps":0,"unjoined_gaps":1,"number_confidence":"high","source_name":"SFWDA AOP trail map 2015-03-11","source_type":"community_raster","review_status":"raster trace (2015 vintage); contiguous trail under hand-read markers; needs review before core/publish"}},{"type":"Feature","geometry":{"type":"LineString","coordinates":[[-85.7578702,35.0911092],[-85.7579885,35.0914653],[-85.7579853,35.0917247],[-85.7579783,35.0917315],[-85.7579855,35.091738],[-85.7580385,35.0919564],[-85.7580457,35.091963],[-85.7581593,35.091961],[-85.7582737,35.0920057],[-85.7583534,35.092111],[-85.7583617,35.0921842],[-85.7583689,35.0921908],[-85.7584413,35.0922764],[-85.7584721,35.0924295],[-85.7584651,35.0924363],[-85.7582735,35.0924588],[-85.7582035,35.0925329],[-85.7582036,35.0925396],[-85.758383,35.0926441],[-85.7584969,35.0926561]]},"properties":{"id":"sfwda_numbered_trails-11","name":"Trail 14","description":null,"kind":"trail","source":"SFWDA AOP trail map 2015-03-11","confidence":"high","permission":"SFWDA paper map — permission TBD","status":"raster trace (2015 vintage); contiguous trail under hand-read markers; needs review before core/publish","last_checked":null,"trail_number":14,"difficulty":"easy","edge_count":12,"parts":1,"stitched_gaps":0,"unjoined_gaps":0,"number_confidence":"high","source_name":"SFWDA AOP trail map 2015-03-11","source_type":"community_raster","review_status":"raster trace (2015 vintage); contiguous trail under hand-read markers; needs review before core/publish"}},{"type":"Feature","geometry":{"type":"LineString","coordinates":[[-85.757008,35.0898115],[-85.7571707,35.0898783]]},"properties":{"id":"sfwda_numbered_trails-12","name":"Trail 15","description":null,"kind":"trail","source":"SFWDA AOP trail map 2015-03-11","confidence":"high","permission":"SFWDA paper map — permission TBD","status":"raster trace (2015 vintage); contiguous trail under hand-read markers; needs review before core/publish","last_checked":null,"trail_number":15,"difficulty":"easy","edge_count":1,"parts":1,"stitched_gaps":0,"unjoined_gaps":0,"number_confidence":"high","source_name":"SFWDA AOP trail map 2015-03-11","source_type":"community_raster","review_status":"raster trace (2015 vintage); contiguous trail under hand-read markers; needs review before core/publish"}},{"type":"Feature","geometry":{"type":"LineString","coordinates":[[-85.7544699,35.0850767],[-85.7542749,35.0850597]]},"properties":{"id":"sfwda_numbered_trails-13","name":"Trail 16","description":null,"kind":"trail","source":"SFWDA AOP trail map 2015-03-11","confidence":"high","permission":"SFWDA paper map — permission TBD","status":"raster trace (2015 vintage); contiguous trail under hand-read markers; needs review before core/publish","last_checked":null,"trail_number":16,"difficulty":"easy","edge_count":1,"parts":1,"stitched_gaps":0,"unjoined_gaps":0,"number_confidence":"high","source_name":"SFWDA AOP trail map 2015-03-11","source_type":"community_raster","review_status":"raster trace (2015 vintage); contiguous trail under hand-read markers; needs review before core/publish"}},{"type":"Feature","geometry":{"type":"LineString","coordinates":[[-85.7580691,35.0976904],[-85.75806,35.0974839],[-85.7579518,35.0973342]]},"properties":{"id":"sfwda_numbered_trails-14","name":"Trail 17","description":null,"kind":"trail","source":"SFWDA AOP trail map 2015-03-11","confidence":"high","permission":"SFWDA paper map — permission TBD","status":"raster trace (2015 vintage); contiguous trail under hand-read markers; needs review before core/publish","last_checked":null,"trail_number":17,"difficulty":"easy","edge_count":1,"parts":1,"stitched_gaps":0,"unjoined_gaps":0,"number_confidence":"high","source_name":"SFWDA AOP trail map 2015-03-11","source_type":"community_raster","review_status":"raster trace (2015 vintage); contiguous trail under hand-read markers; needs review before core/publish"}},{"type":"Feature","geometry":{"type":"LineString","coordinates":[[-85.7548573,35.0850455],[-85.7546752,35.0851656],[-85.7546674,35.0851725],[-85.7546382,35.0852656],[-85.7544596,35.0854566],[-85.7542467,35.0855697],[-85.7540631,35.0856031],[-85.7536294,35.0856314],[-85.753549,35.0856403],[-85.7533962,35.0858195],[-85.7533318,35.0858214],[-85.7532152,35.0857474],[-85.7530118,35.0855534],[-85.7527947,35.0854184],[-85.7524737,35.0853128],[-85.7524144,35.0852632]]},"properties":{"id":"sfwda_numbered_trails-15","name":"Trail 18","description":null,"kind":"trail","source":"SFWDA AOP trail map 2015-03-11","confidence":"high","permission":"SFWDA paper map — permission TBD","status":"raster trace (2015 vintage); contiguous trail under hand-read markers; needs review before core/publish","last_checked":null,"trail_number":18,"difficulty":"easy","edge_count":5,"parts":1,"stitched_gaps":0,"unjoined_gaps":0,"number_confidence":"high","source_name":"SFWDA AOP trail map 2015-03-11","source_type":"community_raster","review_status":"raster trace (2015 vintage); contiguous trail under hand-read markers; needs review before core/publish"}},{"type":"Feature","geometry":{"type":"LineString","coordinates":[[-85.7549816,35.0845917],[-85.7549114,35.0846941]]},"properties":{"id":"sfwda_numbered_trails-16","name":"Trail 20","description":null,"kind":"trail","source":"SFWDA AOP trail map 2015-03-11","confidence":"high","permission":"SFWDA paper map — permission TBD","status":"raster trace (2015 vintage); contiguous trail under hand-read markers; needs review before core/publish","last_checked":null,"trail_number":20,"difficulty":"easy","edge_count":1,"parts":1,"stitched_gaps":0,"unjoined_gaps":0,"number_confidence":"high","source_name":"SFWDA AOP trail map 2015-03-11","source_type":"community_raster","review_status":"raster trace (2015 vintage); contiguous trail under hand-read markers; needs review before core/publish"}},{"type":"Feature","geometry":{"type":"LineString","coordinates":[[-85.7536896,35.089559],[-85.7536331,35.0895911],[-85.7534339,35.0895706],[-85.7533372,35.0896285],[-85.7532826,35.0896996]]},"properties":{"id":"sfwda_numbered_trails-17","name":"Trail 21","description":null,"kind":"trail","source":"SFWDA AOP trail map 2015-03-11","confidence":"high","permission":"SFWDA paper map — permission TBD","status":"raster trace (2015 vintage); contiguous trail under hand-read markers; needs review before core/publish","last_checked":null,"trail_number":21,"difficulty":"moderate","edge_count":1,"parts":1,"stitched_gaps":0,"unjoined_gaps":0,"number_confidence":"high","source_name":"SFWDA AOP trail map 2015-03-11","source_type":"community_raster","review_status":"raster trace (2015 vintage); contiguous trail under hand-read markers; needs review before core/publish"}},{"type":"Feature","geometry":{"type":"LineString","coordinates":[[-85.7497777,35.0893512],[-85.7496981,35.0894078],[-85.7496976,35.0895235],[-85.7496964,35.0898063],[-85.749768,35.0898655],[-85.7497679,35.0898719],[-85.7497497,35.0899744],[-85.7496593,35.0900369],[-85.7496393,35.0903448],[-85.7496662,35.090429],[-85.7497393,35.0904885],[-85.749877,35.0905304],[-85.7499596,35.090526]]},"properties":{"id":"sfwda_numbered_trails-18","name":"Trail 22","description":null,"kind":"trail","source":"SFWDA AOP trail map 2015-03-11","confidence":"high","permission":"SFWDA paper map — permission TBD","status":"raster trace (2015 vintage); contiguous trail under hand-read markers; needs review before core/publish","last_checked":null,"trail_number":22,"difficulty":"moderate","edge_count":8,"parts":1,"stitched_gaps":0,"unjoined_gaps":0,"number_confidence":"high","source_name":"SFWDA AOP trail map 2015-03-11","source_type":"community_raster","review_status":"raster trace (2015 vintage); contiguous trail under hand-read markers; needs review before core/publish"}},{"type":"Feature","geometry":{"type":"MultiLineString","coordinates":[[[-85.7551492,35.0899346],[-85.7552069,35.0900776],[-85.755218,35.0902275]],[[-85.7541408,35.0894299],[-85.754098,35.089547],[-85.753967,35.0896771]]]},"properties":{"id":"sfwda_numbered_trails-19","name":"Trail 23","description":null,"kind":"trail","source":"SFWDA AOP trail map 2015-03-11","confidence":"high","permission":"SFWDA paper map — permission TBD","status":"raster trace (2015 vintage); contiguous trail under hand-read markers; needs review before core/publish","last_checked":null,"trail_number":23,"difficulty":"moderate","edge_count":2,"parts":2,"stitched_gaps":0,"unjoined_gaps":1,"number_confidence":"high","source_name":"SFWDA AOP trail map 2015-03-11","source_type":"community_raster","review_status":"raster trace (2015 vintage); contiguous trail under hand-read markers; needs review before core/publish"}},{"type":"Feature","geometry":{"type":"LineString","coordinates":[[-85.7581572,35.0875534],[-85.7583952,35.0875366],[-85.7586095,35.0874615],[-85.7586357,35.0874144],[-85.7586337,35.087362],[-85.7585883,35.0872722],[-85.7585905,35.0869638],[-85.7585536,35.0869129],[-85.7583662,35.0867702],[-85.7582884,35.0865699]]},"properties":{"id":"sfwda_numbered_trails-20","name":"Trail 25","description":null,"kind":"trail","source":"SFWDA AOP trail map 2015-03-11","confidence":"high","permission":"SFWDA paper map — permission TBD","status":"raster trace (2015 vintage); contiguous trail under hand-read markers; needs review before core/publish","last_checked":null,"trail_number":25,"difficulty":"moderate","edge_count":1,"parts":1,"stitched_gaps":0,"unjoined_gaps":0,"number_confidence":"high","source_name":"SFWDA AOP trail map 2015-03-11","source_type":"community_raster","review_status":"raster trace (2015 vintage); contiguous trail under hand-read markers; needs review before core/publish"}},{"type":"Feature","geometry":{"type":"LineString","coordinates":[[-85.7554407,35.0956348],[-85.7552699,35.0956183]]},"properties":{"id":"sfwda_numbered_trails-21","name":"Trail 26","description":null,"kind":"trail","source":"SFWDA AOP trail map 2015-03-11","confidence":"high","permission":"SFWDA paper map — permission TBD","status":"raster trace (2015 vintage); contiguous trail under hand-read markers; needs review before core/publish","last_checked":null,"trail_number":26,"difficulty":"moderate","edge_count":1,"parts":1,"stitched_gaps":0,"unjoined_gaps":0,"number_confidence":"high","source_name":"SFWDA AOP trail map 2015-03-11","source_type":"community_raster","review_status":"raster trace (2015 vintage); contiguous trail under hand-read markers; needs review before core/publish"}},{"type":"Feature","geometry":{"type":"LineString","coordinates":[[-85.7571943,35.0860536],[-85.7574382,35.0858006],[-85.757549,35.0857502],[-85.7576955,35.0857251],[-85.7577025,35.0857248],[-85.7577023,35.0857182],[-85.7578027,35.0855628],[-85.7577969,35.0853717],[-85.7577039,35.0852955],[-85.7575155,35.0852949],[-85.757154,35.0853396],[-85.7570004,35.0853312],[-85.7567829,35.0852582]]},"properties":{"id":"sfwda_numbered_trails-22","name":"Trail 27","description":null,"kind":"trail","source":"SFWDA AOP trail map 2015-03-11","confidence":"high","permission":"SFWDA paper map — permission TBD","status":"raster trace (2015 vintage); contiguous trail under hand-read markers; needs review before core/publish","last_checked":null,"trail_number":27,"difficulty":"moderate","edge_count":6,"parts":1,"stitched_gaps":0,"unjoined_gaps":0,"number_confidence":"high","source_name":"SFWDA AOP trail map 2015-03-11","source_type":"community_raster","review_status":"raster trace (2015 vintage); contiguous trail under hand-read markers; needs review before core/publish"}},{"type":"Feature","geometry":{"type":"MultiLineString","coordinates":[[[-85.7586252,35.0931695],[-85.7585759,35.0931561],[-85.7585321,35.0930896],[-85.7585249,35.093083],[-85.7583395,35.0930578],[-85.7580934,35.0927738],[-85.7578303,35.0927831],[-85.75776,35.0928369],[-85.7577185,35.0929169],[-85.7577044,35.0929237],[-85.7576128,35.0929908],[-85.7574637,35.0930119],[-85.7573934,35.0930654]],[[-85.7582766,35.0935979],[-85.7581341,35.0935917],[-85.7580554,35.0935654]]]},"properties":{"id":"sfwda_numbered_trails-23","name":"Trail 28","description":null,"kind":"trail","source":"SFWDA AOP trail map 2015-03-11","confidence":"high","permission":"SFWDA paper map — permission TBD","status":"raster trace (2015 vintage); contiguous trail under hand-read markers; needs review before core/publish","last_checked":null,"trail_number":28,"difficulty":"moderate","edge_count":8,"parts":2,"stitched_gaps":0,"unjoined_gaps":1,"number_confidence":"high","source_name":"SFWDA AOP trail map 2015-03-11","source_type":"community_raster","review_status":"raster trace (2015 vintage); contiguous trail under hand-read markers; needs review before core/publish"}},{"type":"Feature","geometry":{"type":"LineString","coordinates":[[-85.7563803,35.0853644],[-85.7565682,35.0853384],[-85.7567689,35.0852586]]},"properties":{"id":"sfwda_numbered_trails-24","name":"Trail 29","description":null,"kind":"trail","source":"SFWDA AOP trail map 2015-03-11","confidence":"high","permission":"SFWDA paper map — permission TBD","status":"raster trace (2015 vintage); contiguous trail under hand-read markers; needs review before core/publish","last_checked":null,"trail_number":29,"difficulty":"moderate","edge_count":1,"parts":1,"stitched_gaps":0,"unjoined_gaps":0,"number_confidence":"high","source_name":"SFWDA AOP trail map 2015-03-11","source_type":"community_raster","review_status":"raster trace (2015 vintage); contiguous trail under hand-read markers; needs review before core/publish"}},{"type":"Feature","geometry":{"type":"MultiLineString","coordinates":[[[-85.7497026,35.0954214],[-85.7498653,35.0955197],[-85.7499903,35.0955646],[-85.7500966,35.0955762],[-85.7501062,35.0955832],[-85.7501912,35.0956716],[-85.7501984,35.0957691],[-85.7502079,35.0957761],[-85.7503239,35.0957884],[-85.7509374,35.0956824],[-85.7510145,35.0956992],[-85.75151,35.0956647],[-85.7518747,35.0956742],[-85.7521326,35.0957457]],[[-85.7488671,35.0949837],[-85.7489141,35.0950628],[-85.7492199,35.0953083],[-85.7497026,35.0954214]],[[-85.7497026,35.0954214],[-85.749693,35.095421],[-85.7496931,35.0954145],[-85.749688,35.0952142],[-85.7494668,35.0951137],[-85.7494805,35.0949338],[-85.7495882,35.0948999]]]},"properties":{"id":"sfwda_numbered_trails-25","name":"Trail 32","description":null,"kind":"trail","source":"SFWDA AOP trail map 2015-03-11","confidence":"high","permission":"SFWDA paper map — permission TBD","status":"raster trace (2015 vintage); contiguous trail under hand-read markers; needs review before core/publish","last_checked":null,"trail_number":32,"difficulty":"moderate","edge_count":13,"parts":3,"stitched_gaps":0,"unjoined_gaps":0,"number_confidence":"high","source_name":"SFWDA AOP trail map 2015-03-11","source_type":"community_raster","review_status":"raster trace (2015 vintage); contiguous trail under hand-read markers; needs review before core/publish"}},{"type":"Feature","geometry":{"type":"LineString","coordinates":[[-85.7547114,35.0912121],[-85.754589,35.0912187],[-85.7545286,35.0912448],[-85.7544361,35.0912254],[-85.7543348,35.0911736],[-85.7542552,35.0910893],[-85.7542598,35.091005],[-85.7542104,35.0909144]]},"properties":{"id":"sfwda_numbered_trails-26","name":"Trail 33","description":null,"kind":"trail","source":"SFWDA AOP trail map 2015-03-11","confidence":"high","permission":"SFWDA paper map — permission TBD","status":"raster trace (2015 vintage); contiguous trail under hand-read markers; needs review before core/publish","last_checked":null,"trail_number":33,"difficulty":"moderate","edge_count":3,"parts":1,"stitched_gaps":0,"unjoined_gaps":0,"number_confidence":"high","source_name":"SFWDA AOP trail map 2015-03-11","source_type":"community_raster","review_status":"raster trace (2015 vintage); contiguous trail under hand-read markers; needs review before core/publish"}},{"type":"Feature","geometry":{"type":"LineString","coordinates":[[-85.7534074,35.0950165],[-85.7534736,35.0950573],[-85.7537055,35.0950495],[-85.7538049,35.095078],[-85.7538798,35.0951322],[-85.7538798,35.0951387],[-85.753706,35.0952656],[-85.7536148,35.0953748],[-85.7535482,35.0955042],[-85.7535399,35.0956481]]},"properties":{"id":"sfwda_numbered_trails-27","name":"Trail 34","description":null,"kind":"trail","source":"SFWDA AOP trail map 2015-03-11","confidence":"high","permission":"SFWDA paper map — permission TBD","status":"raster trace (2015 vintage); contiguous trail under hand-read markers; needs review before core/publish","last_checked":null,"trail_number":34,"difficulty":"moderate","edge_count":3,"parts":1,"stitched_gaps":0,"unjoined_gaps":0,"number_confidence":"high","source_name":"SFWDA AOP trail map 2015-03-11","source_type":"community_raster","review_status":"raster trace (2015 vintage); contiguous trail under hand-read markers; needs review before core/publish"}},{"type":"Feature","geometry":{"type":"LineString","coordinates":[[-85.7576555,35.0947041],[-85.757649,35.0945039],[-85.7576279,35.0944438],[-85.7575639,35.0944102],[-85.7574355,35.0944364],[-85.7573929,35.0944096],[-85.7573296,35.0941499],[-85.7572348,35.0939449],[-85.7570982,35.0938527],[-85.7569694,35.0938133],[-85.7569389,35.0936619],[-85.7568301,35.0935109]]},"properties":{"id":"sfwda_numbered_trails-28","name":"Trail 35","description":null,"kind":"trail","source":"SFWDA AOP trail map 2015-03-11","confidence":"high","permission":"SFWDA paper map — permission TBD","status":"raster trace (2015 vintage); contiguous trail under hand-read markers; needs review before core/publish","last_checked":null,"trail_number":35,"difficulty":"moderate","edge_count":1,"parts":1,"stitched_gaps":0,"unjoined_gaps":0,"number_confidence":"high","source_name":"SFWDA AOP trail map 2015-03-11","source_type":"community_raster","review_status":"raster trace (2015 vintage); contiguous trail under hand-read markers; needs review before core/publish"}},{"type":"Feature","geometry":{"type":"LineString","coordinates":[[-85.7504671,35.0951333],[-85.7504688,35.0950685],[-85.7503642,35.0949795]]},"properties":{"id":"sfwda_numbered_trails-29","name":"Trail 36","description":null,"kind":"trail","source":"SFWDA AOP trail map 2015-03-11","confidence":"high","permission":"SFWDA paper map — permission TBD","status":"raster trace (2015 vintage); contiguous trail under hand-read markers; needs review before core/publish","last_checked":null,"trail_number":36,"difficulty":"moderate","edge_count":1,"parts":1,"stitched_gaps":0,"unjoined_gaps":0,"number_confidence":"high","source_name":"SFWDA AOP trail map 2015-03-11","source_type":"community_raster","review_status":"raster trace (2015 vintage); contiguous trail under hand-read markers; needs review before core/publish"}},{"type":"Feature","geometry":{"type":"LineString","coordinates":[[-85.7563735,35.0853713],[-85.7563772,35.0856456],[-85.7564906,35.0857419]]},"properties":{"id":"sfwda_numbered_trails-30","name":"Trail 37","description":null,"kind":"trail","source":"SFWDA AOP trail map 2015-03-11","confidence":"high","permission":"SFWDA paper map — permission TBD","status":"raster trace (2015 vintage); contiguous trail under hand-read markers; needs review before core/publish","last_checked":null,"trail_number":37,"difficulty":"moderate","edge_count":1,"parts":1,"stitched_gaps":0,"unjoined_gaps":0,"number_confidence":"high","source_name":"SFWDA AOP trail map 2015-03-11","source_type":"community_raster","review_status":"raster trace (2015 vintage); contiguous trail under hand-read markers; needs review before core/publish"}},{"type":"Feature","geometry":{"type":"LineString","coordinates":[[-85.7567966,35.0863061],[-85.7570253,35.0864092],[-85.7571738,35.0864364],[-85.7571886,35.0864555],[-85.7575199,35.0866728],[-85.757584,35.0866965],[-85.7576738,35.0868442],[-85.757781,35.0868924],[-85.7578719,35.0870662]]},"properties":{"id":"sfwda_numbered_trails-31","name":"Trail 39","description":null,"kind":"trail","source":"SFWDA AOP trail map 2015-03-11","confidence":"high","permission":"SFWDA paper map — permission TBD","status":"raster trace (2015 vintage); contiguous trail under hand-read markers; needs review before core/publish","last_checked":null,"trail_number":39,"difficulty":"moderate","edge_count":3,"parts":1,"stitched_gaps":0,"unjoined_gaps":0,"number_confidence":"high","source_name":"SFWDA AOP trail map 2015-03-11","source_type":"community_raster","review_status":"raster trace (2015 vintage); contiguous trail under hand-read markers; needs review before core/publish"}},{"type":"Feature","geometry":{"type":"LineString","coordinates":[[-85.7527542,35.0910292],[-85.7527882,35.0910553],[-85.7529254,35.0913609],[-85.7530071,35.0914511],[-85.7531125,35.0914962],[-85.7534457,35.0915611],[-85.7540466,35.0917631],[-85.7543159,35.0919583],[-85.7544454,35.0921988],[-85.7545366,35.0925109],[-85.7546362,35.0927843],[-85.754775,35.0930389]]},"properties":{"id":"sfwda_numbered_trails-32","name":"Trail 41","description":null,"kind":"trail","source":"SFWDA AOP trail map 2015-03-11","confidence":"high","permission":"SFWDA paper map — permission TBD","status":"raster trace (2015 vintage); contiguous trail under hand-read markers; needs review before core/publish","last_checked":null,"trail_number":41,"difficulty":"difficult","edge_count":3,"parts":1,"stitched_gaps":0,"unjoined_gaps":0,"number_confidence":"high","source_name":"SFWDA AOP trail map 2015-03-11","source_type":"community_raster","review_status":"raster trace (2015 vintage); contiguous trail under hand-read markers; needs review before core/publish"}},{"type":"Feature","geometry":{"type":"LineString","coordinates":[[-85.7484802,35.0942444],[-85.7488646,35.0940853]]},"properties":{"id":"sfwda_numbered_trails-33","name":"Trail 43","description":null,"kind":"trail","source":"SFWDA AOP trail map 2015-03-11","confidence":"high","permission":"SFWDA paper map — permission TBD","status":"raster trace (2015 vintage); contiguous trail under hand-read markers; needs review before core/publish","last_checked":null,"trail_number":43,"difficulty":"difficult","edge_count":1,"parts":1,"stitched_gaps":0,"unjoined_gaps":0,"number_confidence":"high","source_name":"SFWDA AOP trail map 2015-03-11","source_type":"community_raster","review_status":"raster trace (2015 vintage); contiguous trail under hand-read markers; needs review before core/publish"}},{"type":"Feature","geometry":{"type":"LineString","coordinates":[[-85.7493141,35.0934938],[-85.7492076,35.0934836],[-85.748954,35.093506],[-85.7485342,35.0935733],[-85.7480986,35.0937043],[-85.7480435,35.0937466],[-85.7480326,35.0937526],[-85.7478756,35.0937476],[-85.7476215,35.0937775],[-85.7476105,35.0937834],[-85.7476006,35.0937768],[-85.7472384,35.0937149],[-85.746966,35.0936051],[-85.7469105,35.0935339],[-85.7469594,35.0933585],[-85.7471036,35.0932621],[-85.7474682,35.0931099],[-85.7479281,35.0930053],[-85.7481958,35.0929827]]},"properties":{"id":"sfwda_numbered_trails-34","name":"Trail 45","description":null,"kind":"trail","source":"SFWDA AOP trail map 2015-03-11","confidence":"high","permission":"SFWDA paper map — permission TBD","status":"raster trace (2015 vintage); contiguous trail under hand-read markers; needs review before core/publish","last_checked":null,"trail_number":45,"difficulty":"difficult","edge_count":6,"parts":1,"stitched_gaps":0,"unjoined_gaps":0,"number_confidence":"high","source_name":"SFWDA AOP trail map 2015-03-11","source_type":"community_raster","review_status":"raster trace (2015 vintage); contiguous trail under hand-read markers; needs review before core/publish"}},{"type":"Feature","geometry":{"type":"LineString","coordinates":[[-85.7521171,35.0936046],[-85.7523133,35.0935381],[-85.752412,35.0934376],[-85.7524132,35.093297],[-85.7523412,35.093149],[-85.7524166,35.0929072],[-85.7522953,35.0927971],[-85.7522474,35.0926944],[-85.7523631,35.0925041],[-85.7523636,35.0924466],[-85.7522755,35.0922735],[-85.7522109,35.0922155],[-85.7519837,35.0921247],[-85.7517397,35.0920913]]},"properties":{"id":"sfwda_numbered_trails-35","name":"Trail 47","description":null,"kind":"trail","source":"SFWDA AOP trail map 2015-03-11","confidence":"high","permission":"SFWDA paper map — permission TBD","status":"raster trace (2015 vintage); contiguous trail under hand-read markers; needs review before core/publish","last_checked":null,"trail_number":47,"difficulty":"difficult","edge_count":1,"parts":1,"stitched_gaps":0,"unjoined_gaps":0,"number_confidence":"high","source_name":"SFWDA AOP trail map 2015-03-11","source_type":"community_raster","review_status":"raster trace (2015 vintage); contiguous trail under hand-read markers; needs review before core/publish"}},{"type":"Feature","geometry":{"type":"LineString","coordinates":[[-85.7522104,35.0956364],[-85.7521892,35.0954527]]},"properties":{"id":"sfwda_numbered_trails-36","name":"Trail 49","description":null,"kind":"trail","source":"SFWDA AOP trail map 2015-03-11","confidence":"high","permission":"SFWDA paper map — permission TBD","status":"raster trace (2015 vintage); contiguous trail under hand-read markers; needs review before core/publish","last_checked":null,"trail_number":49,"difficulty":"difficult","edge_count":1,"parts":1,"stitched_gaps":0,"unjoined_gaps":0,"number_confidence":"high","source_name":"SFWDA AOP trail map 2015-03-11","source_type":"community_raster","review_status":"raster trace (2015 vintage); contiguous trail under hand-read markers; needs review before core/publish"}},{"type":"Feature","geometry":{"type":"MultiLineString","coordinates":[[[-85.752406,35.0852571],[-85.7521955,35.0852576],[-85.751996,35.085309],[-85.7516297,35.0855515],[-85.7514172,35.0857821],[-85.7512338,35.0860185],[-85.7509984,35.0863874],[-85.7509317,35.0866053],[-85.7507932,35.0867836],[-85.7506449,35.0868992],[-85.7505038,35.0869396]],[[-85.7506608,35.0891317],[-85.7505996,35.0891309],[-85.7503042,35.0892302],[-85.7502078,35.0892352]],[[-85.7505038,35.0869396],[-85.7506421,35.0873909],[-85.7506425,35.0874035],[-85.750592,35.0874781],[-85.7505834,35.0874842],[-85.7504153,35.0874553],[-85.7502629,35.0873824],[-85.7499958,35.0871163],[-85.749924,35.0870955],[-85.7498122,35.0869783],[-85.749695,35.0869435],[-85.7495349,35.0869392],[-85.7494972,35.0870657],[-85.7493414,35.087132],[-85.7492569,35.0872002],[-85.7492882,35.0872839],[-85.7492974,35.0872905],[-85.7496617,35.0875153],[-85.7498549,35.0877037],[-85.7499445,35.0877498]],[[-85.7478939,35.0853905],[-85.7479075,35.0853089],[-85.7479696,35.0852092],[-85.7481159,35.0851422],[-85.7482338,35.085144],[-85.7483638,35.0851962],[-85.7487366,35.0852773],[-85.7489031,35.0852826],[-85.7490991,35.0852321],[-85.7491078,35.0852324],[-85.7494445,35.0856025],[-85.7494681,35.0856916],[-85.7496592,35.0859191],[-85.7496672,35.0859636],[-85.7499685,35.0862784],[-85.7500332,35.0863185],[-85.7501746,35.0864813],[-85.7505038,35.0869396]]]},"properties":{"id":"sfwda_numbered_trails-37","name":"Trail 50","description":null,"kind":"trail","source":"SFWDA AOP trail map 2015-03-11","confidence":"high","permission":"SFWDA paper map — permission TBD","status":"raster trace (2015 vintage); contiguous trail under hand-read markers; needs review before core/publish","last_checked":null,"trail_number":50,"difficulty":"difficult","edge_count":20,"parts":4,"stitched_gaps":0,"unjoined_gaps":1,"number_confidence":"high","source_name":"SFWDA AOP trail map 2015-03-11","source_type":"community_raster","review_status":"raster trace (2015 vintage); contiguous trail under hand-read markers; needs review before core/publish"}},{"type":"Feature","geometry":{"type":"LineString","coordinates":[[-85.7514766,35.0879219],[-85.7513981,35.087821],[-85.7511507,35.0876909]]},"properties":{"id":"sfwda_numbered_trails-38","name":"Trail 52","description":null,"kind":"trail","source":"SFWDA AOP trail map 2015-03-11","confidence":"high","permission":"SFWDA paper map — permission TBD","status":"raster trace (2015 vintage); contiguous trail under hand-read markers; needs review before core/publish","last_checked":null,"trail_number":52,"difficulty":"difficult","edge_count":1,"parts":1,"stitched_gaps":0,"unjoined_gaps":0,"number_confidence":"high","source_name":"SFWDA AOP trail map 2015-03-11","source_type":"community_raster","review_status":"raster trace (2015 vintage); contiguous trail under hand-read markers; needs review before core/publish"}},{"type":"Feature","geometry":{"type":"LineString","coordinates":[[-85.7510579,35.0886251],[-85.7512264,35.0887492],[-85.7512736,35.0888278]]},"properties":{"id":"sfwda_numbered_trails-39","name":"Trail 53","description":null,"kind":"trail","source":"SFWDA AOP trail map 2015-03-11","confidence":"high","permission":"SFWDA paper map — permission TBD","status":"raster trace (2015 vintage); contiguous trail under hand-read markers; needs review before core/publish","last_checked":null,"trail_number":53,"difficulty":"difficult","edge_count":1,"parts":1,"stitched_gaps":0,"unjoined_gaps":0,"number_confidence":"high","source_name":"SFWDA AOP trail map 2015-03-11","source_type":"community_raster","review_status":"raster trace (2015 vintage); contiguous trail under hand-read markers; needs review before core/publish"}},{"type":"Feature","geometry":{"type":"MultiLineString","coordinates":[[[-85.7553087,35.0889681],[-85.7555305,35.0890111],[-85.7557211,35.0890872]],[[-85.7546677,35.0894636],[-85.7546384,35.0895354],[-85.7545926,35.0895749]]]},"properties":{"id":"sfwda_numbered_trails-40","name":"Trail 54","description":null,"kind":"trail","source":"SFWDA AOP trail map 2015-03-11","confidence":"high","permission":"SFWDA paper map — permission TBD","status":"raster trace (2015 vintage); contiguous trail under hand-read markers; needs review before core/publish","last_checked":null,"trail_number":54,"difficulty":"difficult","edge_count":2,"parts":2,"stitched_gaps":0,"unjoined_gaps":1,"number_confidence":"high","source_name":"SFWDA AOP trail map 2015-03-11","source_type":"community_raster","review_status":"raster trace (2015 vintage); contiguous trail under hand-read markers; needs review before core/publish"}},{"type":"Feature","geometry":{"type":"LineString","coordinates":[[-85.7565476,35.0849182],[-85.7564644,35.0849205]]},"properties":{"id":"sfwda_numbered_trails-41","name":"Trail 56","description":null,"kind":"trail","source":"SFWDA AOP trail map 2015-03-11","confidence":"high","permission":"SFWDA paper map — permission TBD","status":"raster trace (2015 vintage); contiguous trail under hand-read markers; needs review before core/publish","last_checked":null,"trail_number":56,"difficulty":"difficult","edge_count":1,"parts":1,"stitched_gaps":0,"unjoined_gaps":0,"number_confidence":"high","source_name":"SFWDA AOP trail map 2015-03-11","source_type":"community_raster","review_status":"raster trace (2015 vintage); contiguous trail under hand-read markers; needs review before core/publish"}},{"type":"Feature","geometry":{"type":"LineString","coordinates":[[-85.7479952,35.0870128],[-85.7479544,35.0870375],[-85.7477471,35.0870653],[-85.7476316,35.087165]]},"properties":{"id":"sfwda_numbered_trails-42","name":"Trail 57","description":null,"kind":"trail","source":"SFWDA AOP trail map 2015-03-11","confidence":"high","permission":"SFWDA paper map — permission TBD","status":"raster trace (2015 vintage); contiguous trail under hand-read markers; needs review before core/publish","last_checked":null,"trail_number":57,"difficulty":"difficult","edge_count":1,"parts":1,"stitched_gaps":0,"unjoined_gaps":0,"number_confidence":"high","source_name":"SFWDA AOP trail map 2015-03-11","source_type":"community_raster","review_status":"raster trace (2015 vintage); contiguous trail under hand-read markers; needs review before core/publish"}},{"type":"Feature","geometry":{"type":"LineString","coordinates":[[-85.748664,35.0883663],[-85.7488459,35.0884354],[-85.7492682,35.0884341],[-85.7496544,35.0885661],[-85.7496991,35.0885985],[-85.7497443,35.0886885],[-85.7496919,35.088855]]},"properties":{"id":"sfwda_numbered_trails-43","name":"Trail 59","description":null,"kind":"trail","source":"SFWDA AOP trail map 2015-03-11","confidence":"high","permission":"SFWDA paper map — permission TBD","status":"raster trace (2015 vintage); contiguous trail under hand-read markers; needs review before core/publish","last_checked":null,"trail_number":59,"difficulty":"difficult","edge_count":1,"parts":1,"stitched_gaps":0,"unjoined_gaps":0,"number_confidence":"high","source_name":"SFWDA AOP trail map 2015-03-11","source_type":"community_raster","review_status":"raster trace (2015 vintage); contiguous trail under hand-read markers; needs review before core/publish"}},{"type":"Feature","geometry":{"type":"LineString","coordinates":[[-85.7575579,35.0880397],[-85.7573897,35.0880472],[-85.7569577,35.0881323],[-85.75691,35.0881674],[-85.7566742,35.0882439],[-85.7564097,35.088302],[-85.7563116,35.0882982],[-85.7563036,35.0882983],[-85.7562102,35.088346],[-85.7558402,35.0884242],[-85.7557471,35.0884782],[-85.7555663,35.0885202],[-85.7554555,35.0885284],[-85.7553831,35.0885033],[-85.755333,35.0884452],[-85.7553539,35.0883728],[-85.7554152,35.0883194],[-85.7555879,35.0882707],[-85.7556884,35.0882034],[-85.7557469,35.0878805],[-85.7558637,35.0878191],[-85.7559308,35.0877059],[-85.7559333,35.0875677],[-85.7558814,35.0874636]]},"properties":{"id":"sfwda_numbered_trails-44","name":"Trail 60","description":null,"kind":"trail","source":"SFWDA AOP trail map 2015-03-11","confidence":"high","permission":"SFWDA paper map — permission TBD","status":"raster trace (2015 vintage); contiguous trail under hand-read markers; needs review before core/publish","last_checked":null,"trail_number":60,"difficulty":"difficult","edge_count":7,"parts":1,"stitched_gaps":0,"unjoined_gaps":0,"number_confidence":"high","source_name":"SFWDA AOP trail map 2015-03-11","source_type":"community_raster","review_status":"raster trace (2015 vintage); contiguous trail under hand-read markers; needs review before core/publish"}},{"type":"Feature","geometry":{"type":"LineString","coordinates":[[-85.7568299,35.0934977],[-85.7569149,35.0934644],[-85.7570647,35.0934901],[-85.7572153,35.0935686],[-85.7574243,35.0937464],[-85.757524,35.0937462]]},"properties":{"id":"sfwda_numbered_trails-45","name":"Trail 62","description":null,"kind":"trail","source":"SFWDA AOP trail map 2015-03-11","confidence":"high","permission":"SFWDA paper map — permission TBD","status":"raster trace (2015 vintage); contiguous trail under hand-read markers; needs review before core/publish","last_checked":null,"trail_number":62,"difficulty":"difficult","edge_count":1,"parts":1,"stitched_gaps":0,"unjoined_gaps":0,"number_confidence":"high","source_name":"SFWDA AOP trail map 2015-03-11","source_type":"community_raster","review_status":"raster trace (2015 vintage); contiguous trail under hand-read markers; needs review before core/publish"}},{"type":"Feature","geometry":{"type":"LineString","coordinates":[[-85.7563404,35.0936689],[-85.7563094,35.0936882],[-85.7562868,35.0937535],[-85.7563048,35.0939568],[-85.7562194,35.0940015],[-85.7561022,35.0940065],[-85.7560552,35.0939927],[-85.7560157,35.0939464]]},"properties":{"id":"sfwda_numbered_trails-46","name":"Trail 64","description":null,"kind":"trail","source":"SFWDA AOP trail map 2015-03-11","confidence":"high","permission":"SFWDA paper map — permission TBD","status":"raster trace (2015 vintage); contiguous trail under hand-read markers; needs review before core/publish","last_checked":null,"trail_number":64,"difficulty":"difficult","edge_count":1,"parts":1,"stitched_gaps":0,"unjoined_gaps":0,"number_confidence":"high","source_name":"SFWDA AOP trail map 2015-03-11","source_type":"community_raster","review_status":"raster trace (2015 vintage); contiguous trail under hand-read markers; needs review before core/publish"}},{"type":"Feature","geometry":{"type":"LineString","coordinates":[[-85.7561546,35.0930381],[-85.7559917,35.093017]]},"properties":{"id":"sfwda_numbered_trails-47","name":"Trail 66","description":null,"kind":"trail","source":"SFWDA AOP trail map 2015-03-11","confidence":"high","permission":"SFWDA paper map — permission TBD","status":"raster trace (2015 vintage); contiguous trail under hand-read markers; needs review before core/publish","last_checked":null,"trail_number":66,"difficulty":"difficult","edge_count":1,"parts":1,"stitched_gaps":0,"unjoined_gaps":0,"number_confidence":"high","source_name":"SFWDA AOP trail map 2015-03-11","source_type":"community_raster","review_status":"raster trace (2015 vintage); contiguous trail under hand-read markers; needs review before core/publish"}},{"type":"Feature","geometry":{"type":"LineString","coordinates":[[-85.7476105,35.0937834],[-85.7475606,35.0939019],[-85.7475583,35.0942015],[-85.7476401,35.0944528],[-85.7477122,35.0945764]]},"properties":{"id":"sfwda_numbered_trails-48","name":"Trail 67","description":null,"kind":"trail","source":"SFWDA AOP trail map 2015-03-11","confidence":"high","permission":"SFWDA paper map — permission TBD","status":"raster trace (2015 vintage); contiguous trail under hand-read markers; needs review before core/publish","last_checked":null,"trail_number":67,"difficulty":"difficult","edge_count":1,"parts":1,"stitched_gaps":0,"unjoined_gaps":0,"number_confidence":"high","source_name":"SFWDA AOP trail map 2015-03-11","source_type":"community_raster","review_status":"raster trace (2015 vintage); contiguous trail under hand-read markers; needs review before core/publish"}},{"type":"Feature","geometry":{"type":"LineString","coordinates":[[-85.7543462,35.0908362],[-85.7544963,35.0907189]]},"properties":{"id":"sfwda_numbered_trails-49","name":"Trail 68","description":null,"kind":"trail","source":"SFWDA AOP trail map 2015-03-11","confidence":"high","permission":"SFWDA paper map — permission TBD","status":"raster trace (2015 vintage); contiguous trail under hand-read markers; needs review before core/publish","last_checked":null,"trail_number":68,"difficulty":"difficult","edge_count":1,"parts":1,"stitched_gaps":0,"unjoined_gaps":0,"number_confidence":"high","source_name":"SFWDA AOP trail map 2015-03-11","source_type":"community_raster","review_status":"raster trace (2015 vintage); contiguous trail under hand-read markers; needs review before core/publish"}},{"type":"Feature","geometry":{"type":"LineString","coordinates":[[-85.7487131,35.0876108],[-85.7488453,35.0876522],[-85.7489414,35.0876477]]},"properties":{"id":"sfwda_numbered_trails-50","name":"Trail 70","description":null,"kind":"trail","source":"SFWDA AOP trail map 2015-03-11","confidence":"high","permission":"SFWDA paper map — permission TBD","status":"raster trace (2015 vintage); contiguous trail under hand-read markers; needs review before core/publish","last_checked":null,"trail_number":70,"difficulty":"difficult","edge_count":1,"parts":1,"stitched_gaps":0,"unjoined_gaps":0,"number_confidence":"high","source_name":"SFWDA AOP trail map 2015-03-11","source_type":"community_raster","review_status":"raster trace (2015 vintage); contiguous trail under hand-read markers; needs review before core/publish"}},{"type":"Feature","geometry":{"type":"LineString","coordinates":[[-85.7486485,35.0872566],[-85.748569,35.0873318]]},"properties":{"id":"sfwda_numbered_trails-51","name":"Trail 71","description":null,"kind":"trail","source":"SFWDA AOP trail map 2015-03-11","confidence":"high","permission":"SFWDA paper map — permission TBD","status":"raster trace (2015 vintage); contiguous trail under hand-read markers; needs review before core/publish","last_checked":null,"trail_number":71,"difficulty":"difficult","edge_count":1,"parts":1,"stitched_gaps":0,"unjoined_gaps":0,"number_confidence":"high","source_name":"SFWDA AOP trail map 2015-03-11","source_type":"community_raster","review_status":"raster trace (2015 vintage); contiguous trail under hand-read markers; needs review before core/publish"}},{"type":"Feature","geometry":{"type":"LineString","coordinates":[[-85.7478998,35.0868384],[-85.7479949,35.0867188]]},"properties":{"id":"sfwda_numbered_trails-52","name":"Trail 73","description":null,"kind":"trail","source":"SFWDA AOP trail map 2015-03-11","confidence":"high","permission":"SFWDA paper map — permission TBD","status":"raster trace (2015 vintage); contiguous trail under hand-read markers; needs review before core/publish","last_checked":null,"trail_number":73,"difficulty":"difficult","edge_count":1,"parts":1,"stitched_gaps":0,"unjoined_gaps":0,"number_confidence":"high","source_name":"SFWDA AOP trail map 2015-03-11","source_type":"community_raster","review_status":"raster trace (2015 vintage); contiguous trail under hand-read markers; needs review before core/publish"}},{"type":"Feature","geometry":{"type":"LineString","coordinates":[[-85.7566872,35.0872998],[-85.7565623,35.087338],[-85.7561161,35.0873594],[-85.7560058,35.0873883],[-85.7558811,35.087457],[-85.7556367,35.0873182],[-85.7556046,35.0871155],[-85.7555876,35.0866958],[-85.755607,35.0865836]]},"properties":{"id":"sfwda_numbered_trails-53","name":"Trail 81","description":null,"kind":"trail","source":"SFWDA AOP trail map 2015-03-11","confidence":"high","permission":"SFWDA paper map — permission TBD","status":"raster trace (2015 vintage); contiguous trail under hand-read markers; needs review before core/publish","last_checked":null,"trail_number":81,"difficulty":"moderate","edge_count":2,"parts":1,"stitched_gaps":1,"unjoined_gaps":0,"number_confidence":"high","source_name":"SFWDA AOP trail map 2015-03-11","source_type":"community_raster","review_status":"raster trace (2015 vintage); contiguous trail under hand-read markers; needs review before core/publish"}},{"type":"Feature","geometry":{"type":"LineString","coordinates":[[-85.7557218,35.0853975],[-85.7555852,35.0854098]]},"properties":{"id":"sfwda_numbered_trails-54","name":"Trail 82","description":null,"kind":"trail","source":"SFWDA AOP trail map 2015-03-11","confidence":"high","permission":"SFWDA paper map — permission TBD","status":"raster trace (2015 vintage); contiguous trail under hand-read markers; needs review before core/publish","last_checked":null,"trail_number":82,"difficulty":"moderate","edge_count":1,"parts":1,"stitched_gaps":0,"unjoined_gaps":0,"number_confidence":"high","source_name":"SFWDA AOP trail map 2015-03-11","source_type":"community_raster","review_status":"raster trace (2015 vintage); contiguous trail under hand-read markers; needs review before core/publish"}},{"type":"Feature","geometry":{"type":"LineString","coordinates":[[-85.7558016,35.0874588],[-85.7556783,35.0875602],[-85.7555146,35.0876425],[-85.7553649,35.0876785],[-85.7551185,35.0876837],[-85.7549079,35.0875968],[-85.7547421,35.0876266],[-85.75467,35.0876151],[-85.7545726,35.0875717],[-85.7544163,35.0874581]]},"properties":{"id":"sfwda_numbered_trails-55","name":"Trail 83","description":null,"kind":"trail","source":"SFWDA AOP trail map 2015-03-11","confidence":"high","permission":"SFWDA paper map — permission TBD","status":"raster trace (2015 vintage); contiguous trail under hand-read markers; needs review before core/publish","last_checked":null,"trail_number":83,"difficulty":"moderate","edge_count":1,"parts":1,"stitched_gaps":0,"unjoined_gaps":0,"number_confidence":"high","source_name":"SFWDA AOP trail map 2015-03-11","source_type":"community_raster","review_status":"raster trace (2015 vintage); contiguous trail under hand-read markers; needs review before core/publish"}},{"type":"Feature","geometry":{"type":"LineString","coordinates":[[-85.7554592,35.0851831],[-85.7553398,35.085248],[-85.7551368,35.0854944],[-85.7549394,35.0856143],[-85.7546847,35.0856833],[-85.7546224,35.0857381],[-85.7546007,35.0858044],[-85.7546283,35.0859083]]},"properties":{"id":"sfwda_numbered_trails-56","name":"Trail 84","description":null,"kind":"trail","source":"SFWDA AOP trail map 2015-03-11","confidence":"high","permission":"SFWDA paper map — permission TBD","status":"raster trace (2015 vintage); contiguous trail under hand-read markers; needs review before core/publish","last_checked":null,"trail_number":84,"difficulty":"moderate","edge_count":1,"parts":1,"stitched_gaps":0,"unjoined_gaps":0,"number_confidence":"high","source_name":"SFWDA AOP trail map 2015-03-11","source_type":"community_raster","review_status":"raster trace (2015 vintage); contiguous trail under hand-read markers; needs review before core/publish"}},{"type":"Feature","geometry":{"type":"LineString","coordinates":[[-85.7545751,35.0859821],[-85.7545953,35.0860791],[-85.7547515,35.0861783],[-85.7553415,35.0861458],[-85.755495,35.0861866],[-85.7555988,35.0861832]]},"properties":{"id":"sfwda_numbered_trails-57","name":"Trail 85","description":null,"kind":"trail","source":"SFWDA AOP trail map 2015-03-11","confidence":"high","permission":"SFWDA paper map — permission TBD","status":"raster trace (2015 vintage); contiguous trail under hand-read markers; needs review before core/publish","last_checked":null,"trail_number":85,"difficulty":"moderate","edge_count":1,"parts":1,"stitched_gaps":0,"unjoined_gaps":0,"number_confidence":"high","source_name":"SFWDA AOP trail map 2015-03-11","source_type":"community_raster","review_status":"raster trace (2015 vintage); contiguous trail under hand-read markers; needs review before core/publish"}},{"type":"Feature","geometry":{"type":"LineString","coordinates":[[-85.7555805,35.0855627],[-85.7555829,35.0856754],[-85.7556168,35.0857605],[-85.7556065,35.0861764]]},"properties":{"id":"sfwda_numbered_trails-58","name":"Trail 86","description":null,"kind":"trail","source":"SFWDA AOP trail map 2015-03-11","confidence":"high","permission":"SFWDA paper map — permission TBD","status":"raster trace (2015 vintage); contiguous trail under hand-read markers; needs review before core/publish","last_checked":null,"trail_number":86,"difficulty":"moderate","edge_count":1,"parts":1,"stitched_gaps":0,"unjoined_gaps":0,"number_confidence":"high","source_name":"SFWDA AOP trail map 2015-03-11","source_type":"community_raster","review_status":"raster trace (2015 vintage); contiguous trail under hand-read markers; needs review before core/publish"}},{"type":"Feature","geometry":{"type":"LineString","coordinates":[[-85.7595396,35.0926676],[-85.7594622,35.092446],[-85.7593193,35.0922987],[-85.7593295,35.0921912],[-85.7592536,35.0919634],[-85.7591479,35.09185],[-85.7590243,35.0918107],[-85.7589154,35.0918114],[-85.7588083,35.0918925],[-85.7587642,35.0920666],[-85.7587677,35.0922405],[-85.75871,35.0924613],[-85.7586223,35.0925817],[-85.758546,35.0926088]]},"properties":{"id":"sfwda_numbered_trails-59","name":"Trail 90","description":null,"kind":"trail","source":"SFWDA AOP trail map 2015-03-11","confidence":"high","permission":"SFWDA paper map — permission TBD","status":"raster trace (2015 vintage); contiguous trail under hand-read markers; needs review before core/publish","last_checked":null,"trail_number":90,"difficulty":"moderate","edge_count":1,"parts":1,"stitched_gaps":0,"unjoined_gaps":0,"number_confidence":"high","source_name":"SFWDA AOP trail map 2015-03-11","source_type":"community_raster","review_status":"raster trace (2015 vintage); contiguous trail under hand-read markers; needs review before core/publish"}},{"type":"Feature","geometry":{"type":"LineString","coordinates":[[-85.7592366,35.095148],[-85.7593568,35.0952841],[-85.7595778,35.0952791],[-85.759677,35.0953422]]},"properties":{"id":"sfwda_numbered_trails-60","name":"Trail 91","description":null,"kind":"trail","source":"SFWDA AOP trail map 2015-03-11","confidence":"high","permission":"SFWDA paper map — permission TBD","status":"raster trace (2015 vintage); contiguous trail under hand-read markers; needs review before core/publish","last_checked":null,"trail_number":91,"difficulty":"moderate","edge_count":1,"parts":1,"stitched_gaps":0,"unjoined_gaps":0,"number_confidence":"high","source_name":"SFWDA AOP trail map 2015-03-11","source_type":"community_raster","review_status":"raster trace (2015 vintage); contiguous trail under hand-read markers; needs review before core/publish"}},{"type":"Feature","geometry":{"type":"LineString","coordinates":[[-85.7595337,35.0963293],[-85.7594263,35.0964663],[-85.7594116,35.0965329],[-85.7593546,35.0965822],[-85.759347,35.0966552],[-85.7593535,35.0967404],[-85.7593954,35.0968167],[-85.7595226,35.096899],[-85.7595512,35.0969545]]},"properties":{"id":"sfwda_numbered_trails-61","name":"Trail 92","description":null,"kind":"trail","source":"SFWDA AOP trail map 2015-03-11","confidence":"high","permission":"SFWDA paper map — permission TBD","status":"raster trace (2015 vintage); contiguous trail under hand-read markers; needs review before core/publish","last_checked":null,"trail_number":92,"difficulty":"moderate","edge_count":1,"parts":1,"stitched_gaps":0,"unjoined_gaps":0,"number_confidence":"high","source_name":"SFWDA AOP trail map 2015-03-11","source_type":"community_raster","review_status":"raster trace (2015 vintage); contiguous trail under hand-read markers; needs review before core/publish"}},{"type":"Feature","geometry":{"type":"LineString","coordinates":[[-85.7592366,35.0951414],[-85.7594166,35.0949143],[-85.7594965,35.0947425],[-85.7596045,35.09465],[-85.7596906,35.0946103],[-85.759755,35.0946099],[-85.759883,35.0946873],[-85.7599473,35.0946869],[-85.7600048,35.0946606],[-85.7601477,35.0946661],[-85.7602544,35.0947105],[-85.7603743,35.0948442]]},"properties":{"id":"sfwda_numbered_trails-62","name":"Trail 93","description":null,"kind":"trail","source":"SFWDA AOP trail map 2015-03-11","confidence":"high","permission":"SFWDA paper map — permission TBD","status":"raster trace (2015 vintage); contiguous trail under hand-read markers; needs review before core/publish","last_checked":null,"trail_number":93,"difficulty":"moderate","edge_count":1,"parts":1,"stitched_gaps":0,"unjoined_gaps":0,"number_confidence":"high","source_name":"SFWDA AOP trail map 2015-03-11","source_type":"community_raster","review_status":"raster trace (2015 vintage); contiguous trail under hand-read markers; needs review before core/publish"}},{"type":"Feature","geometry":{"type":"LineString","coordinates":[[-85.7566985,35.0953336],[-85.756862,35.0954548],[-85.7569258,35.095555]]},"properties":{"id":"sfwda_numbered_trails-63","name":"Trail 94","description":null,"kind":"trail","source":"SFWDA AOP trail map 2015-03-11","confidence":"high","permission":"SFWDA paper map — permission TBD","status":"raster trace (2015 vintage); contiguous trail under hand-read markers; needs review before core/publish","last_checked":null,"trail_number":94,"difficulty":"moderate","edge_count":1,"parts":1,"stitched_gaps":0,"unjoined_gaps":0,"number_confidence":"high","source_name":"SFWDA AOP trail map 2015-03-11","source_type":"community_raster","review_status":"raster trace (2015 vintage); contiguous trail under hand-read markers; needs review before core/publish"}},{"type":"Feature","geometry":{"type":"LineString","coordinates":[[-85.7516753,35.089887],[-85.7516109,35.0899128],[-85.7515967,35.0899518]]},"properties":{"id":"sfwda_numbered_trails-64","name":"Trail 95","description":null,"kind":"trail","source":"SFWDA AOP trail map 2015-03-11","confidence":"high","permission":"SFWDA paper map — permission TBD","status":"raster trace (2015 vintage); contiguous trail under hand-read markers; needs review before core/publish","last_checked":null,"trail_number":95,"difficulty":"moderate","edge_count":1,"parts":1,"stitched_gaps":0,"unjoined_gaps":0,"number_confidence":"high","source_name":"SFWDA AOP trail map 2015-03-11","source_type":"community_raster","review_status":"raster trace (2015 vintage); contiguous trail under hand-read markers; needs review before core/publish"}},{"type":"Feature","geometry":{"type":"LineString","coordinates":[[-85.7516225,35.0895479],[-85.7516832,35.0898805]]},"properties":{"id":"sfwda_numbered_trails-65","name":"Trail 96","description":null,"kind":"trail","source":"SFWDA AOP trail map 2015-03-11","confidence":"high","permission":"SFWDA paper map — permission TBD","status":"raster trace (2015 vintage); contiguous trail under hand-read markers; needs review before core/publish","last_checked":null,"trail_number":96,"difficulty":"moderate","edge_count":1,"parts":1,"stitched_gaps":0,"unjoined_gaps":0,"number_confidence":"high","source_name":"SFWDA AOP trail map 2015-03-11","source_type":"community_raster","review_status":"raster trace (2015 vintage); contiguous trail under hand-read markers; needs review before core/publish"}},{"type":"Feature","geometry":{"type":"LineString","coordinates":[[-85.7509126,35.0902505],[-85.7509601,35.0903034],[-85.7509507,35.0905302],[-85.7510951,35.0906893],[-85.7513096,35.0907402],[-85.7516846,35.0907473],[-85.751794,35.0907997],[-85.7519501,35.0909563],[-85.7520501,35.0911388],[-85.7522568,35.0913409],[-85.752324,35.0913864],[-85.752462,35.0914248],[-85.7527614,35.0916366],[-85.7528826,35.0917395],[-85.7530357,35.0919327],[-85.7531651,35.0920363],[-85.7533515,35.0921404],[-85.7535616,35.0923547],[-85.7536831,35.0924332],[-85.7540728,35.0925922],[-85.7542113,35.0927034],[-85.7542807,35.0927298],[-85.7546045,35.0930504],[-85.754713,35.0930579],[-85.754775,35.0930389]]},"properties":{"id":"sfwda_numbered_trails-66","name":"Trail 97","description":null,"kind":"trail","source":"SFWDA AOP trail map 2015-03-11","confidence":"high","permission":"SFWDA paper map — permission TBD","status":"raster trace (2015 vintage); contiguous trail under hand-read markers; needs review before core/publish","last_checked":null,"trail_number":97,"difficulty":"moderate","edge_count":1,"parts":1,"stitched_gaps":0,"unjoined_gaps":0,"number_confidence":"high","source_name":"SFWDA AOP trail map 2015-03-11","source_type":"community_raster","review_status":"raster trace (2015 vintage); contiguous trail under hand-read markers; needs review before core/publish"}}]}