{
 "type": "FeatureCollection",
 "name": "sfwda_paper_markers",
 "features": [
  {
   "type": "Feature",
   "geometry": {
    "type": "Point",
    "coordinates": [
     -85.7587067,
     35.0951206
    ]
   },
   "properties": {
    "marker_type": "circle",
    "difficulty": "easy",
    "trail_number": 3,
    "source_name": "SFWDA AOP trail map 2015-03-11",
    "source_type": "community_raster",
    "confidence": "position high; number low (hand-read)",
    "review_status": "raster marker; number hand-read, needs verify before core/publish",
    "centroid_px": [
     1816.4,
     286.3
    ],
    "number_confidence": "low"
   }
  },
  {
   "type": "Feature",
   "geometry": {
    "type": "Point",
    "coordinates": [
     -85.7583525,
     35.0961787
    ]
   },
   "properties": {
    "marker_type": "circle",
    "difficulty": "easy",
    "trail_number": 4,
    "source_name": "SFWDA AOP trail map 2015-03-11",
    "source_type": "community_raster",
    "confidence": "position high; number low (hand-read)",
    "review_status": "raster marker; number hand-read, needs verify before core/publish",
    "centroid_px": [
     1974.0,
     335.5
    ],
    "number_confidence": "low"
   }
  },
  {
   "type": "Feature",
   "geometry": {
    "type": "Point",
    "coordinates": [
     -85.7583345,
     35.0928239
    ]
   },
   "properties": {
    "marker_type": "circle",
    "difficulty": "easy",
    "trail_number": 14,
    "source_name": "SFWDA AOP trail map 2015-03-11",
    "source_type": "community_raster",
    "confidence": "position high; number high (hand-read)",
    "review_status": "raster marker; number hand-read, needs verify before core/publish",
    "centroid_px": [
     1472.9,
     336.2
    ],
    "number_confidence": "high"
   }
  },
  {
   "type": "Feature",
   "geometry": {
    "type": "Point",
    "coordinates": [
     -85.7578804,
     35.0971666
    ]
   },
   "properties": {
    "marker_type": "circle",
    "difficulty": "easy",
    "trail_number": 17,
    "source_name": "SFWDA AOP trail map 2015-03-11",
    "source_type": "community_raster",
    "confidence": "position high; number high (hand-read)",
    "review_status": "raster marker; number hand-read, needs verify before core/publish",
    "centroid_px": [
     2124.3,
     401.8
    ],
    "number_confidence": "high"
   }
  },
  {
   "type": "Feature",
   "geometry": {
    "type": "Point",
    "coordinates": [
     -85.7578212,
     35.0909318
    ]
   },
   "properties": {
    "marker_type": "circle",
    "difficulty": "easy",
    "trail_number": 14,
    "source_name": "SFWDA AOP trail map 2015-03-11",
    "source_type": "community_raster",
    "confidence": "position high; number high (hand-read)",
    "review_status": "raster marker; number hand-read, needs verify before core/publish",
    "centroid_px": [
     1187.1,
     404.6
    ],
    "number_confidence": "high"
   }
  },
  {
   "type": "Feature",
   "geometry": {
    "type": "Point",
    "coordinates": [
     -85.7578208,
     35.0976518
    ]
   },
   "properties": {
    "marker_type": "circle",
    "difficulty": "easy",
    "trail_number": 3,
    "source_name": "SFWDA AOP trail map 2015-03-11",
    "source_type": "community_raster",
    "confidence": "position high; number low (hand-read)",
    "review_status": "raster marker; number hand-read, needs verify before core/publish",
    "centroid_px": [
     2199.1,
     410.9
    ],
    "number_confidence": "low"
   }
  },
  {
   "type": "Feature",
   "geometry": {
    "type": "Point",
    "coordinates": [
     -85.7574007,
     35.0872482
    ]
   },
   "properties": {
    "marker_type": "circle",
    "difficulty": "easy",
    "trail_number": 1,
    "source_name": "SFWDA AOP trail map 2015-03-11",
    "source_type": "community_raster",
    "confidence": "position high; number low (hand-read)",
    "review_status": "raster marker; number hand-read, needs verify before core/publish",
    "centroid_px": [
     627.7,
     453.1
    ],
    "number_confidence": "low"
   }
  },
  {
   "type": "Feature",
   "geometry": {
    "type": "Point",
    "coordinates": [
     -85.7574537,
     35.0892574
    ]
   },
   "properties": {
    "marker_type": "circle",
    "difficulty": "easy",
    "trail_number": 1,
    "source_name": "SFWDA AOP trail map 2015-03-11",
    "source_type": "community_raster",
    "confidence": "position high; number low (hand-read)",
    "review_status": "raster marker; number hand-read, needs verify before core/publish",
    "centroid_px": [
     932.7,
     453.9
    ],
    "number_confidence": "low"
   }
  },
  {
   "type": "Feature",
   "geometry": {
    "type": "Point",
    "coordinates": [
     -85.7573276,
     35.0910252
    ]
   },
   "properties": {
    "marker_type": "circle",
    "difficulty": "easy",
    "trail_number": 8,
    "source_name": "SFWDA AOP trail map 2015-03-11",
    "source_type": "community_raster",
    "confidence": "position high; number low (hand-read)",
    "review_status": "raster marker; number hand-read, needs verify before core/publish",
    "centroid_px": [
     1199.3,
     474.4
    ],
    "number_confidence": "low"
   }
  },
  {
   "type": "Feature",
   "geometry": {
    "type": "Point",
    "coordinates": [
     -85.7569757,
     35.0888587
    ]
   },
   "properties": {
    "marker_type": "circle",
    "difficulty": "easy",
    "trail_number": 12,
    "source_name": "SFWDA AOP trail map 2015-03-11",
    "source_type": "community_raster",
    "confidence": "position high; number high (hand-read)",
    "review_status": "raster marker; number hand-read, needs verify before core/publish",
    "centroid_px": [
     869.3,
     521.4
    ],
    "number_confidence": "high"
   }
  },
  {
   "type": "Feature",
   "geometry": {
    "type": "Point",
    "coordinates": [
     -85.7570187,
     35.0926162
    ]
   },
   "properties": {
    "marker_type": "circle",
    "difficulty": "easy",
    "trail_number": 3,
    "source_name": "SFWDA AOP trail map 2015-03-11",
    "source_type": "community_raster",
    "confidence": "position high; number low (hand-read)",
    "review_status": "raster marker; number hand-read, needs verify before core/publish",
    "centroid_px": [
     1439.4,
     520.8
    ],
    "number_confidence": "low"
   }
  },
  {
   "type": "Feature",
   "geometry": {
    "type": "Point",
    "coordinates": [
     -85.7569586,
     35.0918986
    ]
   },
   "properties": {
    "marker_type": "circle",
    "difficulty": "easy",
    "trail_number": 7,
    "source_name": "SFWDA AOP trail map 2015-03-11",
    "source_type": "community_raster",
    "confidence": "position high; number low (hand-read)",
    "review_status": "raster marker; number hand-read, needs verify before core/publish",
    "centroid_px": [
     1330.4,
     527.9
    ],
    "number_confidence": "low"
   }
  },
  {
   "type": "Feature",
   "geometry": {
    "type": "Point",
    "coordinates": [
     -85.7569642,
     35.0940037
    ]
   },
   "properties": {
    "marker_type": "circle",
    "difficulty": "easy",
    "trail_number": 2,
    "source_name": "SFWDA AOP trail map 2015-03-11",
    "source_type": "community_raster",
    "confidence": "position high; number low (hand-read)",
    "review_status": "raster marker; number hand-read, needs verify before core/publish",
    "centroid_px": [
     1649.9,
     531.1
    ],
    "number_confidence": "low"
   }
  },
  {
   "type": "Feature",
   "geometry": {
    "type": "Point",
    "coordinates": [
     -85.7568968,
     35.08966
    ]
   },
   "properties": {
    "marker_type": "circle",
    "difficulty": "easy",
    "trail_number": 15,
    "source_name": "SFWDA AOP trail map 2015-03-11",
    "source_type": "community_raster",
    "confidence": "position high; number high (hand-read)",
    "review_status": "raster marker; number hand-read, needs verify before core/publish",
    "centroid_px": [
     990.4,
     533.6
    ],
    "number_confidence": "high"
   }
  },
  {
   "type": "Feature",
   "geometry": {
    "type": "Point",
    "coordinates": [
     -85.756574,
     35.0910771
    ]
   },
   "properties": {
    "marker_type": "circle",
    "difficulty": "easy",
    "trail_number": 1,
    "source_name": "SFWDA AOP trail map 2015-03-11",
    "source_type": "community_raster",
    "confidence": "position high; number low (hand-read)",
    "review_status": "raster marker; number hand-read, needs verify before core/publish",
    "centroid_px": [
     1204.3,
     580.8
    ],
    "number_confidence": "low"
   }
  },
  {
   "type": "Feature",
   "geometry": {
    "type": "Point",
    "coordinates": [
     -85.7564183,
     35.0900661
    ]
   },
   "properties": {
    "marker_type": "circle",
    "difficulty": "easy",
    "trail_number": 12,
    "source_name": "SFWDA AOP trail map 2015-03-11",
    "source_type": "community_raster",
    "confidence": "position high; number high (hand-read)",
    "review_status": "raster marker; number hand-read, needs verify before core/publish",
    "centroid_px": [
     1049.6,
     601.9
    ],
    "number_confidence": "high"
   }
  },
  {
   "type": "Feature",
   "geometry": {
    "type": "Point",
    "coordinates": [
     -85.7562525,
     35.0905961
    ]
   },
   "properties": {
    "marker_type": "circle",
    "difficulty": "easy",
    "trail_number": 10,
    "source_name": "SFWDA AOP trail map 2015-03-11",
    "source_type": "community_raster",
    "confidence": "position high; number high (hand-read)",
    "review_status": "raster marker; number hand-read, needs verify before core/publish",
    "centroid_px": [
     1130.2,
     624.1
    ],
    "number_confidence": "high"
   }
  },
  {
   "type": "Feature",
   "geometry": {
    "type": "Point",
    "coordinates": [
     -85.7561023,
     35.0859406
    ]
   },
   "properties": {
    "marker_type": "circle",
    "difficulty": "easy",
    "trail_number": 1,
    "source_name": "SFWDA AOP trail map 2015-03-11",
    "source_type": "community_raster",
    "confidence": "position high; number low (hand-read)",
    "review_status": "raster marker; number hand-read, needs verify before core/publish",
    "centroid_px": [
     421.7,
     627.8
    ],
    "number_confidence": "low"
   }
  },
  {
   "type": "Feature",
   "geometry": {
    "type": "Point",
    "coordinates": [
     -85.7561501,
     35.0927584
    ]
   },
   "properties": {
    "marker_type": "circle",
    "difficulty": "easy",
    "trail_number": 2,
    "source_name": "SFWDA AOP trail map 2015-03-11",
    "source_type": "community_raster",
    "confidence": "position high; number low (hand-read)",
    "review_status": "raster marker; number hand-read, needs verify before core/publish",
    "centroid_px": [
     1460.3,
     640.2
    ],
    "number_confidence": "low"
   }
  },
  {
   "type": "Feature",
   "geometry": {
    "type": "Point",
    "coordinates": [
     -85.7561548,
     35.0967414
    ]
   },
   "properties": {
    "marker_type": "circle",
    "difficulty": "easy",
    "trail_number": 5,
    "source_name": "SFWDA AOP trail map 2015-03-11",
    "source_type": "community_raster",
    "confidence": "position high; number low (hand-read)",
    "review_status": "raster marker; number hand-read, needs verify before core/publish",
    "centroid_px": [
     2065.7,
     640.7
    ],
    "number_confidence": "low"
   }
  },
  {
   "type": "Feature",
   "geometry": {
    "type": "Point",
    "coordinates": [
     -85.7560394,
     35.0911658
    ]
   },
   "properties": {
    "marker_type": "circle",
    "difficulty": "easy",
    "trail_number": 9,
    "source_name": "SFWDA AOP trail map 2015-03-11",
    "source_type": "community_raster",
    "confidence": "position high; number low (hand-read)",
    "review_status": "raster marker; number hand-read, needs verify before core/publish",
    "centroid_px": [
     1217.1,
     652.5
    ],
    "number_confidence": "low"
   }
  },
  {
   "type": "Feature",
   "geometry": {
    "type": "Point",
    "coordinates": [
     -85.7559994,
     35.0951565
    ]
   },
   "properties": {
    "marker_type": "circle",
    "difficulty": "easy",
    "trail_number": 11,
    "source_name": "SFWDA AOP trail map 2015-03-11",
    "source_type": "community_raster",
    "confidence": "position high; number high (hand-read)",
    "review_status": "raster marker; number hand-read, needs verify before core/publish",
    "centroid_px": [
     1825.8,
     661.1
    ],
    "number_confidence": "high"
   }
  },
  {
   "type": "Feature",
   "geometry": {
    "type": "Point",
    "coordinates": [
     -85.7559218,
     35.0969983
    ]
   },
   "properties": {
    "marker_type": "circle",
    "difficulty": "easy",
    "trail_number": 3,
    "source_name": "SFWDA AOP trail map 2015-03-11",
    "source_type": "community_raster",
    "confidence": "position high; number low (hand-read)",
    "review_status": "raster marker; number hand-read, needs verify before core/publish",
    "centroid_px": [
     2105.0,
     671.0
    ],
    "number_confidence": "low"
   }
  },
  {
   "type": "Feature",
   "geometry": {
    "type": "Point",
    "coordinates": [
     -85.7556132,
     35.0959673
    ]
   },
   "properties": {
    "marker_type": "circle",
    "difficulty": "easy",
    "trail_number": 2,
    "source_name": "SFWDA AOP trail map 2015-03-11",
    "source_type": "community_raster",
    "confidence": "position high; number low (hand-read)",
    "review_status": "raster marker; number hand-read, needs verify before core/publish",
    "centroid_px": [
     1950.0,
     710.8
    ],
    "number_confidence": "low"
   }
  },
  {
   "type": "Feature",
   "geometry": {
    "type": "Point",
    "coordinates": [
     -85.7554474,
     35.0907762
    ]
   },
   "properties": {
    "marker_type": "circle",
    "difficulty": "easy",
    "trail_number": 9,
    "source_name": "SFWDA AOP trail map 2015-03-11",
    "source_type": "community_raster",
    "confidence": "position high; number low (hand-read)",
    "review_status": "raster marker; number hand-read, needs verify before core/publish",
    "centroid_px": [
     1157.3,
     728.8
    ],
    "number_confidence": "low"
   }
  },
  {
   "type": "Feature",
   "geometry": {
    "type": "Point",
    "coordinates": [
     -85.7550559,
     35.0849723
    ]
   },
   "properties": {
    "marker_type": "circle",
    "difficulty": "easy",
    "trail_number": 18,
    "source_name": "SFWDA AOP trail map 2015-03-11",
    "source_type": "community_raster",
    "confidence": "position high; number high (hand-read)",
    "review_status": "raster marker; number hand-read, needs verify before core/publish",
    "centroid_px": [
     269.3,
     755.2
    ],
    "number_confidence": "high"
   }
  },
  {
   "type": "Feature",
   "geometry": {
    "type": "Point",
    "coordinates": [
     -85.7547092,
     35.084778
    ]
   },
   "properties": {
    "marker_type": "circle",
    "difficulty": "easy",
    "trail_number": 20,
    "source_name": "SFWDA AOP trail map 2015-03-11",
    "source_type": "community_raster",
    "confidence": "position high; number high (hand-read)",
    "review_status": "raster marker; number hand-read, needs verify before core/publish",
    "centroid_px": [
     237.2,
     797.2
    ],
    "number_confidence": "high"
   }
  },
  {
   "type": "Feature",
   "geometry": {
    "type": "Point",
    "coordinates": [
     -85.7549249,
     35.0915379
    ]
   },
   "properties": {
    "marker_type": "circle",
    "difficulty": "easy",
    "trail_number": 1,
    "source_name": "SFWDA AOP trail map 2015-03-11",
    "source_type": "community_raster",
    "confidence": "position high; number low (hand-read)",
    "review_status": "raster marker; number hand-read, needs verify before core/publish",
    "centroid_px": [
     1274.1,
     798.7
    ],
    "number_confidence": "low"
   }
  },
  {
   "type": "Feature",
   "geometry": {
    "type": "Point",
    "coordinates": [
     -85.7544925,
     35.0844898
    ]
   },
   "properties": {
    "marker_type": "circle",
    "difficulty": "easy",
    "trail_number": 1,
    "source_name": "SFWDA AOP trail map 2015-03-11",
    "source_type": "community_raster",
    "confidence": "position high; number low (hand-read)",
    "review_status": "raster marker; number hand-read, needs verify before core/publish",
    "centroid_px": [
     191.5,
     822.6
    ],
    "number_confidence": "low"
   }
  },
  {
   "type": "Feature",
   "geometry": {
    "type": "Point",
    "coordinates": [
     -85.7546137,
     35.0951319
    ]
   },
   "properties": {
    "marker_type": "circle",
    "difficulty": "easy",
    "trail_number": 11,
    "source_name": "SFWDA AOP trail map 2015-03-11",
    "source_type": "community_raster",
    "confidence": "position high; number high (hand-read)",
    "review_status": "raster marker; number hand-read, needs verify before core/publish",
    "centroid_px": [
     1825.8,
     839.2
    ],
    "number_confidence": "high"
   }
  },
  {
   "type": "Feature",
   "geometry": {
    "type": "Point",
    "coordinates": [
     -85.7541018,
     35.0849474
    ]
   },
   "properties": {
    "marker_type": "circle",
    "difficulty": "easy",
    "trail_number": 16,
    "source_name": "SFWDA AOP trail map 2015-03-11",
    "source_type": "community_raster",
    "confidence": "position high; number high (hand-read)",
    "review_status": "raster marker; number hand-read, needs verify before core/publish",
    "centroid_px": [
     258.5,
     872.8
    ],
    "number_confidence": "high"
   }
  },
  {
   "type": "Feature",
   "geometry": {
    "type": "Point",
    "coordinates": [
     -85.7538378,
     35.0855984
    ]
   },
   "properties": {
    "marker_type": "circle",
    "difficulty": "easy",
    "trail_number": 18,
    "source_name": "SFWDA AOP trail map 2015-03-11",
    "source_type": "community_raster",
    "confidence": "position high; number high (hand-read)",
    "review_status": "raster marker; number hand-read, needs verify before core/publish",
    "centroid_px": [
     356.9,
     909.0
    ],
    "number_confidence": "high"
   }
  },
  {
   "type": "Feature",
   "geometry": {
    "type": "Point",
    "coordinates": [
     -85.7538357,
     35.0956492
    ]
   },
   "properties": {
    "marker_type": "circle",
    "difficulty": "easy",
    "trail_number": 3,
    "source_name": "SFWDA AOP trail map 2015-03-11",
    "source_type": "community_raster",
    "confidence": "position high; number low (hand-read)",
    "review_status": "raster marker; number hand-read, needs verify before core/publish",
    "centroid_px": [
     1907.1,
     937.6
    ],
    "number_confidence": "low"
   }
  },
  {
   "type": "Feature",
   "geometry": {
    "type": "Point",
    "coordinates": [
     -85.7531924,
     35.0849231
    ]
   },
   "properties": {
    "marker_type": "circle",
    "difficulty": "easy",
    "trail_number": 1,
    "source_name": "SFWDA AOP trail map 2015-03-11",
    "source_type": "community_raster",
    "confidence": "position high; number low (hand-read)",
    "review_status": "raster marker; number hand-read, needs verify before core/publish",
    "centroid_px": [
     249.3,
     984.8
    ],
    "number_confidence": "low"
   }
  },
  {
   "type": "Feature",
   "geometry": {
    "type": "Point",
    "coordinates": [
     -85.7530062,
     35.095176
    ]
   },
   "properties": {
    "marker_type": "circle",
    "difficulty": "easy",
    "trail_number": 11,
    "source_name": "SFWDA AOP trail map 2015-03-11",
    "source_type": "community_raster",
    "confidence": "position high; number high (hand-read)",
    "review_status": "raster marker; number hand-read, needs verify before core/publish",
    "centroid_px": [
     1837.8,
     1037.3
    ],
    "number_confidence": "high"
   }
  },
  {
   "type": "Feature",
   "geometry": {
    "type": "Point",
    "coordinates": [
     -85.7515525,
     35.0903556
    ]
   },
   "properties": {
    "marker_type": "circle",
    "difficulty": "easy",
    "trail_number": 1,
    "source_name": "SFWDA AOP trail map 2015-03-11",
    "source_type": "community_raster",
    "confidence": "position high; number low (hand-read)",
    "review_status": "raster marker; number hand-read, needs verify before core/publish",
    "centroid_px": [
     1093.0,
     1212.2
    ],
    "number_confidence": "low"
   }
  },
  {
   "type": "Feature",
   "geometry": {
    "type": "Point",
    "coordinates": [
     -85.7502329,
     35.0901835
    ]
   },
   "properties": {
    "marker_type": "circle",
    "difficulty": "easy",
    "trail_number": 1,
    "source_name": "SFWDA AOP trail map 2015-03-11",
    "source_type": "community_raster",
    "confidence": "position high; number low (hand-read)",
    "review_status": "raster marker; number hand-read, needs verify before core/publish",
    "centroid_px": [
     1070.9,
     1356.7
    ],
    "number_confidence": "low"
   }
  },
  {
   "type": "Feature",
   "geometry": {
    "type": "Point",
    "coordinates": [
     -85.7499047,
     35.089675
    ]
   },
   "properties": {
    "marker_type": "circle",
    "difficulty": "easy",
    "trail_number": 1,
    "source_name": "SFWDA AOP trail map 2015-03-11",
    "source_type": "community_raster",
    "confidence": "position high; number low (hand-read)",
    "review_status": "raster marker; number hand-read, needs verify before core/publish",
    "centroid_px": [
     993.0,
     1392.7
    ],
    "number_confidence": "low"
   }
  },
  {
   "type": "Feature",
   "geometry": {
    "type": "Point",
    "coordinates": [
     -85.7486843,
     35.0894961
    ]
   },
   "properties": {
    "marker_type": "circle",
    "difficulty": "easy",
    "trail_number": 1,
    "source_name": "SFWDA AOP trail map 2015-03-11",
    "source_type": "community_raster",
    "confidence": "position high; number low (hand-read)",
    "review_status": "raster marker; number hand-read, needs verify before core/publish",
    "centroid_px": [
     968.7,
     1529.7
    ],
    "number_confidence": "low"
   }
  },
  {
   "type": "Feature",
   "geometry": {
    "type": "Point",
    "coordinates": [
     -85.7464409,
     35.0908963
    ]
   },
   "properties": {
    "marker_type": "circle",
    "difficulty": "easy",
    "trail_number": 1,
    "source_name": "SFWDA AOP trail map 2015-03-11",
    "source_type": "community_raster",
    "confidence": "position high; number low (hand-read)",
    "review_status": "raster marker; number hand-read, needs verify before core/publish",
    "centroid_px": [
     1200.8,
     1757.9
    ],
    "number_confidence": "low"
   }
  },
  {
   "type": "Feature",
   "geometry": {
    "type": "Point",
    "coordinates": [
     -85.7604403,
     35.0949875
    ]
   },
   "properties": {
    "marker_type": "square",
    "difficulty": "moderate",
    "trail_number": 93,
    "source_name": "SFWDA AOP trail map 2015-03-11",
    "source_type": "community_raster",
    "confidence": "position high; number high (hand-read)",
    "review_status": "raster marker; number hand-read, needs verify before core/publish",
    "centroid_px": [
     1800.5,
     43.5
    ],
    "number_confidence": "high"
   }
  },
  {
   "type": "Feature",
   "geometry": {
    "type": "Point",
    "coordinates": [
     -85.7598357,
     35.0954384
    ]
   },
   "properties": {
    "marker_type": "square",
    "difficulty": "moderate",
    "trail_number": 91,
    "source_name": "SFWDA AOP trail map 2015-03-11",
    "source_type": "community_raster",
    "confidence": "position high; number high (hand-read)",
    "review_status": "raster marker; number hand-read, needs verify before core/publish",
    "centroid_px": [
     1868.4,
     127.6
    ],
    "number_confidence": "high"
   }
  },
  {
   "type": "Feature",
   "geometry": {
    "type": "Point",
    "coordinates": [
     -85.759543,
     35.092849
    ]
   },
   "properties": {
    "marker_type": "square",
    "difficulty": "moderate",
    "trail_number": 90,
    "source_name": "SFWDA AOP trail map 2015-03-11",
    "source_type": "community_raster",
    "confidence": "position high; number high (hand-read)",
    "review_status": "raster marker; number hand-read, needs verify before core/publish",
    "centroid_px": [
     1477.0,
     163.5
    ],
    "number_confidence": "high"
   }
  },
  {
   "type": "Feature",
   "geometry": {
    "type": "Point",
    "coordinates": [
     -85.7595597,
     35.0961805
    ]
   },
   "properties": {
    "marker_type": "square",
    "difficulty": "moderate",
    "trail_number": 92,
    "source_name": "SFWDA AOP trail map 2015-03-11",
    "source_type": "community_raster",
    "confidence": "position high; number high (hand-read)",
    "review_status": "raster marker; number hand-read, needs verify before core/publish",
    "centroid_px": [
     1980.5,
     165.5
    ],
    "number_confidence": "high"
   }
  },
  {
   "type": "Feature",
   "geometry": {
    "type": "Point",
    "coordinates": [
     -85.7586788,
     35.0933
    ]
   },
   "properties": {
    "marker_type": "square",
    "difficulty": "moderate",
    "trail_number": 28,
    "source_name": "SFWDA AOP trail map 2015-03-11",
    "source_type": "community_raster",
    "confidence": "position high; number high (hand-read)",
    "review_status": "raster marker; number hand-read, needs verify before core/publish",
    "centroid_px": [
     1544.5,
     288.7
    ],
    "number_confidence": "high"
   }
  },
  {
   "type": "Feature",
   "geometry": {
    "type": "Point",
    "coordinates": [
     -85.7582552,
     35.0863992
    ]
   },
   "properties": {
    "marker_type": "square",
    "difficulty": "moderate",
    "trail_number": 25,
    "source_name": "SFWDA AOP trail map 2015-03-11",
    "source_type": "community_raster",
    "confidence": "position high; number high (hand-read)",
    "review_status": "raster marker; number hand-read, needs verify before core/publish",
    "centroid_px": [
     503.8,
     326.8
    ],
    "number_confidence": "high"
   }
  },
  {
   "type": "Feature",
   "geometry": {
    "type": "Point",
    "coordinates": [
     -85.7579617,
     35.0872136
    ]
   },
   "properties": {
    "marker_type": "square",
    "difficulty": "moderate",
    "trail_number": 39,
    "source_name": "SFWDA AOP trail map 2015-03-11",
    "source_type": "community_raster",
    "confidence": "position high; number high (hand-read)",
    "review_status": "raster marker; number hand-read, needs verify before core/publish",
    "centroid_px": [
     626.0,
     373.0
    ],
    "number_confidence": "high"
   }
  },
  {
   "type": "Feature",
   "geometry": {
    "type": "Point",
    "coordinates": [
     -85.7580105,
     35.093418
    ]
   },
   "properties": {
    "marker_type": "square",
    "difficulty": "moderate",
    "trail_number": 28,
    "source_name": "SFWDA AOP trail map 2015-03-11",
    "source_type": "community_raster",
    "confidence": "position high; number high (hand-read)",
    "review_status": "raster marker; number hand-read, needs verify before core/publish",
    "centroid_px": [
     1561.8,
     383.0
    ],
    "number_confidence": "high"
   }
  },
  {
   "type": "Feature",
   "geometry": {
    "type": "Point",
    "coordinates": [
     -85.7576763,
     35.0948751
    ]
   },
   "properties": {
    "marker_type": "square",
    "difficulty": "moderate",
    "trail_number": 35,
    "source_name": "SFWDA AOP trail map 2015-03-11",
    "source_type": "community_raster",
    "confidence": "position high; number high (hand-read)",
    "review_status": "raster marker; number hand-read, needs verify before core/publish",
    "centroid_px": [
     1780.6,
     431.0
    ],
    "number_confidence": "high"
   }
  },
  {
   "type": "Feature",
   "geometry": {
    "type": "Point",
    "coordinates": [
     -85.7573324,
     35.0853319
    ]
   },
   "properties": {
    "marker_type": "square",
    "difficulty": "moderate",
    "trail_number": 27,
    "source_name": "SFWDA AOP trail map 2015-03-11",
    "source_type": "community_raster",
    "confidence": "position high; number high (hand-read)",
    "review_status": "raster marker; number hand-read, needs verify before core/publish",
    "centroid_px": [
     336.7,
     453.4
    ],
    "number_confidence": "high"
   }
  },
  {
   "type": "Feature",
   "geometry": {
    "type": "Point",
    "coordinates": [
     -85.7573536,
     35.0865478
    ]
   },
   "properties": {
    "marker_type": "square",
    "difficulty": "moderate",
    "trail_number": 39,
    "source_name": "SFWDA AOP trail map 2015-03-11",
    "source_type": "community_raster",
    "confidence": "position high; number high (hand-read)",
    "review_status": "raster marker; number hand-read, needs verify before core/publish",
    "centroid_px": [
     521.0,
     456.0
    ],
    "number_confidence": "high"
   }
  },
  {
   "type": "Feature",
   "geometry": {
    "type": "Point",
    "coordinates": [
     -85.7572105,
     35.0931652
    ]
   },
   "properties": {
    "marker_type": "square",
    "difficulty": "moderate",
    "trail_number": 28,
    "source_name": "SFWDA AOP trail map 2015-03-11",
    "source_type": "community_raster",
    "confidence": "position high; number high (hand-read)",
    "review_status": "raster marker; number hand-read, needs verify before core/publish",
    "centroid_px": [
     1522.9,
     494.9
    ],
    "number_confidence": "high"
   }
  },
  {
   "type": "Feature",
   "geometry": {
    "type": "Point",
    "coordinates": [
     -85.7570189,
     35.0861308
    ]
   },
   "properties": {
    "marker_type": "square",
    "difficulty": "moderate",
    "trail_number": 27,
    "source_name": "SFWDA AOP trail map 2015-03-11",
    "source_type": "community_raster",
    "confidence": "position high; number high (hand-read)",
    "review_status": "raster marker; number hand-read, needs verify before core/publish",
    "centroid_px": [
     455.7,
     501.4
    ],
    "number_confidence": "high"
   }
  },
  {
   "type": "Feature",
   "geometry": {
    "type": "Point",
    "coordinates": [
     -85.7569872,
     35.0957118
    ]
   },
   "properties": {
    "marker_type": "square",
    "difficulty": "moderate",
    "trail_number": 94,
    "source_name": "SFWDA AOP trail map 2015-03-11",
    "source_type": "community_raster",
    "confidence": "position high; number high (hand-read)",
    "review_status": "raster marker; number hand-read, needs verify before core/publish",
    "centroid_px": [
     1907.5,
     527.3
    ],
    "number_confidence": "high"
   }
  },
  {
   "type": "Feature",
   "geometry": {
    "type": "Point",
    "coordinates": [
     -85.756843,
     35.0872432
    ]
   },
   "properties": {
    "marker_type": "square",
    "difficulty": "moderate",
    "trail_number": 81,
    "source_name": "SFWDA AOP trail map 2015-03-11",
    "source_type": "community_raster",
    "confidence": "position high; number high (hand-read)",
    "review_status": "raster marker; number hand-read, needs verify before core/publish",
    "centroid_px": [
     623.4,
     532.5
    ],
    "number_confidence": "high"
   }
  },
  {
   "type": "Feature",
   "geometry": {
    "type": "Point",
    "coordinates": [
     -85.7567377,
     35.0850729
    ]
   },
   "properties": {
    "marker_type": "square",
    "difficulty": "moderate",
    "trail_number": 29,
    "source_name": "SFWDA AOP trail map 2015-03-11",
    "source_type": "community_raster",
    "confidence": "position high; number high (hand-read)",
    "review_status": "raster marker; number hand-read, needs verify before core/publish",
    "centroid_px": [
     295.0,
     538.0
    ],
    "number_confidence": "high"
   }
  },
  {
   "type": "Feature",
   "geometry": {
    "type": "Point",
    "coordinates": [
     -85.7565146,
     35.0859112
    ]
   },
   "properties": {
    "marker_type": "square",
    "difficulty": "moderate",
    "trail_number": 37,
    "source_name": "SFWDA AOP trail map 2015-03-11",
    "source_type": "community_raster",
    "confidence": "position high; number high (hand-read)",
    "review_status": "raster marker; number hand-read, needs verify before core/publish",
    "centroid_px": [
     419.5,
     572.0
    ],
    "number_confidence": "high"
   }
  },
  {
   "type": "Feature",
   "geometry": {
    "type": "Point",
    "coordinates": [
     -85.7558053,
     35.0855205
    ]
   },
   "properties": {
    "marker_type": "square",
    "difficulty": "moderate",
    "trail_number": 82,
    "source_name": "SFWDA AOP trail map 2015-03-11",
    "source_type": "community_raster",
    "confidence": "position high; number high (hand-read)",
    "review_status": "raster marker; number hand-read, needs verify before core/publish",
    "centroid_px": [
     357.0,
     663.9
    ],
    "number_confidence": "high"
   }
  },
  {
   "type": "Feature",
   "geometry": {
    "type": "Point",
    "coordinates": [
     -85.7556127,
     35.0864291
    ]
   },
   "properties": {
    "marker_type": "square",
    "difficulty": "moderate",
    "trail_number": 81,
    "source_name": "SFWDA AOP trail map 2015-03-11",
    "source_type": "community_raster",
    "confidence": "position high; number high (hand-read)",
    "review_status": "raster marker; number hand-read, needs verify before core/publish",
    "centroid_px": [
     493.5,
     691.5
    ],
    "number_confidence": "high"
   }
  },
  {
   "type": "Feature",
   "geometry": {
    "type": "Point",
    "coordinates": [
     -85.7554267,
     35.0858503
    ]
   },
   "properties": {
    "marker_type": "square",
    "difficulty": "moderate",
    "trail_number": 86,
    "source_name": "SFWDA AOP trail map 2015-03-11",
    "source_type": "community_raster",
    "confidence": "position high; number high (hand-read)",
    "review_status": "raster marker; number hand-read, needs verify before core/publish",
    "centroid_px": [
     404.5,
     712.0
    ],
    "number_confidence": "high"
   }
  },
  {
   "type": "Feature",
   "geometry": {
    "type": "Point",
    "coordinates": [
     -85.7555928,
     35.0956245
    ]
   },
   "properties": {
    "marker_type": "square",
    "difficulty": "moderate",
    "trail_number": 26,
    "source_name": "SFWDA AOP trail map 2015-03-11",
    "source_type": "community_raster",
    "confidence": "position high; number high (hand-read)",
    "review_status": "raster marker; number hand-read, needs verify before core/publish",
    "centroid_px": [
     1898.0,
     713.4
    ],
    "number_confidence": "high"
   }
  },
  {
   "type": "Feature",
   "geometry": {
    "type": "Point",
    "coordinates": [
     -85.7551924,
     35.0863078
    ]
   },
   "properties": {
    "marker_type": "square",
    "difficulty": "moderate",
    "trail_number": 85,
    "source_name": "SFWDA AOP trail map 2015-03-11",
    "source_type": "community_raster",
    "confidence": "position high; number high (hand-read)",
    "review_status": "raster marker; number hand-read, needs verify before core/publish",
    "centroid_px": [
     473.0,
     743.5
    ],
    "number_confidence": "high"
   }
  },
  {
   "type": "Feature",
   "geometry": {
    "type": "Point",
    "coordinates": [
     -85.7552189,
     35.0954102
    ]
   },
   "properties": {
    "marker_type": "square",
    "difficulty": "moderate",
    "trail_number": 24,
    "source_name": "SFWDA AOP trail map 2015-03-11",
    "source_type": "community_raster",
    "confidence": "position high; number high (hand-read)",
    "review_status": "raster marker; number hand-read, needs verify before core/publish",
    "centroid_px": [
     1866.5,
     761.5
    ],
    "number_confidence": "high"
   }
  },
  {
   "type": "Feature",
   "geometry": {
    "type": "Point",
    "coordinates": [
     -85.7551332,
     35.0897816
    ]
   },
   "properties": {
    "marker_type": "square",
    "difficulty": "moderate",
    "trail_number": 23,
    "source_name": "SFWDA AOP trail map 2015-03-11",
    "source_type": "community_raster",
    "confidence": "position high; number high (hand-read)",
    "review_status": "raster marker; number hand-read, needs verify before core/publish",
    "centroid_px": [
     1004.5,
     766.6
    ],
    "number_confidence": "high"
   }
  },
  {
   "type": "Feature",
   "geometry": {
    "type": "Point",
    "coordinates": [
     -85.7548979,
     35.0911729
    ]
   },
   "properties": {
    "marker_type": "square",
    "difficulty": "moderate",
    "trail_number": 33,
    "source_name": "SFWDA AOP trail map 2015-03-11",
    "source_type": "community_raster",
    "confidence": "position high; number high (hand-read)",
    "review_status": "raster marker; number hand-read, needs verify before core/publish",
    "centroid_px": [
     1218.0,
     801.5
    ],
    "number_confidence": "high"
   }
  },
  {
   "type": "Feature",
   "geometry": {
    "type": "Point",
    "coordinates": [
     -85.754413,
     35.0858211
    ]
   },
   "properties": {
    "marker_type": "square",
    "difficulty": "moderate",
    "trail_number": 84,
    "source_name": "SFWDA AOP trail map 2015-03-11",
    "source_type": "community_raster",
    "confidence": "position high; number high (hand-read)",
    "review_status": "raster marker; number hand-read, needs verify before core/publish",
    "centroid_px": [
     394.5,
     838.5
    ],
    "number_confidence": "high"
   }
  },
  {
   "type": "Feature",
   "geometry": {
    "type": "Point",
    "coordinates": [
     -85.7542338,
     35.0874714
    ]
   },
   "properties": {
    "marker_type": "square",
    "difficulty": "moderate",
    "trail_number": 83,
    "source_name": "SFWDA AOP trail map 2015-03-11",
    "source_type": "community_raster",
    "confidence": "position high; number high (hand-read)",
    "review_status": "raster marker; number hand-read, needs verify before core/publish",
    "centroid_px": [
     647.4,
     870.0
    ],
    "number_confidence": "high"
   }
  },
  {
   "type": "Feature",
   "geometry": {
    "type": "Point",
    "coordinates": [
     -85.7541505,
     35.0907492
    ]
   },
   "properties": {
    "marker_type": "square",
    "difficulty": "moderate",
    "trail_number": 33,
    "source_name": "SFWDA AOP trail map 2015-03-11",
    "source_type": "community_raster",
    "confidence": "position high; number high (hand-read)",
    "review_status": "raster marker; number hand-read, needs verify before core/publish",
    "centroid_px": [
     1152.5,
     897.0
    ],
    "number_confidence": "high"
   }
  },
  {
   "type": "Feature",
   "geometry": {
    "type": "Point",
    "coordinates": [
     -85.7538374,
     35.0898222
    ]
   },
   "properties": {
    "marker_type": "square",
    "difficulty": "moderate",
    "trail_number": 23,
    "source_name": "SFWDA AOP trail map 2015-03-11",
    "source_type": "community_raster",
    "confidence": "position high; number high (hand-read)",
    "review_status": "raster marker; number hand-read, needs verify before core/publish",
    "centroid_px": [
     1009.5,
     931.4
    ],
    "number_confidence": "high"
   }
  },
  {
   "type": "Feature",
   "geometry": {
    "type": "Point",
    "coordinates": [
     -85.753853,
     35.0949187
    ]
   },
   "properties": {
    "marker_type": "square",
    "difficulty": "moderate",
    "trail_number": 34,
    "source_name": "SFWDA AOP trail map 2015-03-11",
    "source_type": "community_raster",
    "confidence": "position high; number high (hand-read)",
    "review_status": "raster marker; number hand-read, needs verify before core/publish",
    "centroid_px": [
     1795.5,
     935.1
    ],
    "number_confidence": "high"
   }
  },
  {
   "type": "Feature",
   "geometry": {
    "type": "Point",
    "coordinates": [
     -85.7536347,
     35.0894102
    ]
   },
   "properties": {
    "marker_type": "square",
    "difficulty": "moderate",
    "trail_number": 21,
    "source_name": "SFWDA AOP trail map 2015-03-11",
    "source_type": "community_raster",
    "confidence": "position high; number high (hand-read)",
    "review_status": "raster marker; number hand-read, needs verify before core/publish",
    "centroid_px": [
     946.1,
     953.9
    ],
    "number_confidence": "high"
   }
  },
  {
   "type": "Feature",
   "geometry": {
    "type": "Point",
    "coordinates": [
     -85.7534427,
     35.0958029
    ]
   },
   "properties": {
    "marker_type": "square",
    "difficulty": "moderate",
    "trail_number": 34,
    "source_name": "SFWDA AOP trail map 2015-03-11",
    "source_type": "community_raster",
    "confidence": "position high; number high (hand-read)",
    "review_status": "raster marker; number hand-read, needs verify before core/publish",
    "centroid_px": [
     1932.0,
     984.6
    ],
    "number_confidence": "high"
   }
  },
  {
   "type": "Feature",
   "geometry": {
    "type": "Point",
    "coordinates": [
     -85.7532321,
     35.0923133
    ]
   },
   "properties": {
    "marker_type": "square",
    "difficulty": "moderate",
    "trail_number": 97,
    "source_name": "SFWDA AOP trail map 2015-03-11",
    "source_type": "community_raster",
    "confidence": "position high; number high (hand-read)",
    "review_status": "raster marker; number hand-read, needs verify before core/publish",
    "centroid_px": [
     1395.0,
     1012.5
    ],
    "number_confidence": "high"
   }
  },
  {
   "type": "Feature",
   "geometry": {
    "type": "Point",
    "coordinates": [
     -85.7516961,
     35.0893919
    ]
   },
   "properties": {
    "marker_type": "square",
    "difficulty": "moderate",
    "trail_number": 96,
    "source_name": "SFWDA AOP trail map 2015-03-11",
    "source_type": "community_raster",
    "confidence": "position high; number high (hand-read)",
    "review_status": "raster marker; number hand-read, needs verify before core/publish",
    "centroid_px": [
     945.0,
     1188.0
    ],
    "number_confidence": "high"
   }
  },
  {
   "type": "Feature",
   "geometry": {
    "type": "Point",
    "coordinates": [
     -85.7513888,
     35.0899421
    ]
   },
   "properties": {
    "marker_type": "square",
    "difficulty": "moderate",
    "trail_number": 95,
    "source_name": "SFWDA AOP trail map 2015-03-11",
    "source_type": "community_raster",
    "confidence": "position high; number high (hand-read)",
    "review_status": "raster marker; number hand-read, needs verify before core/publish",
    "centroid_px": [
     1030.0,
     1227.7
    ],
    "number_confidence": "high"
   }
  },
  {
   "type": "Feature",
   "geometry": {
    "type": "Point",
    "coordinates": [
     -85.7512584,
     35.0956485
    ]
   },
   "properties": {
    "marker_type": "square",
    "difficulty": "moderate",
    "trail_number": 32,
    "source_name": "SFWDA AOP trail map 2015-03-11",
    "source_type": "community_raster",
    "confidence": "position high; number high (hand-read)",
    "review_status": "raster marker; number hand-read, needs verify before core/publish",
    "centroid_px": [
     1917.4,
     1241.0
    ],
    "number_confidence": "high"
   }
  },
  {
   "type": "Feature",
   "geometry": {
    "type": "Point",
    "coordinates": [
     -85.7504124,
     35.0952924
    ]
   },
   "properties": {
    "marker_type": "square",
    "difficulty": "moderate",
    "trail_number": 36,
    "source_name": "SFWDA AOP trail map 2015-03-11",
    "source_type": "community_raster",
    "confidence": "position high; number high (hand-read)",
    "review_status": "raster marker; number hand-read, needs verify before core/publish",
    "centroid_px": [
     1868.9,
     1329.2
    ],
    "number_confidence": "high"
   }
  },
  {
   "type": "Feature",
   "geometry": {
    "type": "Point",
    "coordinates": [
     -85.7501659,
     35.090498
    ]
   },
   "properties": {
    "marker_type": "square",
    "difficulty": "moderate",
    "trail_number": 22,
    "source_name": "SFWDA AOP trail map 2015-03-11",
    "source_type": "community_raster",
    "confidence": "position high; number high (hand-read)",
    "review_status": "raster marker; number hand-read, needs verify before core/publish",
    "centroid_px": [
     1119.9,
     1364.5
    ],
    "number_confidence": "high"
   }
  },
  {
   "type": "Feature",
   "geometry": {
    "type": "Point",
    "coordinates": [
     -85.7496266,
     35.0896636
    ]
   },
   "properties": {
    "marker_type": "square",
    "difficulty": "moderate",
    "trail_number": 22,
    "source_name": "SFWDA AOP trail map 2015-03-11",
    "source_type": "community_raster",
    "confidence": "position high; number high (hand-read)",
    "review_status": "raster marker; number hand-read, needs verify before core/publish",
    "centroid_px": [
     992.0,
     1423.9
    ],
    "number_confidence": "high"
   }
  },
  {
   "type": "Feature",
   "geometry": {
    "type": "Point",
    "coordinates": [
     -85.7492232,
     35.0954783
    ]
   },
   "properties": {
    "marker_type": "square",
    "difficulty": "moderate",
    "trail_number": 32,
    "source_name": "SFWDA AOP trail map 2015-03-11",
    "source_type": "community_raster",
    "confidence": "position high; number high (hand-read)",
    "review_status": "raster marker; number hand-read, needs verify before core/publish",
    "centroid_px": [
     1906.4,
     1451.3
    ],
    "number_confidence": "high"
   }
  },
  {
   "type": "Feature",
   "geometry": {
    "type": "Point",
    "coordinates": [
     -85.7493058,
     35.0910918
    ]
   },
   "properties": {
    "marker_type": "square",
    "difficulty": "moderate",
    "trail_number": 1,
    "source_name": "SFWDA AOP trail map 2015-03-11",
    "source_type": "community_raster",
    "confidence": "position high; number low (hand-read)",
    "review_status": "raster marker; number hand-read, needs verify before core/publish",
    "centroid_px": [
     1215.7,
     1457.1
    ],
    "number_confidence": "low",
    "band_flag": "number 1 unusual for moderate"
   }
  },
  {
   "type": "Feature",
   "geometry": {
    "type": "Point",
    "coordinates": [
     -85.749184,
     35.0949336
    ]
   },
   "properties": {
    "marker_type": "square",
    "difficulty": "moderate",
    "trail_number": 32,
    "source_name": "SFWDA AOP trail map 2015-03-11",
    "source_type": "community_raster",
    "confidence": "position high; number high (hand-read)",
    "review_status": "raster marker; number hand-read, needs verify before core/publish",
    "centroid_px": [
     1822.0,
     1456.5
    ],
    "number_confidence": "high"
   }
  },
  {
   "type": "Feature",
   "geometry": {
    "type": "Point",
    "coordinates": [
     -85.7585967,
     35.0975006
    ]
   },
   "properties": {
    "marker_type": "triangle",
    "difficulty": "difficult",
    "trail_number": null,
    "source_name": "SFWDA AOP trail map 2015-03-11",
    "source_type": "community_raster",
    "confidence": "position high (mapping-system export); number pending",
    "review_status": "raster marker; number unread; needs review before core/publish",
    "centroid_px": [
     2175.1,
     301.5
    ]
   }
  },
  {
   "type": "Feature",
   "geometry": {
    "type": "Point",
    "coordinates": [
     -85.7576785,
     35.0937909
    ]
   },
   "properties": {
    "marker_type": "triangle",
    "difficulty": "difficult",
    "trail_number": 62,
    "source_name": "SFWDA AOP trail map 2015-03-11",
    "source_type": "community_raster",
    "confidence": "position high; number high (hand-read)",
    "review_status": "raster marker; number hand-read, needs verify before core/publish",
    "centroid_px": [
     1617.8,
     430.4
    ],
    "number_confidence": "high"
   }
  },
  {
   "type": "Feature",
   "geometry": {
    "type": "Point",
    "coordinates": [
     -85.7571814,
     35.0880894
    ]
   },
   "properties": {
    "marker_type": "triangle",
    "difficulty": "difficult",
    "trail_number": 60,
    "source_name": "SFWDA AOP trail map 2015-03-11",
    "source_type": "community_raster",
    "confidence": "position high; number high (hand-read)",
    "review_status": "raster marker; number hand-read, needs verify before core/publish",
    "centroid_px": [
     754.0,
     488.9
    ],
    "number_confidence": "high"
   }
  },
  {
   "type": "Feature",
   "geometry": {
    "type": "Point",
    "coordinates": [
     -85.7570501,
     35.0904215
    ]
   },
   "properties": {
    "marker_type": "triangle",
    "difficulty": "difficult",
    "trail_number": null,
    "source_name": "SFWDA AOP trail map 2015-03-11",
    "source_type": "community_raster",
    "confidence": "position high (mapping-system export); number pending",
    "review_status": "raster marker; number unread; needs review before core/publish",
    "centroid_px": [
     1106.7,
     512.8
    ]
   }
  },
  {
   "type": "Feature",
   "geometry": {
    "type": "Point",
    "coordinates": [
     -85.7562484,
     35.0849262
    ]
   },
   "properties": {
    "marker_type": "triangle",
    "difficulty": "difficult",
    "trail_number": 56,
    "source_name": "SFWDA AOP trail map 2015-03-11",
    "source_type": "community_raster",
    "confidence": "position high; number high (hand-read)",
    "review_status": "raster marker; number hand-read, needs verify before core/publish",
    "centroid_px": [
     270.9,
     607.8
    ],
    "number_confidence": "high"
   }
  },
  {
   "type": "Feature",
   "geometry": {
    "type": "Point",
    "coordinates": [
     -85.7562575,
     35.0935041
    ]
   },
   "properties": {
    "marker_type": "triangle",
    "difficulty": "difficult",
    "trail_number": 64,
    "source_name": "SFWDA AOP trail map 2015-03-11",
    "source_type": "community_raster",
    "confidence": "position high; number high (hand-read)",
    "review_status": "raster marker; number hand-read, needs verify before core/publish",
    "centroid_px": [
     1574.0,
     627.4
    ],
    "number_confidence": "high"
   }
  },
  {
   "type": "Feature",
   "geometry": {
    "type": "Point",
    "coordinates": [
     -85.7563337,
     35.0931144
    ]
   },
   "properties": {
    "marker_type": "triangle",
    "difficulty": "difficult",
    "trail_number": null,
    "source_name": "SFWDA AOP trail map 2015-03-11",
    "source_type": "community_raster",
    "confidence": "position high (mapping-system export); number pending",
    "review_status": "raster marker; number unread; needs review before core/publish",
    "centroid_px": [
     1514.4,
     617.0
    ]
   }
  },
  {
   "type": "Feature",
   "geometry": {
    "type": "Point",
    "coordinates": [
     -85.7559069,
     35.0891354
    ]
   },
   "properties": {
    "marker_type": "triangle",
    "difficulty": "difficult",
    "trail_number": 54,
    "source_name": "SFWDA AOP trail map 2015-03-11",
    "source_type": "community_raster",
    "confidence": "position high; number high (hand-read)",
    "review_status": "raster marker; number hand-read, needs verify before core/publish",
    "centroid_px": [
     906.7,
     666.5
    ],
    "number_confidence": "high"
   }
  },
  {
   "type": "Feature",
   "geometry": {
    "type": "Point",
    "coordinates": [
     -85.7559254,
     35.0931485
    ]
   },
   "properties": {
    "marker_type": "triangle",
    "difficulty": "difficult",
    "trail_number": 66,
    "source_name": "SFWDA AOP trail map 2015-03-11",
    "source_type": "community_raster",
    "confidence": "position high; number high (hand-read)",
    "review_status": "raster marker; number hand-read, needs verify before core/publish",
    "centroid_px": [
     1520.2,
     669.7
    ],
    "number_confidence": "high"
   }
  },
  {
   "type": "Feature",
   "geometry": {
    "type": "Point",
    "coordinates": [
     -85.75569,
     35.0880274
    ]
   },
   "properties": {
    "marker_type": "triangle",
    "difficulty": "difficult",
    "trail_number": 60,
    "source_name": "SFWDA AOP trail map 2015-03-11",
    "source_type": "community_raster",
    "confidence": "position high; number high (hand-read)",
    "review_status": "raster marker; number hand-read, needs verify before core/publish",
    "centroid_px": [
     737.2,
     689.9
    ],
    "number_confidence": "high"
   }
  },
  {
   "type": "Feature",
   "geometry": {
    "type": "Point",
    "coordinates": [
     -85.7546954,
     35.0907221
    ]
   },
   "properties": {
    "marker_type": "triangle",
    "difficulty": "difficult",
    "trail_number": 68,
    "source_name": "SFWDA AOP trail map 2015-03-11",
    "source_type": "community_raster",
    "confidence": "position high; number high (hand-read)",
    "review_status": "raster marker; number hand-read, needs verify before core/publish",
    "centroid_px": [
     1148.6,
     826.2
    ],
    "number_confidence": "high"
   }
  },
  {
   "type": "Feature",
   "geometry": {
    "type": "Point",
    "coordinates": [
     -85.7544901,
     35.0897005
    ]
   },
   "properties": {
    "marker_type": "triangle",
    "difficulty": "difficult",
    "trail_number": 54,
    "source_name": "SFWDA AOP trail map 2015-03-11",
    "source_type": "community_raster",
    "confidence": "position high; number high (hand-read)",
    "review_status": "raster marker; number hand-read, needs verify before core/publish",
    "centroid_px": [
     991.2,
     848.6
    ],
    "number_confidence": "high"
   }
  },
  {
   "type": "Feature",
   "geometry": {
    "type": "Point",
    "coordinates": [
     -85.7544685,
     35.0923683
    ]
   },
   "properties": {
    "marker_type": "triangle",
    "difficulty": "difficult",
    "trail_number": 41,
    "source_name": "SFWDA AOP trail map 2015-03-11",
    "source_type": "community_raster",
    "confidence": "position high; number high (hand-read)",
    "review_status": "raster marker; number hand-read, needs verify before core/publish",
    "centroid_px": [
     1402.1,
     857.9
    ],
    "number_confidence": "high"
   }
  },
  {
   "type": "Feature",
   "geometry": {
    "type": "Point",
    "coordinates": [
     -85.7539663,
     35.0865764
    ]
   },
   "properties": {
    "marker_type": "triangle",
    "difficulty": "difficult",
    "trail_number": null,
    "source_name": "SFWDA AOP trail map 2015-03-11",
    "source_type": "community_raster",
    "confidence": "position high (mapping-system export); number pending",
    "review_status": "raster marker; number unread; needs review before core/publish",
    "centroid_px": [
     508.4,
     898.5
    ]
   }
  },
  {
   "type": "Feature",
   "geometry": {
    "type": "Point",
    "coordinates": [
     -85.7527059,
     35.0901061
    ]
   },
   "properties": {
    "marker_type": "triangle",
    "difficulty": "difficult",
    "trail_number": 51,
    "source_name": "SFWDA AOP trail map 2015-03-11",
    "source_type": "community_raster",
    "confidence": "position high; number high (hand-read)",
    "review_status": "raster marker; number hand-read, needs verify before core/publish",
    "centroid_px": [
     1054.0,
     1070.3
    ],
    "number_confidence": "high"
   }
  },
  {
   "type": "Feature",
   "geometry": {
    "type": "Point",
    "coordinates": [
     -85.7525854,
     35.0909366
    ]
   },
   "properties": {
    "marker_type": "triangle",
    "difficulty": "difficult",
    "trail_number": 41,
    "source_name": "SFWDA AOP trail map 2015-03-11",
    "source_type": "community_raster",
    "confidence": "position high; number high (hand-read)",
    "review_status": "raster marker; number hand-read, needs verify before core/publish",
    "centroid_px": [
     1181.8,
     1090.1
    ],
    "number_confidence": "high"
   }
  },
  {
   "type": "Feature",
   "geometry": {
    "type": "Point",
    "coordinates": [
     -85.7521716,
     35.0952986
    ]
   },
   "properties": {
    "marker_type": "triangle",
    "difficulty": "difficult",
    "trail_number": 49,
    "source_name": "SFWDA AOP trail map 2015-03-11",
    "source_type": "community_raster",
    "confidence": "position high; number high (hand-read)",
    "review_status": "raster marker; number hand-read, needs verify before core/publish",
    "centroid_px": [
     1859.5,
     1137.5
    ],
    "number_confidence": "high"
   }
  },
  {
   "type": "Feature",
   "geometry": {
    "type": "Point",
    "coordinates": [
     -85.7518146,
     35.0854201
    ]
   },
   "properties": {
    "marker_type": "triangle",
    "difficulty": "difficult",
    "trail_number": 50,
    "source_name": "SFWDA AOP trail map 2015-03-11",
    "source_type": "community_raster",
    "confidence": "position high; number high (hand-read)",
    "review_status": "raster marker; number hand-read, needs verify before core/publish",
    "centroid_px": [
     319.4,
     1158.2
    ],
    "number_confidence": "high"
   }
  },
  {
   "type": "Feature",
   "geometry": {
    "type": "Point",
    "coordinates": [
     -85.75203,
     35.0904244
    ]
   },
   "properties": {
    "marker_type": "triangle",
    "difficulty": "difficult",
    "trail_number": null,
    "source_name": "SFWDA AOP trail map 2015-03-11",
    "source_type": "community_raster",
    "confidence": "position high (mapping-system export); number pending",
    "review_status": "raster marker; number unread; needs review before core/publish",
    "centroid_px": [
     1103.3,
     1154.6
    ]
   }
  },
  {
   "type": "Feature",
   "geometry": {
    "type": "Point",
    "coordinates": [
     -85.7518987,
     35.0936011
    ]
   },
   "properties": {
    "marker_type": "triangle",
    "difficulty": "difficult",
    "trail_number": 47,
    "source_name": "SFWDA AOP trail map 2015-03-11",
    "source_type": "community_raster",
    "confidence": "position high; number high (hand-read)",
    "review_status": "raster marker; number hand-read, needs verify before core/publish",
    "centroid_px": [
     1599.1,
     1174.8
    ],
    "number_confidence": "high"
   }
  },
  {
   "type": "Feature",
   "geometry": {
    "type": "Point",
    "coordinates": [
     -85.7514604,
     35.092045
    ]
   },
   "properties": {
    "marker_type": "triangle",
    "difficulty": "difficult",
    "trail_number": 47,
    "source_name": "SFWDA AOP trail map 2015-03-11",
    "source_type": "community_raster",
    "confidence": "position high; number high (hand-read)",
    "review_status": "raster marker; number hand-read, needs verify before core/publish",
    "centroid_px": [
     1355.6,
     1227.6
    ],
    "number_confidence": "high"
   }
  },
  {
   "type": "Feature",
   "geometry": {
    "type": "Point",
    "coordinates": [
     -85.7510119,
     35.08846
    ]
   },
   "properties": {
    "marker_type": "triangle",
    "difficulty": "difficult",
    "trail_number": 53,
    "source_name": "SFWDA AOP trail map 2015-03-11",
    "source_type": "community_raster",
    "confidence": "position high; number high (hand-read)",
    "review_status": "raster marker; number hand-read, needs verify before core/publish",
    "centroid_px": [
     801.8,
     1262.9
    ],
    "number_confidence": "high"
   }
  },
  {
   "type": "Feature",
   "geometry": {
    "type": "Point",
    "coordinates": [
     -85.7509356,
     35.0875653
    ]
   },
   "properties": {
    "marker_type": "triangle",
    "difficulty": "difficult",
    "trail_number": 52,
    "source_name": "SFWDA AOP trail map 2015-03-11",
    "source_type": "community_raster",
    "confidence": "position high; number high (hand-read)",
    "review_status": "raster marker; number hand-read, needs verify before core/publish",
    "centroid_px": [
     659.7,
     1269.2
    ],
    "number_confidence": "high"
   }
  },
  {
   "type": "Feature",
   "geometry": {
    "type": "Point",
    "coordinates": [
     -85.7508664,
     35.0890943
    ]
   },
   "properties": {
    "marker_type": "triangle",
    "difficulty": "difficult",
    "trail_number": 50,
    "source_name": "SFWDA AOP trail map 2015-03-11",
    "source_type": "community_raster",
    "confidence": "position high; number high (hand-read)",
    "review_status": "raster marker; number hand-read, needs verify before core/publish",
    "centroid_px": [
     900.8,
     1282.3
    ],
    "number_confidence": "high"
   }
  },
  {
   "type": "Feature",
   "geometry": {
    "type": "Point",
    "coordinates": [
     -85.7506676,
     35.0928223
    ]
   },
   "properties": {
    "marker_type": "triangle",
    "difficulty": "difficult",
    "trail_number": 44,
    "source_name": "SFWDA AOP trail map 2015-03-11",
    "source_type": "community_raster",
    "confidence": "position high; number high (hand-read)",
    "review_status": "raster marker; number hand-read, needs verify before core/publish",
    "centroid_px": [
     1482.3,
     1309.1
    ],
    "number_confidence": "high"
   }
  },
  {
   "type": "Feature",
   "geometry": {
    "type": "Point",
    "coordinates": [
     -85.750541,
     35.0937872
    ]
   },
   "properties": {
    "marker_type": "triangle",
    "difficulty": "difficult",
    "trail_number": 63,
    "source_name": "SFWDA AOP trail map 2015-03-11",
    "source_type": "community_raster",
    "confidence": "position high; number high (hand-read)",
    "review_status": "raster marker; number hand-read, needs verify before core/publish",
    "centroid_px": [
     1635.4,
     1320.0
    ],
    "number_confidence": "high"
   }
  },
  {
   "type": "Feature",
   "geometry": {
    "type": "Point",
    "coordinates": [
     -85.7504272,
     35.0924561
    ]
   },
   "properties": {
    "marker_type": "triangle",
    "difficulty": "difficult",
    "trail_number": 43,
    "source_name": "SFWDA AOP trail map 2015-03-11",
    "source_type": "community_raster",
    "confidence": "position high; number high (hand-read)",
    "review_status": "raster marker; number hand-read, needs verify before core/publish",
    "centroid_px": [
     1425.7,
     1335.0
    ],
    "number_confidence": "high"
   }
  },
  {
   "type": "Feature",
   "geometry": {
    "type": "Point",
    "coordinates": [
     -85.7501509,
     35.0878355
    ]
   },
   "properties": {
    "marker_type": "triangle",
    "difficulty": "difficult",
    "trail_number": 50,
    "source_name": "SFWDA AOP trail map 2015-03-11",
    "source_type": "community_raster",
    "confidence": "position high; number high (hand-read)",
    "review_status": "raster marker; number hand-read, needs verify before core/publish",
    "centroid_px": [
     704.9,
     1359.8
    ],
    "number_confidence": "high"
   }
  },
  {
   "type": "Feature",
   "geometry": {
    "type": "Point",
    "coordinates": [
     -85.7498849,
     35.0861215
    ]
   },
   "properties": {
    "marker_type": "triangle",
    "difficulty": "difficult",
    "trail_number": 50,
    "source_name": "SFWDA AOP trail map 2015-03-11",
    "source_type": "community_raster",
    "confidence": "position high; number high (hand-read)",
    "review_status": "raster marker; number hand-read, needs verify before core/publish",
    "centroid_px": [
     435.7,
     1381.5
    ],
    "number_confidence": "high"
   }
  },
  {
   "type": "Feature",
   "geometry": {
    "type": "Point",
    "coordinates": [
     -85.7496776,
     35.0901696
    ]
   },
   "properties": {
    "marker_type": "triangle",
    "difficulty": "difficult",
    "trail_number": null,
    "source_name": "SFWDA AOP trail map 2015-03-11",
    "source_type": "community_raster",
    "confidence": "position high (mapping-system export); number pending",
    "review_status": "raster marker; number unread; needs review before core/publish",
    "centroid_px": [
     1070.6,
     1417.9
    ]
   }
  },
  {
   "type": "Feature",
   "geometry": {
    "type": "Point",
    "coordinates": [
     -85.749501,
     35.0934859
    ]
   },
   "properties": {
    "marker_type": "triangle",
    "difficulty": "difficult",
    "trail_number": 45,
    "source_name": "SFWDA AOP trail map 2015-03-11",
    "source_type": "community_raster",
    "confidence": "position high; number high (hand-read)",
    "review_status": "raster marker; number hand-read, needs verify before core/publish",
    "centroid_px": [
     1593.7,
     1427.8
    ],
    "number_confidence": "high"
   }
  },
  {
   "type": "Feature",
   "geometry": {
    "type": "Point",
    "coordinates": [
     -85.7490723,
     35.0940477
    ]
   },
   "properties": {
    "marker_type": "triangle",
    "difficulty": "difficult",
    "trail_number": 43,
    "source_name": "SFWDA AOP trail map 2015-03-11",
    "source_type": "community_raster",
    "confidence": "position high; number high (hand-read)",
    "review_status": "raster marker; number hand-read, needs verify before core/publish",
    "centroid_px": [
     1684.9,
     1469.8
    ],
    "number_confidence": "high"
   }
  },
  {
   "type": "Feature",
   "geometry": {
    "type": "Point",
    "coordinates": [
     -85.7491328,
     35.0876559
    ]
   },
   "properties": {
    "marker_type": "triangle",
    "difficulty": "difficult",
    "trail_number": 70,
    "source_name": "SFWDA AOP trail map 2015-03-11",
    "source_type": "community_raster",
    "confidence": "position high; number high (hand-read)",
    "review_status": "raster marker; number hand-read, needs verify before core/publish",
    "centroid_px": [
     679.7,
     1475.2
    ],
    "number_confidence": "high"
   }
  },
  {
   "type": "Feature",
   "geometry": {
    "type": "Point",
    "coordinates": [
     -85.7488932,
     35.087353
    ]
   },
   "properties": {
    "marker_type": "triangle",
    "difficulty": "difficult",
    "trail_number": 71,
    "source_name": "SFWDA AOP trail map 2015-03-11",
    "source_type": "community_raster",
    "confidence": "position high; number high (hand-read)",
    "review_status": "raster marker; number hand-read, needs verify before core/publish",
    "centroid_px": [
     633.2,
     1500.3
    ],
    "number_confidence": "high"
   }
  },
  {
   "type": "Feature",
   "geometry": {
    "type": "Point",
    "coordinates": [
     -85.7486303,
     35.0881821
    ]
   },
   "properties": {
    "marker_type": "triangle",
    "difficulty": "difficult",
    "trail_number": 59,
    "source_name": "SFWDA AOP trail map 2015-03-11",
    "source_type": "community_raster",
    "confidence": "position high; number high (hand-read)",
    "review_status": "raster marker; number hand-read, needs verify before core/publish",
    "centroid_px": [
     763.4,
     1536.6
    ],
    "number_confidence": "high"
   }
  },
  {
   "type": "Feature",
   "geometry": {
    "type": "Point",
    "coordinates": [
     -85.7484071,
     35.0929538
    ]
   },
   "properties": {
    "marker_type": "triangle",
    "difficulty": "difficult",
    "trail_number": 45,
    "source_name": "SFWDA AOP trail map 2015-03-11",
    "source_type": "community_raster",
    "confidence": "position high; number high (hand-read)",
    "review_status": "raster marker; number hand-read, needs verify before core/publish",
    "centroid_px": [
     1515.3,
     1541.5
    ],
    "number_confidence": "high"
   }
  },
  {
   "type": "Feature",
   "geometry": {
    "type": "Point",
    "coordinates": [
     -85.7483966,
     35.0869495
    ]
   },
   "properties": {
    "marker_type": "triangle",
    "difficulty": "difficult",
    "trail_number": 74,
    "source_name": "SFWDA AOP trail map 2015-03-11",
    "source_type": "community_raster",
    "confidence": "position high; number high (hand-read)",
    "review_status": "raster marker; number hand-read, needs verify before core/publish",
    "centroid_px": [
     571.9,
     1556.2
    ],
    "number_confidence": "high"
   }
  },
  {
   "type": "Feature",
   "geometry": {
    "type": "Point",
    "coordinates": [
     -85.7481724,
     35.0866208
    ]
   },
   "properties": {
    "marker_type": "triangle",
    "difficulty": "difficult",
    "trail_number": 73,
    "source_name": "SFWDA AOP trail map 2015-03-11",
    "source_type": "community_raster",
    "confidence": "position high; number high (hand-read)",
    "review_status": "raster marker; number hand-read, needs verify before core/publish",
    "centroid_px": [
     521.2,
     1581.8
    ],
    "number_confidence": "high"
   }
  },
  {
   "type": "Feature",
   "geometry": {
    "type": "Point",
    "coordinates": [
     -85.7478853,
     35.085581
    ]
   },
   "properties": {
    "marker_type": "triangle",
    "difficulty": "difficult",
    "trail_number": 50,
    "source_name": "SFWDA AOP trail map 2015-03-11",
    "source_type": "community_raster",
    "confidence": "position high; number high (hand-read)",
    "review_status": "raster marker; number hand-read, needs verify before core/publish",
    "centroid_px": [
     358.3,
     1618.4
    ],
    "number_confidence": "high"
   }
  },
  {
   "type": "Feature",
   "geometry": {
    "type": "Point",
    "coordinates": [
     -85.7474444,
     35.0946463
    ]
   },
   "properties": {
    "marker_type": "triangle",
    "difficulty": "difficult",
    "trail_number": 67,
    "source_name": "SFWDA AOP trail map 2015-03-11",
    "source_type": "community_raster",
    "confidence": "position high; number high (hand-read)",
    "review_status": "raster marker; number hand-read, needs verify before core/publish",
    "centroid_px": [
     1787.4,
     1627.6
    ],
    "number_confidence": "high"
   }
  },
  {
   "type": "Feature",
   "geometry": {
    "type": "Point",
    "coordinates": [
     -85.7476239,
     35.0873287
    ]
   },
   "properties": {
    "marker_type": "triangle",
    "difficulty": "difficult",
    "trail_number": 57,
    "source_name": "SFWDA AOP trail map 2015-03-11",
    "source_type": "community_raster",
    "confidence": "position high; number high (hand-read)",
    "review_status": "raster marker; number hand-read, needs verify before core/publish",
    "centroid_px": [
     633.7,
     1650.1
    ],
    "number_confidence": "high"
   }
  },
  {
   "type": "Feature",
   "geometry": {
    "type": "Point",
    "coordinates": [
     -85.746654,
     35.0860828
    ]
   },
   "properties": {
    "marker_type": "triangle",
    "difficulty": "difficult",
    "trail_number": null,
    "source_name": "SFWDA AOP trail map 2015-03-11",
    "source_type": "community_raster",
    "confidence": "position high (mapping-system export); number pending",
    "review_status": "raster marker; number unread; needs review before core/publish",
    "centroid_px": [
     440.4,
     1771.4
    ]
   }
  }
 ],
 "_meta_numbers": {
  "added": "2026-05-29 attach_trail_numbers.py (run after the trace pipeline)",
  "method": "hand-read off 3x contact sheets, matched to markers by centroid_px (<30px)",
  "matched": 117,
  "of": 124,
  "difficulty_bands": {
   "easy": "1-20",
   "moderate": "21-39 & 80-99",
   "difficult": "40-79"
  },
  "caveat": "number provisional (2-digit high / single-digit low); trail numbers repeat along a route"
 }
}