{"type":"FeatureCollection","features":[{"type":"Feature","properties":{"id":"aop_roads-1","name":"I- 24","description":null,"kind":"road","source":"USGS National Map (transportation)","confidence":"observed","permission":"public domain (USGS)","status":"raw context","last_checked":null,"mtfcc_code":"S1100","tnmfrc":1,"interstate":"24","us_route":"64","state_route":null,"county_route":null,"road_class":"controlled_access","usgs_layer_id":"29"},"geometry":{"type":"LineString","coordinates":[[-85.73709966769543,35.09120266339893],[-85.73708066742886,35.090445663526566],[-85.73707766795413,35.090320662834756],[-85.73701066710865,35.0886776627592],[-85.736970667824,35.08767366228728]]}},{"type":"Feature","properties":{"id":"aop_roads-2","name":"I- 24","description":null,"kind":"road","source":"USGS National Map (transportation)","confidence":"observed","permission":"public domain (USGS)","status":"raw context","last_checked":null,"mtfcc_code":"S1100","tnmfrc":1,"interstate":"24","us_route":"64","state_route":null,"county_route":null,"road_class":"controlled_access","usgs_layer_id":"29"},"geometry":{"type":"LineString","coordinates":[[-85.74127767009813,35.104721665725016],[-85.73999166888682,35.10318666542423],[-85.73960566909744,35.10272566530859],[-85.73956366926464,35.10267566567658],[-85.7393706689208,35.10245066585058],[-85.73865466852023,35.10157566527823],[-85.73829066847216,35.10105266550881],[-85.73803266872929,35.10061066503666],[-85.73800966826477,35.100569665055936],[-85.73777866828608,35.10008766495579],[-85.7376816682017,35.099848665127034],[-85.73751366797221,35.099375664784304],[-85.73738966812367,35.098900664793824],[-85.7373016682601,35.09843366513017],[-85.73725266785631,35.09804566445163],[-85.73721966824435,35.09741666464913],[-85.73717666768832,35.09517166401964],[-85.73713466785553,35.09301966389586],[-85.73709966769543,35.09120266339893]]}},{"type":"Feature","properties":{"id":"aop_roads-3","name":"I- 24","description":null,"kind":"road","source":"USGS National Map (transportation)","confidence":"observed","permission":"public domain (USGS)","status":"raw context","last_checked":null,"mtfcc_code":"S1100","tnmfrc":1,"interstate":"24","us_route":"64","state_route":null,"county_route":null,"road_class":"controlled_access","usgs_layer_id":"29"},"geometry":{"type":"LineString","coordinates":[[-85.7369636681513,35.09792966489042],[-85.73702466825068,35.09847866515761],[-85.73709166819783,35.09887266477765],[-85.7372166678713,35.099357664827416],[-85.7372936678642,35.099599664732466],[-85.7374776679872,35.10009266485865],[-85.73769566844541,35.10056566545111],[-85.73783266871276,35.10081166503798],[-85.73812566861572,35.10129966535574],[-85.73847966861806,35.10179166523684],[-85.73928466870709,35.10276266544277],[-85.73935266937745,35.10284566562314],[-85.74150367005393,35.10540866615401]]}},{"type":"Feature","properties":{"id":"aop_roads-42","name":"William B Martin Rd","description":null,"kind":"road","source":"USGS National Map (transportation)","confidence":"observed","permission":"public domain (USGS)","status":"raw context","last_checked":null,"mtfcc_code":"S1400","tnmfrc":4,"interstate":null,"us_route":null,"state_route":null,"county_route":null,"road_class":"local","usgs_layer_id":"32"},"geometry":{"type":"LineString","coordinates":[[-85.76466067590823,35.09974866377305],[-85.76442967592956,35.09976366427796],[-85.76377167615362,35.09977866404513],[-85.76364867612998,35.09979566436594],[-85.76344167554242,35.09984466401691],[-85.76287167563002,35.100017664079104],[-85.7619336754716,35.10032266446711],[-85.76113567505526,35.10063266431869],[-85.76103867497089,35.1006526645294],[-85.76072667480135,35.10067766460221],[-85.76043267507346,35.100661663997926],[-85.76028267528565,35.100641664524375],[-85.75956667488508,35.1004886645674],[-85.75903667425735,35.100407663998446],[-85.75768567454536,35.100239664657664],[-85.7572466741542,35.10021766453462],[-85.75712267430565,35.100199664028665],[-85.7570416741148,35.10017066418507],[-85.75691667354302,35.1001076645653],[-85.75653067375363,35.099864664421006]]}},{"type":"Feature","properties":{"id":"aop_roads-48","name":"Ellis Cove Rd","description":null,"kind":"road","source":"USGS National Map (transportation)","confidence":"observed","permission":"public domain (USGS)","status":"raw context","last_checked":null,"mtfcc_code":"S1400","tnmfrc":4,"interstate":null,"us_route":null,"state_route":null,"county_route":null,"road_class":"local","usgs_layer_id":"32"},"geometry":{"type":"LineString","coordinates":[[-85.74116466832358,35.083341661403395],[-85.74136466834013,35.08344266130448],[-85.74168966892844,35.08360766147795],[-85.74186366900572,35.08371366195689],[-85.74195966836687,35.08380066137318],[-85.74201466861845,35.083883661743805],[-85.74208766841339,35.084063661478005],[-85.74211066887791,35.08417966165169],[-85.74211366835266,35.08419466134525],[-85.74212766859635,35.08426166190302],[-85.7421296691445,35.08427566184805],[-85.74213366844414,35.084307661398356],[-85.74213966829194,35.08434866147001],[-85.74214666886293,35.08440366144412],[-85.74214066901516,35.08443366148121]]}},{"type":"Feature","properties":{"id":"aop_roads-51","name":null,"description":null,"kind":"road","source":"USGS National Map (transportation)","confidence":"observed","permission":"public domain (USGS)","status":"raw context","last_checked":null,"mtfcc_code":"S1400","tnmfrc":4,"interstate":null,"us_route":null,"state_route":null,"county_route":null,"road_class":"local","usgs_layer_id":"32"},"geometry":{"type":"LineString","coordinates":[[-85.73691866794546,35.101858665301656],[-85.73707266793126,35.10202466521397],[-85.73721566804637,35.10212966575876],[-85.7372576687775,35.10216366541622],[-85.73731166830586,35.10223866569132],[-85.73737266840523,35.10243466559437],[-85.73737766842808,35.102466665368766],[-85.73737266840523,35.102552665848684],[-85.73731666832872,35.102692665393235],[-85.73727066829797,35.10273566552526],[-85.73714466879959,35.10277666588643],[-85.73675466791394,35.102785665855414]]}},{"type":"Feature","properties":{"id":"aop_roads-54","name":null,"description":null,"kind":"road","source":"USGS National Map (transportation)","confidence":"observed","permission":"public domain (USGS)","status":"raw context","last_checked":null,"mtfcc_code":"S1400","tnmfrc":4,"interstate":null,"us_route":null,"state_route":null,"county_route":null,"road_class":"local","usgs_layer_id":"32"},"geometry":{"type":"LineString","coordinates":[[-85.74189566879278,35.0818756612703],[-85.74174566810663,35.082352661441675],[-85.74167666850965,35.08250666136833],[-85.7416506685704,35.08254466161105],[-85.74153966824231,35.0826356612884],[-85.7414536680286,35.08288966151496],[-85.74136566816502,35.083103661491336],[-85.74132566798207,35.08317166122201],[-85.74125966875813,35.08325166152451],[-85.74116466832358,35.083341661403395]]}},{"type":"Feature","properties":{"id":"aop_roads-66","name":"Ellis Rd","description":null,"kind":"road","source":"USGS National Map (transportation)","confidence":"observed","permission":"public domain (USGS)","status":"raw context","last_checked":null,"mtfcc_code":"S1400","tnmfrc":4,"interstate":null,"us_route":null,"state_route":null,"county_route":null,"road_class":"local","usgs_layer_id":"32"},"geometry":{"type":"LineString","coordinates":[[-85.73697966714651,35.08164766135446],[-85.73702366752744,35.08245566134367],[-85.73705366676637,35.08340966167079],[-85.73705466748959,35.083429661695426],[-85.73714266735314,35.08498466238058],[-85.73723666706447,35.08743966276759],[-85.73724866765835,35.087714662872195],[-85.73728966766623,35.088695662868645],[-85.73731866797854,35.08938866259224],[-85.73734466791781,35.09032766339014],[-85.73734966794069,35.090458663487546],[-85.73738066790283,35.091308663563],[-85.73738066790283,35.09145466338309],[-85.73738466810079,35.092725663723144],[-85.73741966826088,35.094278663624536],[-85.73742566810866,35.09444666422352],[-85.73744666802506,35.09500366417945],[-85.73744966839811,35.09509566425731],[-85.73745366769776,35.095443664252095]]}},{"type":"Feature","properties":{"id":"aop_roads-71","name":"Ellis Cove Rd","description":null,"kind":"road","source":"USGS National Map (transportation)","confidence":"observed","permission":"public domain (USGS)","status":"raw context","last_checked":null,"mtfcc_code":"S1400","tnmfrc":4,"interstate":null,"us_route":null,"state_route":null,"county_route":null,"road_class":"local","usgs_layer_id":"32"},"geometry":{"type":"LineString","coordinates":[[-85.74214066901516,35.08443366148121],[-85.74197166896076,35.08531366158045],[-85.74188166854907,35.087072662266145]]}},{"type":"Feature","properties":{"id":"aop_roads-92","name":"Ellis Cove Rd","description":null,"kind":"road","source":"USGS National Map (transportation)","confidence":"observed","permission":"public domain (USGS)","status":"raw context","last_checked":null,"mtfcc_code":"S1400","tnmfrc":4,"interstate":null,"us_route":null,"state_route":null,"county_route":null,"road_class":"local","usgs_layer_id":"32"},"geometry":{"type":"LineString","coordinates":[[-85.74214066901516,35.08443366148121],[-85.74217866864998,35.08483866200442],[-85.74218166902304,35.08499466183285],[-85.74218966852065,35.085040661649884],[-85.74221166916026,35.08512866157925],[-85.74229666865078,35.08524066208706],[-85.74240866880376,35.08534966181006],[-85.7428266692785,35.085716661978246],[-85.74314566912074,35.0860426620307],[-85.7433616690308,35.08629466178713],[-85.74381066946768,35.08693966247397],[-85.74393466931623,35.087170662129026],[-85.74410666974369,35.08739766234926],[-85.74425666953152,35.08755966205856],[-85.74446366922075,35.087735662267356],[-85.74457266989901,35.0878406621025],[-85.744789669634,35.08810266272579],[-85.74497266993208,35.088270662082174],[-85.74508366936188,35.08835066252916],[-85.7457266699675,35.08876666211828],[-85.74615667013782,35.08905566275359],[-85.74649666989643,35.08924966266157],[-85.74672167002734,35.089333662304306],[-85.74703767039483,35.08941566251959],[-85.74770067019364,35.08954266246621],[-85.74879367106108,35.08974266288989],[-85.7490126713442,35.08977366283447],[-85.7491326709948,35.08979966223356],[-85.74928167095771,35.08978266276874],[-85.74940867117932,35.08972566267813],[-85.74968067116589,35.089564662529476]]}},{"type":"Feature","properties":{"id":"aop_roads-94","name":"Jackson Point Rd","description":null,"kind":"road","source":"USGS National Map (transportation)","confidence":"observed","permission":"public domain (USGS)","status":"raw context","last_checked":null,"mtfcc_code":"S1400","tnmfrc":4,"interstate":null,"us_route":null,"state_route":null,"county_route":null,"road_class":"local","usgs_layer_id":"32"},"geometry":{"type":"LineString","coordinates":[[-85.77046167800948,35.099979663892974],[-85.76969367773037,35.09995366406492],[-85.76958567777532,35.09995066397112],[-85.76929767699693,35.09995266378868],[-85.76919167759004,35.09996466416277],[-85.76908167708686,35.09998766389496],[-85.76865667693943,35.10007666413956],[-85.76785767669818,35.10019366385913],[-85.76683267650111,35.10031966365198],[-85.76652567635443,35.10037566415069],[-85.76598467675436,35.10042066384111],[-85.76585567688294,35.10041566395842],[-85.76575267605246,35.100390663805264],[-85.7655376759673,35.10029566374144],[-85.76502967597918,35.10003666416554],[-85.76480567657151,35.099887664181395],[-85.76469767571817,35.099793663809564],[-85.76466067590823,35.09974866377305]]}},{"type":"Feature","properties":{"id":"aop_roads-95","name":"Ellis Cove Rd","description":null,"kind":"road","source":"USGS National Map (transportation)","confidence":"observed","permission":"public domain (USGS)","status":"raw context","last_checked":null,"mtfcc_code":"S1400","tnmfrc":4,"interstate":null,"us_route":null,"state_route":null,"county_route":null,"road_class":"local","usgs_layer_id":"32"},"geometry":{"type":"LineString","coordinates":[[-85.73697266747382,35.08151566130534],[-85.73738966722534,35.08160266159563],[-85.73763366762282,35.08164466132229],[-85.73795366728996,35.08172366115216],[-85.73814466708566,35.081791661298084],[-85.73829066757384,35.08184366150111],[-85.73893166763136,35.08215666104769],[-85.73917266765578,35.0822796615037],[-85.73967066759813,35.082557661361136],[-85.74024566843171,35.08285066168208],[-85.74116466832358,35.083341661403395]]}},{"type":"Feature","properties":{"id":"aop_roads-96","name":"Jackson Point Rd","description":null,"kind":"road","source":"USGS National Map (transportation)","confidence":"observed","permission":"public domain (USGS)","status":"raw context","last_checked":null,"mtfcc_code":"S1400","tnmfrc":4,"interstate":null,"us_route":null,"state_route":null,"county_route":null,"road_class":"local","usgs_layer_id":"32"},"geometry":{"type":"LineString","coordinates":[[-85.76466067590823,35.09974866377305],[-85.76463767634202,35.09971266401994],[-85.76460267618192,35.099592664238116],[-85.76458867593823,35.099305664031235],[-85.76459567561092,35.098697663907394],[-85.76457067639487,35.098418663645624],[-85.76428167579157,35.09717666329472],[-85.76406267550844,35.09618266337444],[-85.76400767525686,35.09595966318321],[-85.7637356752703,35.09514966326402],[-85.76365667562759,35.09501966295411],[-85.76355567534524,35.09482266325985],[-85.76351867553532,35.09465966293653],[-85.76351967536023,35.09453966306749],[-85.76366867532315,35.09413966320855],[-85.7637356752703,35.09388766270151],[-85.76380967578847,35.09349866281952],[-85.76386067584208,35.09335466296323],[-85.76393467546193,35.093025662388314],[-85.76397167527186,35.0925856624983],[-85.76404067576713,35.09236066275637],[-85.76424567580655,35.09197066256607],[-85.76425567585228,35.091867662183695],[-85.76423567576082,35.09175666233253],[-85.76418967573005,35.091662662141694],[-85.76402467497529,35.091457662319414],[-85.76352167501005,35.09100466218252],[-85.76321067556374,35.09062666240102],[-85.76286867525697,35.09005066174514],[-85.76271167489814,35.08972466227646],[-85.76270667487528,35.089516662250126],[-85.76279567456373,35.089310661771925],[-85.76309767468753,35.08872166187633],[-85.76346467510864,35.088185661659125],[-85.76362867514017,35.08787066161055],[-85.76366967514807,35.08751766170195],[-85.76362567476713,35.08698766132966],[-85.76359067460703,35.08669966115604],[-85.76349367452264,35.0864896613532],[-85.76323967497774,35.08622366112074],[-85.76292967445804,35.08588566155253],[-85.76224367419469,35.08481966131698],[-85.76115167405048,35.083315660680796],[-85.76059967368144,35.082657660274265],[-85.76039767401507,35.08244766035672],[-85.76024367402927,35.08226466072294],[-85.76018767395277,35.0821146608495],[-85.76023967383131,35.082016660792995],[-85.76039567346693,35.08191466083423],[-85.76083067366011,35.08188966015463],[-85.76142267421211,35.08182266058905],[-85.76192267380432,35.08172066038772],[-85.76237367389103,35.08157766008529],[-85.76292767480821,35.08130166010365],[-85.76334767493279,35.08119166034618],[-85.7637726750802,35.080900660232444],[-85.76422667464166,35.08041366038013],[-85.76428767474103,35.08030865980605],[-85.76443067485617,35.08030066007887],[-85.76453867481119,35.08039665969423],[-85.76465567498707,35.08061965980448],[-85.76477167533801,35.080839659978494],[-85.76489567518657,35.08147266027421],[-85.76504867534744,35.081980660562685],[-85.76518967491444,35.08221366054695],[-85.76541767541838,35.082480660379574],[-85.76626567516513,35.08340566048913],[-85.76664467528182,35.08379966089884],[-85.76679267541982,35.08389766028355],[-85.76690667612095,35.08390566039312],[-85.76702267557359,35.08385966067109],[-85.76708867569583,35.08376866088893],[-85.76709067534566,35.083163660305324],[-85.76714367594742,35.082728660369135],[-85.76730967562877,35.082428660582586],[-85.76746167596473,35.08207265989456],[-85.76761767560035,35.08163666025584],[-85.76771567550963,35.08136665982381],[-85.76781367631725,35.08123865987309],[-85.76810867587002,35.08098765970831],[-85.76830867588657,35.08060866003747],[-85.76847267591809,35.079824659459604],[-85.76847267591809,35.07894065976315],[-85.76847267591809,35.07824365952628],[-85.76856367615468,35.077571659021345]]}},{"type":"Feature","properties":{"id":"aop_roads-99","name":"Ellis Rd","description":null,"kind":"road","source":"USGS National Map (transportation)","confidence":"observed","permission":"public domain (USGS)","status":"raw context","last_checked":null,"mtfcc_code":"S1400","tnmfrc":4,"interstate":null,"us_route":null,"state_route":null,"county_route":null,"road_class":"local","usgs_layer_id":"32"},"geometry":{"type":"LineString","coordinates":[[-85.73745366769776,35.095443664252095],[-85.73745966844386,35.09589366447637],[-85.73748666820804,35.09698866427601],[-85.73749766807869,35.09742966423376],[-85.73752866804082,35.09802766493604],[-85.73757066787361,35.098362664742496],[-85.73770866796588,35.09902666511517],[-85.73789366881212,35.099593665253686],[-85.73802766870644,35.09993466542907],[-85.73823166892093,35.10036566511438],[-85.73848566846583,35.100833665000735],[-85.73873266833803,35.10122266516539],[-85.73882166892481,35.101344665271085],[-85.73904366868265,35.10164766532803],[-85.73936266942319,35.10203666528305],[-85.73944966946185,35.102159665154645],[-85.73978366937268,35.10255466560235],[-85.73983666907613,35.10261766553585],[-85.74004966951146,35.102875665490465],[-85.74021766974096,35.103059665414996],[-85.740242668957,35.10308666596012],[-85.74049266920227,35.1034046659914],[-85.74122866969432,35.1042726659465]]}},{"type":"Feature","properties":{"id":"aop_roads-101","name":null,"description":null,"kind":"road","source":"USGS National Map (transportation)","confidence":"observed","permission":"public domain (USGS)","status":"raw context","last_checked":null,"mtfcc_code":"S1740","tnmfrc":4,"interstate":null,"us_route":null,"state_route":null,"county_route":null,"road_class":"local","usgs_layer_id":"32"},"geometry":{"type":"LineString","coordinates":[[-85.73745366769776,35.095443664252095],[-85.73790166830975,35.0954496640362],[-85.73924566834903,35.09547066437965],[-85.73969466878592,35.09547766375797]]}},{"type":"Feature","properties":{"id":"aop_roads-105","name":null,"description":null,"kind":"road","source":"USGS National Map (transportation)","confidence":"observed","permission":"public domain (USGS)","status":"raw context","last_checked":null,"mtfcc_code":"S1740","tnmfrc":4,"interstate":null,"us_route":null,"state_route":null,"county_route":null,"road_class":"local","usgs_layer_id":"32"},"geometry":{"type":"LineString","coordinates":[[-85.73693066674271,35.08018366122188],[-85.73731766725533,35.080165660704246],[-85.73841666707223,35.08011466068634],[-85.73846866784908,35.080079660871824],[-85.73879166788926,35.079864661261766]]}},{"type":"Feature","properties":{"id":"aop_roads-109","name":null,"description":null,"kind":"road","source":"USGS National Map (transportation)","confidence":"observed","permission":"public domain (USGS)","status":"raw context","last_checked":null,"mtfcc_code":"S1640","tnmfrc":4,"interstate":null,"us_route":null,"state_route":null,"county_route":null,"road_class":"local","usgs_layer_id":"32"},"geometry":{"type":"LineString","coordinates":[[-85.73709966769543,35.09120266339893],[-85.7369356676639,35.09120366304748]]}}]}