<?xml version="1.0" encoding="UTF-8" standalone="no"?>
<gpx xmlns="http://www.topografix.com/GPX/1/1" creator="GaiaGPS" version="1.1" xmlns:xsi="http://www.w3.org/2001/XMLSchema-instance" xsi:schemaLocation="http://www.topografix.com/GPX/1/1 http://www.topografix.com/GPX/1/1/gpx.xsd">
  <metadata>
    <time>2026-05-16T19:47:53Z</time>
  </metadata>
  <wpt lat="35.091910" lon="-85.751500">
    <ele>215.0</ele>
    <time>2026-05-16T19:47:53Z</time>
    <name>Wpt 5/16/26, 14:47:53 race driver position</name>
    <sym>red-pin-down</sym>
  </wpt>
</gpx>
