{
  "type": "FeatureCollection",
  "name": "aop_9_patch_data_bounds",
  "features": [
    {
      "type": "Feature",
      "properties": {
        "cell_code": "NW",
        "role": "raster_terrain_context",
        "generated_on": "2026-05-20",
        "source": "brain/research/aop_data_bounds.md",
        "notes": "Use for imagery/topo/DEM/lidar acquisition context only. Trails stay inside the park working envelope."
      },
      "geometry": {
        "type": "Polygon",
        "coordinates": [[[-85.782935283,35.10100706],[-85.761008221,35.10100706],[-85.761008221,35.117928496],[-85.782935283,35.117928496],[-85.782935283,35.10100706]]]
      }
    },
    {
      "type": "Feature",
      "properties": {
        "cell_code": "N",
        "role": "raster_terrain_context",
        "generated_on": "2026-05-20",
        "source": "brain/research/aop_data_bounds.md",
        "notes": "Use for imagery/topo/DEM/lidar acquisition context only. Trails stay inside the park working envelope."
      },
      "geometry": {
        "type": "Polygon",
        "coordinates": [[[-85.761008221,35.10100706],[-85.739081159,35.10100706],[-85.739081159,35.117928496],[-85.761008221,35.117928496],[-85.761008221,35.10100706]]]
      }
    },
    {
      "type": "Feature",
      "properties": {
        "cell_code": "NE",
        "role": "raster_terrain_context",
        "generated_on": "2026-05-20",
        "source": "brain/research/aop_data_bounds.md",
        "notes": "Use for imagery/topo/DEM/lidar acquisition context only. Trails stay inside the park working envelope."
      },
      "geometry": {
        "type": "Polygon",
        "coordinates": [[[-85.739081159,35.10100706],[-85.717154097,35.10100706],[-85.717154097,35.117928496],[-85.739081159,35.117928496],[-85.739081159,35.10100706]]]
      }
    },
    {
      "type": "Feature",
      "properties": {
        "cell_code": "W",
        "role": "raster_terrain_context",
        "generated_on": "2026-05-20",
        "source": "brain/research/aop_data_bounds.md",
        "notes": "Use for imagery/topo/DEM/lidar acquisition context only. Trails stay inside the park working envelope."
      },
      "geometry": {
        "type": "Polygon",
        "coordinates": [[[-85.782935283,35.084085624],[-85.761008221,35.084085624],[-85.761008221,35.10100706],[-85.782935283,35.10100706],[-85.782935283,35.084085624]]]
      }
    },
    {
      "type": "Feature",
      "properties": {
        "cell_code": "C",
        "role": "current_parcel_envelope_bounds",
        "generated_on": "2026-05-20",
        "source": "brain/research/aop_data_bounds.md",
        "notes": "Current exported bbox of the two-parcel candidate AOP working envelope."
      },
      "geometry": {
        "type": "Polygon",
        "coordinates": [[[-85.761008221,35.084085624],[-85.739081159,35.084085624],[-85.739081159,35.10100706],[-85.761008221,35.10100706],[-85.761008221,35.084085624]]]
      }
    },
    {
      "type": "Feature",
      "properties": {
        "cell_code": "E",
        "role": "raster_terrain_context",
        "generated_on": "2026-05-20",
        "source": "brain/research/aop_data_bounds.md",
        "notes": "Use for imagery/topo/DEM/lidar acquisition context only. Trails stay inside the park working envelope."
      },
      "geometry": {
        "type": "Polygon",
        "coordinates": [[[-85.739081159,35.084085624],[-85.717154097,35.084085624],[-85.717154097,35.10100706],[-85.739081159,35.10100706],[-85.739081159,35.084085624]]]
      }
    },
    {
      "type": "Feature",
      "properties": {
        "cell_code": "SW",
        "role": "raster_terrain_context",
        "generated_on": "2026-05-20",
        "source": "brain/research/aop_data_bounds.md",
        "notes": "Use for imagery/topo/DEM/lidar acquisition context only. Trails stay inside the park working envelope."
      },
      "geometry": {
        "type": "Polygon",
        "coordinates": [[[-85.782935283,35.067164188],[-85.761008221,35.067164188],[-85.761008221,35.084085624],[-85.782935283,35.084085624],[-85.782935283,35.067164188]]]
      }
    },
    {
      "type": "Feature",
      "properties": {
        "cell_code": "S",
        "role": "raster_terrain_context",
        "generated_on": "2026-05-20",
        "source": "brain/research/aop_data_bounds.md",
        "notes": "Use for imagery/topo/DEM/lidar acquisition context only. Trails stay inside the park working envelope."
      },
      "geometry": {
        "type": "Polygon",
        "coordinates": [[[-85.761008221,35.067164188],[-85.739081159,35.067164188],[-85.739081159,35.084085624],[-85.761008221,35.084085624],[-85.761008221,35.067164188]]]
      }
    },
    {
      "type": "Feature",
      "properties": {
        "cell_code": "SE",
        "role": "raster_terrain_context",
        "generated_on": "2026-05-20",
        "source": "brain/research/aop_data_bounds.md",
        "notes": "Use for imagery/topo/DEM/lidar acquisition context only. Trails stay inside the park working envelope."
      },
      "geometry": {
        "type": "Polygon",
        "coordinates": [[[-85.739081159,35.067164188],[-85.717154097,35.067164188],[-85.717154097,35.084085624],[-85.739081159,35.084085624],[-85.739081159,35.067164188]]]
      }
    }
  ]
}
