{
  "type": "FeatureCollection",
  "name": "aop_visitor_context_callouts",
  "_description": "Two planning callout areas for visitor support orientation around Adventure Off Road Park. These are cartographic annotations, not surveyed service-area boundaries. To bake drag-to-move positions back here so they survive a data reset: viewer right panel 'Export all' -> save JSON -> python3 mvp/scripts/export_positioned_features.py <that file>.",
  "_sources_checked": [
    {
      "name": "Adventure Off Road Park official site / rentals pages",
      "url": "https://adventureoffroadpark.com/",
      "used_for": "AOP address, on-site camping/RV/bunkhouse context, office contact",
      "accessed": "2026-05-21"
    },
    {
      "name": "RiderPlanet Adventure Off Road Park page",
      "url": "https://www.riderplanet-usa.com/atv/trails/info/tennessee_15194/ride_d19a.htm",
      "used_for": "AOP approach directions, nearby key services, camping/RV/restroom/shower notes",
      "accessed": "2026-05-21"
    },
    {
      "name": "Marion County Tennessee Tourism restaurants",
      "url": "https://visitmarioncountytn.com/food-and-drink/all-restaurants/",
      "used_for": "Restaurant clusters in South Pittsburg, Kimball, and Monteagle",
      "accessed": "2026-05-21"
    },
    {
      "name": "Marion County Tennessee Tourism hotels",
      "url": "https://visitmarioncountytn.com/places-to-stay/hotels/",
      "used_for": "Hotel/lodging clusters in South Pittsburg, Kimball, and Monteagle",
      "accessed": "2026-05-21"
    },
    {
      "name": "Distance-Cities South Pittsburg to Monteagle",
      "url": "https://www.distance-cities.com/distance-south-pittsburg-tn-to-monteagle-tn",
      "used_for": "South Pittsburg to Monteagle drive-time planning estimate; AOP to Monteagle label is rounded upward from park approach distance plus this city-to-city route",
      "accessed": "2026-05-21"
    },
    {
      "name": "Distance-Cities South Pittsburg to Chattanooga",
      "url": "https://www.distance-cities.com/distance-south-pittsburg-tn-to-chattanooga-tn",
      "used_for": "South Pittsburg to Chattanooga drive distance/time (30 mi, ~35 min via I-24); the AOP-to-Chattanooga circle label rounds the park approach plus this route to orient riders to the regional metro",
      "accessed": "2026-05-21"
    }
  ],
  "features": [
    {
      "type": "Feature",
      "properties": {
        "name": "South Pittsburg / Kimball supply run",
        "label": "SE TO SOUTH PITTSBURG / KIMBALL\n5-8 mi | 10-15 min\nfood • fuel • hotels\nChattanooga metro ~35 mi | ~45 min",
        "direction": "southeast",
        "kind": "visitor_support",
        "services": "food, fuel, convenience, hotels, I-24 access; Chattanooga metro further SE",
        "examples": "South Pittsburg restaurants; Kimball I-24 interchange fuel, fast food, and Hampton Inn hotel cluster; Chattanooga metro for airport, big-box, and full city services",
        "distance_note": "Approximate from the AOP office / Ellis Cove Road approach. Chattanooga sits about 30 driving miles past South Pittsburg via I-24, so the ~35 mi / ~45 min AOP-to-Chattanooga figure rounds the park approach plus that route — a regional-orientation estimate, not turn-by-turn routing.",
        "drive_time_note": "Planning estimate; check live routing and hours before relying on it.",
        "source_summary": "AOP office address; RiderPlanet approach and key-services notes; Marion County Tourism food/lodging listings; South Pittsburg-to-Chattanooga drive reference.",
        "directions_url": "https://www.google.com/maps/dir/?api=1&origin=1040%20Ellis%20Cove%20Road%2C%20South%20Pittsburg%2C%20TN%2037380&destination=South%20Pittsburg%2C%20TN",
        "food_url": "https://visitmarioncountytn.com/food-and-drink/all-restaurants/#:~:text=South%20Pittsburg&text=Kimball",
        "lodging_url": "https://visitmarioncountytn.com/places-to-stay/hotels/#:~:text=Kimball&text=South%20Pittsburg",
        "source_url": "https://www.riderplanet-usa.com/atv/trails/info/tennessee_15194/ride_d19a.htm"
      },
      "geometry": {
        "type": "Polygon",
        "coordinates": [
          [
            [
              -85.73321,
              35.08007
            ],
            [
              -85.73326,
              35.08065
            ],
            [
              -85.7334,
              35.08123
            ],
            [
              -85.73363,
              35.08179
            ],
            [
              -85.73395,
              35.08231
            ],
            [
              -85.73435,
              35.0828
            ],
            [
              -85.73482,
              35.08324
            ],
            [
              -85.73536,
              35.08363
            ],
            [
              -85.73596,
              35.08396
            ],
            [
              -85.7366,
              35.08422
            ],
            [
              -85.73728,
              35.08441
            ],
            [
              -85.73798,
              35.08452
            ],
            [
              -85.7387,
              35.08456
            ],
            [
              -85.73942,
              35.08452
            ],
            [
              -85.74012,
              35.08441
            ],
            [
              -85.7408,
              35.08422
            ],
            [
              -85.74144,
              35.08396
            ],
            [
              -85.74204,
              35.08363
            ],
            [
              -85.74258,
              35.08324
            ],
            [
              -85.74305,
              35.0828
            ],
            [
              -85.74345,
              35.08231
            ],
            [
              -85.74377,
              35.08179
            ],
            [
              -85.744,
              35.08123
            ],
            [
              -85.74414,
              35.08065
            ],
            [
              -85.74419,
              35.08007
            ],
            [
              -85.74414,
              35.07948
            ],
            [
              -85.744,
              35.0789
            ],
            [
              -85.74377,
              35.07835
            ],
            [
              -85.74345,
              35.07782
            ],
            [
              -85.74305,
              35.07733
            ],
            [
              -85.74258,
              35.07689
            ],
            [
              -85.74204,
              35.0765
            ],
            [
              -85.74144,
              35.07618
            ],
            [
              -85.7408,
              35.07592
            ],
            [
              -85.74012,
              35.07573
            ],
            [
              -85.73942,
              35.07561
            ],
            [
              -85.7387,
              35.07558
            ],
            [
              -85.73798,
              35.07561
            ],
            [
              -85.73728,
              35.07573
            ],
            [
              -85.7366,
              35.07592
            ],
            [
              -85.73596,
              35.07618
            ],
            [
              -85.73536,
              35.0765
            ],
            [
              -85.73482,
              35.07689
            ],
            [
              -85.73435,
              35.07733
            ],
            [
              -85.73395,
              35.07782
            ],
            [
              -85.73363,
              35.07835
            ],
            [
              -85.7334,
              35.0789
            ],
            [
              -85.73326,
              35.07948
            ],
            [
              -85.73321,
              35.08007
            ]
          ]
        ]
      }
    },
    {
      "type": "Feature",
      "properties": {
        "name": "Monteagle plateau services",
        "label": "N/NW TO MONTEAGLE\n~30 min\nfood • lodging • I-24",
        "direction": "northwest",
        "kind": "visitor_support",
        "services": "lodging, restaurants, I-24 plateau access",
        "examples": "Smokehouse Lodge & Cabins, Monteagle hotels, Mountain Goat Market, High Point, Smokehouse Restaurant",
        "distance_note": "South Pittsburg to Monteagle is listed at about 21 driving miles; AOP adds the Ellis Cove Road approach.",
        "drive_time_note": "Approximate planning callout, rounded upward from the city-to-city drive and park approach.",
        "source_summary": "Marion County Tourism Monteagle food/lodging listings; South Pittsburg to Monteagle drive-distance reference.",
        "directions_url": "https://www.google.com/maps/dir/?api=1&origin=1040%20Ellis%20Cove%20Road%2C%20South%20Pittsburg%2C%20TN%2037380&destination=Monteagle%2C%20TN",
        "food_url": "https://visitmarioncountytn.com/food-and-drink/all-restaurants/#:~:text=Monteagle",
        "lodging_url": "https://visitmarioncountytn.com/places-to-stay/hotels/#:~:text=Monteagle",
        "source_url": "https://www.distance-cities.com/distance-south-pittsburg-tn-to-monteagle-tn"
      },
      "geometry": {
        "type": "Polygon",
        "coordinates": [
          [
            [
              -85.73292,
              35.10452
            ],
            [
              -85.73297,
              35.10513
            ],
            [
              -85.73311,
              35.10573
            ],
            [
              -85.73335,
              35.10631
            ],
            [
              -85.73368,
              35.10685
            ],
            [
              -85.7341,
              35.10736
            ],
            [
              -85.73459,
              35.10782
            ],
            [
              -85.73515,
              35.10822
            ],
            [
              -85.73577,
              35.10856
            ],
            [
              -85.73644,
              35.10883
            ],
            [
              -85.73715,
              35.10903
            ],
            [
              -85.73788,
              35.10915
            ],
            [
              -85.73863,
              35.10919
            ],
            [
              -85.73937,
              35.10915
            ],
            [
              -85.74011,
              35.10903
            ],
            [
              -85.74081,
              35.10883
            ],
            [
              -85.74148,
              35.10856
            ],
            [
              -85.7421,
              35.10822
            ],
            [
              -85.74267,
              35.10782
            ],
            [
              -85.74316,
              35.10736
            ],
            [
              -85.74357,
              35.10685
            ],
            [
              -85.7439,
              35.10631
            ],
            [
              -85.74414,
              35.10573
            ],
            [
              -85.74429,
              35.10513
            ],
            [
              -85.74434,
              35.10452
            ],
            [
              -85.74429,
              35.10391
            ],
            [
              -85.74414,
              35.10331
            ],
            [
              -85.7439,
              35.10273
            ],
            [
              -85.74357,
              35.10218
            ],
            [
              -85.74316,
              35.10167
            ],
            [
              -85.74267,
              35.10121
            ],
            [
              -85.7421,
              35.10081
            ],
            [
              -85.74148,
              35.10047
            ],
            [
              -85.74081,
              35.1002
            ],
            [
              -85.74011,
              35.10001
            ],
            [
              -85.73937,
              35.09989
            ],
            [
              -85.73863,
              35.09985
            ],
            [
              -85.73788,
              35.09989
            ],
            [
              -85.73715,
              35.10001
            ],
            [
              -85.73644,
              35.1002
            ],
            [
              -85.73577,
              35.10047
            ],
            [
              -85.73515,
              35.10081
            ],
            [
              -85.73459,
              35.10121
            ],
            [
              -85.7341,
              35.10167
            ],
            [
              -85.73368,
              35.10218
            ],
            [
              -85.73335,
              35.10273
            ],
            [
              -85.73311,
              35.10331
            ],
            [
              -85.73297,
              35.10391
            ],
            [
              -85.73292,
              35.10452
            ]
          ]
        ]
      }
    },
    {
      "type": "Feature",
      "properties": {
        "id": "aop_badge",
        "name": "AOP badge",
        "description": null,
        "kind": "brand_logo",
        "source": "Adventure Off Road Park",
        "confidence": "n/a",
        "permission": "brand owner",
        "status": "decorative",
        "last_checked": null,
        "logo_id": "aop_badge",
        "icon_image": "brand-aop-badge",
        "icon_size": 0.2,
        "attribution": "Adventure Off Road Park",
        "source_url": "https://adventureoffroadpark.com/"
      },
      "geometry": {
        "type": "Point",
        "coordinates": [
          -85.74157,
          35.08698
        ]
      }
    },
    {
      "type": "Feature",
      "properties": {
        "id": "rock_warblers",
        "name": "Rock Warblers",
        "description": null,
        "kind": "brand_logo",
        "source": "Team Rock Warblers RC Rock Crawling",
        "confidence": "n/a",
        "permission": "brand owner",
        "status": "decorative",
        "last_checked": null,
        "logo_id": "rock_warblers",
        "icon_image": "brand-rock-warblers",
        "icon_size": 0.19,
        "attribution": "Team Rock Warblers RC Rock Crawling",
        "source_url": "https://www.facebook.com/events/adventure-offroad-park-nature-center/rock-warblers-trail-blazing-invitational/4541595172728436/"
      },
      "geometry": {
        "type": "Point",
        "coordinates": [
          -85.74188,
          35.09385
        ]
      }
    }
  ]
}
